{"type":"FeatureCollection","features":[{"type":"Feature","geometry":{"type":"Point","coordinates":[-93.53468,35.13539]},"properties":{"layer":"access_parking","name":"Cedar Piney Forest Service Access","description":"AGFC Public Use Facility: Cedar Piney Forest Service Access (Boating Access, Dirt). Source: AGFC FeatureServer/1, fetched 2026-10-05.","ftype":"Boating Access","fdescrip":"Dirt","owner":"USFS","lat":35.13539,"lon":-93.53468}},{"type":"Feature","geometry":{"type":"Point","coordinates":[-93.4299,35.15158]},"properties":{"layer":"access_parking","name":"Spring Lake West Boat Ramp","description":"AGFC Public Use Facility: Spring Lake West Boat Ramp (Boating Access, Gravel). Source: AGFC FeatureServer/1, fetched 2026-10-05.","ftype":"Boating Access","fdescrip":"Gravel","owner":"USFS","lat":35.15158,"lon":-93.4299}},{"type":"Feature","geometry":{"type":"Point","coordinates":[-93.42555,35.15004]},"properties":{"layer":"access_parking","name":"Spring Lake East Boat Ramp","description":"AGFC Public Use Facility: Spring Lake East Boat Ramp (Boating Access, Paved). Source: AGFC FeatureServer/1, fetched 2026-10-05.","ftype":"Boating Access","fdescrip":"Paved","owner":"USFS","lat":35.15004,"lon":-93.42555}},{"type":"Feature","geometry":{"type":"Point","coordinates":[-93.62522,35.22726]},"properties":{"layer":"access_parking","name":"Cove Lake Boat Ramp","description":"AGFC Public Use Facility: Cove Lake Boat Ramp (Boating Access, Concrete Plank). Source: AGFC FeatureServer/1, fetched 2026-10-05.","ftype":"Boating Access","fdescrip":"Concrete Plank","owner":"USFS","lat":35.22726,"lon":-93.62522}},{"type":"Feature","geometry":{"type":"Point","coordinates":[-93.42513,35.15023]},"properties":{"layer":"access_parking","name":"Spring Lake Boat Ramp Parking Area","description":"AGFC Public Use Facility: Spring Lake Boat Ramp Parking Area (Parking Area, Paved). Source: AGFC FeatureServer/1, fetched 2026-10-05.","ftype":"Parking Area","fdescrip":"Paved","owner":"USFS","lat":35.15023,"lon":-93.42513}},{"type":"Feature","geometry":{"type":"Point","coordinates":[-93.62614,35.22854]},"properties":{"layer":"access_parking","name":"Cove Lake Parking Area","description":"AGFC Public Use Facility: Cove Lake Parking Area (Parking Area, Paved). Source: AGFC FeatureServer/1, fetched 2026-10-05.","ftype":"Parking Area","fdescrip":"Paved","owner":"USFS","lat":35.22854,"lon":-93.62614}},{"type":"Feature","geometry":{"type":"Point","coordinates":[-93.61824,35.22463]},"properties":{"layer":"access_parking","name":"Loop A Camping Area #1","description":"AGFC Public Use Facility: Loop A Camping Area #1 (Tents Only, Fee Site). Source: AGFC FeatureServer/1, fetched 2026-10-05.","ftype":"Tents Only","fdescrip":"Fee Site","owner":"USFS","lat":35.22463,"lon":-93.61824}},{"type":"Feature","geometry":{"type":"Point","coordinates":[-93.62156,35.22458]},"properties":{"layer":"access_parking","name":"Loop A Camping Area #2","description":"AGFC Public Use Facility: Loop A Camping Area #2 (Tents Only, Fee Site). Source: AGFC FeatureServer/1, fetched 2026-10-05.","ftype":"Tents Only","fdescrip":"Fee Site","owner":"USFS","lat":35.22458,"lon":-93.62156}}]}