{"type":"FeatureCollection","features":[{"type":"Feature","geometry":{"type":"Point","coordinates":[-93.56844,35.21022]},"properties":{"layer":"benches","name":"benches-01","description":"DEM-derived benches; elev 1141 ft; slope 5 deg; aspect 176 deg; ~175 m from nearest AGFC-mapped road. USGS 3DEP ~10 m (py3dep), analysis grid ~26 m, 2026-10-05. Scout on foot to confirm.","lat":35.21022,"lon":-93.56844,"elevation_ft":1141.0,"slope_deg":4.8,"aspect_deg":176.0,"cluster_pixels":157669,"dist_road_m":175.0}},{"type":"Feature","geometry":{"type":"Point","coordinates":[-93.59026,35.25879]},"properties":{"layer":"benches","name":"benches-02","description":"DEM-derived benches; elev 1141 ft; slope 6 deg; aspect 195 deg; ~1435 m from nearest AGFC-mapped road. USGS 3DEP ~10 m (py3dep), analysis grid ~26 m, 2026-10-05. Scout on foot to confirm.","lat":35.25879,"lon":-93.59026,"elevation_ft":1141.0,"slope_deg":6.4,"aspect_deg":195.0,"cluster_pixels":8526,"dist_road_m":1435.0}},{"type":"Feature","geometry":{"type":"Point","coordinates":[-93.36826,35.21452]},"properties":{"layer":"benches","name":"benches-03","description":"DEM-derived benches; elev 1068 ft; slope 6 deg; aspect 199 deg; ~480 m from nearest AGFC-mapped road. USGS 3DEP ~10 m (py3dep), analysis grid ~26 m, 2026-10-05. Scout on foot to confirm.","lat":35.21452,"lon":-93.36826,"elevation_ft":1068.0,"slope_deg":6.1,"aspect_deg":199.0,"cluster_pixels":7866,"dist_road_m":480.0}},{"type":"Feature","geometry":{"type":"Point","coordinates":[-93.45289,35.24404]},"properties":{"layer":"benches","name":"benches-04","description":"DEM-derived benches; elev 1343 ft; slope 7 deg; aspect 134 deg; ~3704 m from nearest AGFC-mapped road. USGS 3DEP ~10 m (py3dep), analysis grid ~26 m, 2026-10-05. Scout on foot to confirm.","lat":35.24404,"lon":-93.45289,"elevation_ft":1343.0,"slope_deg":6.7,"aspect_deg":134.0,"cluster_pixels":6369,"dist_road_m":3704.0}},{"type":"Feature","geometry":{"type":"Point","coordinates":[-93.6945,35.226]},"properties":{"layer":"benches","name":"benches-05","description":"DEM-derived benches; elev 891 ft; slope 5 deg; aspect 129 deg; ~1214 m from nearest AGFC-mapped road. USGS 3DEP ~10 m (py3dep), analysis grid ~26 m, 2026-10-05. Scout on foot to confirm.","lat":35.226,"lon":-93.6945,"elevation_ft":891.0,"slope_deg":5.1,"aspect_deg":129.0,"cluster_pixels":6181,"dist_road_m":1214.0}},{"type":"Feature","geometry":{"type":"Point","coordinates":[-93.70553,35.1946]},"properties":{"layer":"benches","name":"benches-06","description":"DEM-derived benches; elev 1168 ft; slope 7 deg; aspect 209 deg; ~177 m from nearest AGFC-mapped road. USGS 3DEP ~10 m (py3dep), analysis grid ~26 m, 2026-10-05. Scout on foot to confirm.","lat":35.1946,"lon":-93.70553,"elevation_ft":1168.0,"slope_deg":6.7,"aspect_deg":209.0,"cluster_pixels":4209,"dist_road_m":177.0}},{"type":"Feature","geometry":{"type":"Point","coordinates":[-93.71854,35.16393]},"properties":{"layer":"benches","name":"benches-07","description":"DEM-derived benches; elev 1116 ft; slope 6 deg; aspect 222 deg; ~510 m from nearest AGFC-mapped road. USGS 3DEP ~10 m (py3dep), analysis grid ~26 m, 2026-10-05. Scout on foot to confirm.","lat":35.16393,"lon":-93.71854,"elevation_ft":1116.0,"slope_deg":6.0,"aspect_deg":222.0,"cluster_pixels":4160,"dist_road_m":510.0}},{"type":"Feature","geometry":{"type":"Point","coordinates":[-93.66457,35.24308]},"properties":{"layer":"benches","name":"benches-08","description":"DEM-derived benches; elev 1021 ft; slope 5 deg; aspect 202 deg; ~864 m from nearest AGFC-mapped road. USGS 3DEP ~10 m (py3dep), analysis grid ~26 m, 2026-10-05. Scout on foot to confirm.","lat":35.24308,"lon":-93.66457,"elevation_ft":1021.0,"slope_deg":4.9,"aspect_deg":202.0,"cluster_pixels":3974,"dist_road_m":864.0}},{"type":"Feature","geometry":{"type":"Point","coordinates":[-93.48695,35.18154]},"properties":{"layer":"benches","name":"benches-09","description":"DEM-derived benches; elev 1247 ft; slope 5 deg; aspect 191 deg; ~1100 m from nearest AGFC-mapped road. USGS 3DEP ~10 m (py3dep), analysis grid ~26 m, 2026-10-05. Scout on foot to confirm.","lat":35.18154,"lon":-93.48695,"elevation_ft":1247.0,"slope_deg":5.5,"aspect_deg":191.0,"cluster_pixels":2779,"dist_road_m":1100.0}},{"type":"Feature","geometry":{"type":"Point","coordinates":[-93.7032,35.24338]},"properties":{"layer":"benches","name":"benches-10","description":"DEM-derived benches; elev 912 ft; slope 4 deg; aspect 181 deg; ~269 m from nearest AGFC-mapped road. USGS 3DEP ~10 m (py3dep), analysis grid ~26 m, 2026-10-05. Scout on foot to confirm.","lat":35.24338,"lon":-93.7032,"elevation_ft":912.0,"slope_deg":4.4,"aspect_deg":181.0,"cluster_pixels":2526,"dist_road_m":269.0}},{"type":"Feature","geometry":{"type":"Point","coordinates":[-93.69317,35.1646]},"properties":{"layer":"benches","name":"benches-11","description":"DEM-derived benches; elev 1946 ft; slope 7 deg; aspect 217 deg; ~1099 m from nearest AGFC-mapped road. USGS 3DEP ~10 m (py3dep), analysis grid ~26 m, 2026-10-05. Scout on foot to confirm.","lat":35.1646,"lon":-93.69317,"elevation_ft":1946.0,"slope_deg":6.8,"aspect_deg":217.0,"cluster_pixels":2153,"dist_road_m":1099.0}},{"type":"Feature","geometry":{"type":"Point","coordinates":[-93.36724,35.14358]},"properties":{"layer":"benches","name":"benches-12","description":"DEM-derived benches; elev 881 ft; slope 4 deg; aspect 228 deg; ~1341 m from nearest AGFC-mapped road. USGS 3DEP ~10 m (py3dep), analysis grid ~26 m, 2026-10-05. Scout on foot to confirm.","lat":35.14358,"lon":-93.36724,"elevation_ft":881.0,"slope_deg":3.9,"aspect_deg":228.0,"cluster_pixels":2053,"dist_road_m":1341.0}},{"type":"Feature","geometry":{"type":"Point","coordinates":[-93.49277,35.16236]},"properties":{"layer":"benches","name":"benches-13","description":"DEM-derived benches; elev 1011 ft; slope 6 deg; aspect 184 deg; ~163 m from nearest AGFC-mapped road. USGS 3DEP ~10 m (py3dep), analysis grid ~26 m, 2026-10-05. Scout on foot to confirm.","lat":35.16236,"lon":-93.49277,"elevation_ft":1011.0,"slope_deg":6.2,"aspect_deg":184.0,"cluster_pixels":1726,"dist_road_m":163.0}},{"type":"Feature","geometry":{"type":"Point","coordinates":[-93.52666,35.1654]},"properties":{"layer":"benches","name":"benches-15","description":"DEM-derived benches; elev 952 ft; slope 8 deg; aspect 173 deg; ~749 m from nearest AGFC-mapped road. USGS 3DEP ~10 m (py3dep), analysis grid ~26 m, 2026-10-05. Scout on foot to confirm.","lat":35.1654,"lon":-93.52666,"elevation_ft":952.0,"slope_deg":8.3,"aspect_deg":173.0,"cluster_pixels":1025,"dist_road_m":749.0}},{"type":"Feature","geometry":{"type":"Point","coordinates":[-93.71324,35.16778]},"properties":{"layer":"benches","name":"benches-16","description":"DEM-derived benches; elev 1292 ft; slope 7 deg; aspect 215 deg; ~1002 m from nearest AGFC-mapped road. USGS 3DEP ~10 m (py3dep), analysis grid ~26 m, 2026-10-05. Scout on foot to confirm.","lat":35.16778,"lon":-93.71324,"elevation_ft":1292.0,"slope_deg":7.1,"aspect_deg":215.0,"cluster_pixels":955,"dist_road_m":1002.0}},{"type":"Feature","geometry":{"type":"Point","coordinates":[-93.39996,35.22336]},"properties":{"layer":"benches","name":"benches-17","description":"DEM-derived benches; elev 952 ft; slope 8 deg; aspect 163 deg; ~596 m from nearest AGFC-mapped road. USGS 3DEP ~10 m (py3dep), analysis grid ~26 m, 2026-10-05. Scout on foot to confirm.","lat":35.22336,"lon":-93.39996,"elevation_ft":952.0,"slope_deg":8.0,"aspect_deg":163.0,"cluster_pixels":878,"dist_road_m":596.0}},{"type":"Feature","geometry":{"type":"Point","coordinates":[-93.67439,35.17609]},"properties":{"layer":"benches","name":"benches-18","description":"DEM-derived benches; elev 1959 ft; slope 8 deg; aspect 213 deg; ~1106 m from nearest AGFC-mapped road. USGS 3DEP ~10 m (py3dep), analysis grid ~26 m, 2026-10-05. Scout on foot to confirm.","lat":35.17609,"lon":-93.67439,"elevation_ft":1959.0,"slope_deg":7.8,"aspect_deg":213.0,"cluster_pixels":766,"dist_road_m":1106.0}},{"type":"Feature","geometry":{"type":"Point","coordinates":[-93.64513,35.18132]},"properties":{"layer":"benches","name":"benches-19","description":"DEM-derived benches; elev 2017 ft; slope 9 deg; aspect 173 deg; ~997 m from nearest AGFC-mapped road. USGS 3DEP ~10 m (py3dep), analysis grid ~26 m, 2026-10-05. Scout on foot to confirm.","lat":35.18132,"lon":-93.64513,"elevation_ft":2017.0,"slope_deg":9.1,"aspect_deg":173.0,"cluster_pixels":694,"dist_road_m":997.0}},{"type":"Feature","geometry":{"type":"Point","coordinates":[-93.66747,35.15758]},"properties":{"layer":"benches","name":"benches-20","description":"DEM-derived benches; elev 1907 ft; slope 10 deg; aspect 162 deg; ~860 m from nearest AGFC-mapped road. USGS 3DEP ~10 m (py3dep), analysis grid ~26 m, 2026-10-05. Scout on foot to confirm.","lat":35.15758,"lon":-93.66747,"elevation_ft":1907.0,"slope_deg":9.7,"aspect_deg":162.0,"cluster_pixels":685,"dist_road_m":860.0}},{"type":"Feature","geometry":{"type":"Point","coordinates":[-93.42848,35.18981]},"properties":{"layer":"benches","name":"benches-21","description":"DEM-derived benches; elev 862 ft; slope 4 deg; aspect 182 deg; ~544 m from nearest AGFC-mapped road. USGS 3DEP ~10 m (py3dep), analysis grid ~26 m, 2026-10-05. Scout on foot to confirm.","lat":35.18981,"lon":-93.42848,"elevation_ft":862.0,"slope_deg":3.9,"aspect_deg":182.0,"cluster_pixels":684,"dist_road_m":544.0}},{"type":"Feature","geometry":{"type":"Point","coordinates":[-93.68667,35.19888]},"properties":{"layer":"benches","name":"benches-22","description":"DEM-derived benches; elev 1080 ft; slope 9 deg; aspect 297 deg; ~1212 m from nearest AGFC-mapped road. USGS 3DEP ~10 m (py3dep), analysis grid ~26 m, 2026-10-05. Scout on foot to confirm.","lat":35.19888,"lon":-93.68667,"elevation_ft":1080.0,"slope_deg":8.6,"aspect_deg":297.0,"cluster_pixels":660,"dist_road_m":1212.0}},{"type":"Feature","geometry":{"type":"Point","coordinates":[-93.64707,35.25901]},"properties":{"layer":"benches","name":"benches-23","description":"DEM-derived benches; elev 885 ft; slope 4 deg; aspect 183 deg; ~1367 m from nearest AGFC-mapped road. USGS 3DEP ~10 m (py3dep), analysis grid ~26 m, 2026-10-05. Scout on foot to confirm.","lat":35.25901,"lon":-93.64707,"elevation_ft":885.0,"slope_deg":3.9,"aspect_deg":183.0,"cluster_pixels":585,"dist_road_m":1367.0}},{"type":"Feature","geometry":{"type":"Point","coordinates":[-93.49001,35.17602]},"properties":{"layer":"benches","name":"benches-24","description":"DEM-derived benches; elev 1343 ft; slope 6 deg; aspect 182 deg; ~1712 m from nearest AGFC-mapped road. USGS 3DEP ~10 m (py3dep), analysis grid ~26 m, 2026-10-05. Scout on foot to confirm.","lat":35.17602,"lon":-93.49001,"elevation_ft":1343.0,"slope_deg":6.4,"aspect_deg":182.0,"cluster_pixels":532,"dist_road_m":1712.0}},{"type":"Feature","geometry":{"type":"Point","coordinates":[-93.46375,35.21243]},"properties":{"layer":"benches","name":"benches-25","description":"DEM-derived benches; elev 922 ft; slope 9 deg; aspect 159 deg; ~2224 m from nearest AGFC-mapped road. USGS 3DEP ~10 m (py3dep), analysis grid ~26 m, 2026-10-05. Scout on foot to confirm.","lat":35.21243,"lon":-93.46375,"elevation_ft":922.0,"slope_deg":9.3,"aspect_deg":159.0,"cluster_pixels":509,"dist_road_m":2224.0}},{"type":"Feature","geometry":{"type":"Point","coordinates":[-93.38302,35.17927]},"properties":{"layer":"benches","name":"benches-26","description":"DEM-derived benches; elev 738 ft; slope 6 deg; aspect 89 deg; ~349 m from nearest AGFC-mapped road. USGS 3DEP ~10 m (py3dep), analysis grid ~26 m, 2026-10-05. Scout on foot to confirm.","lat":35.17927,"lon":-93.38302,"elevation_ft":738.0,"slope_deg":5.9,"aspect_deg":89.0,"cluster_pixels":475,"dist_road_m":349.0}},{"type":"Feature","geometry":{"type":"Point","coordinates":[-93.35488,35.22654]},"properties":{"layer":"benches","name":"benches-27","description":"DEM-derived benches; elev 937 ft; slope 8 deg; aspect 228 deg; ~2226 m from nearest AGFC-mapped road. USGS 3DEP ~10 m (py3dep), analysis grid ~26 m, 2026-10-05. Scout on foot to confirm.","lat":35.22654,"lon":-93.35488,"elevation_ft":937.0,"slope_deg":7.9,"aspect_deg":228.0,"cluster_pixels":471,"dist_road_m":2226.0}},{"type":"Feature","geometry":{"type":"Point","coordinates":[-93.47688,35.22503]},"properties":{"layer":"benches","name":"benches-28","description":"DEM-derived benches; elev 1949 ft; slope 7 deg; aspect 186 deg; ~3703 m from nearest AGFC-mapped road. USGS 3DEP ~10 m (py3dep), analysis grid ~26 m, 2026-10-05. Scout on foot to confirm.","lat":35.22503,"lon":-93.47688,"elevation_ft":1949.0,"slope_deg":6.6,"aspect_deg":186.0,"cluster_pixels":470,"dist_road_m":3703.0}},{"type":"Feature","geometry":{"type":"Point","coordinates":[-93.44252,35.21801]},"properties":{"layer":"benches","name":"benches-29","description":"DEM-derived benches; elev 934 ft; slope 9 deg; aspect 152 deg; ~1090 m from nearest AGFC-mapped road. USGS 3DEP ~10 m (py3dep), analysis grid ~26 m, 2026-10-05. Scout on foot to confirm.","lat":35.21801,"lon":-93.44252,"elevation_ft":934.0,"slope_deg":8.7,"aspect_deg":152.0,"cluster_pixels":422,"dist_road_m":1090.0}},{"type":"Feature","geometry":{"type":"Point","coordinates":[-93.59634,35.15708]},"properties":{"layer":"benches","name":"benches-30","description":"DEM-derived benches; elev 1737 ft; slope 10 deg; aspect 165 deg; ~184 m from nearest AGFC-mapped road. USGS 3DEP ~10 m (py3dep), analysis grid ~26 m, 2026-10-05. Scout on foot to confirm.","lat":35.15708,"lon":-93.59634,"elevation_ft":1737.0,"slope_deg":10.1,"aspect_deg":165.0,"cluster_pixels":397,"dist_road_m":184.0}},{"type":"Feature","geometry":{"type":"Point","coordinates":[-93.67597,35.15264]},"properties":{"layer":"benches","name":"benches-32","description":"DEM-derived benches; elev 1659 ft; slope 10 deg; aspect 180 deg; ~1270 m from nearest AGFC-mapped road. USGS 3DEP ~10 m (py3dep), analysis grid ~26 m, 2026-10-05. Scout on foot to confirm.","lat":35.15264,"lon":-93.67597,"elevation_ft":1659.0,"slope_deg":9.5,"aspect_deg":180.0,"cluster_pixels":338,"dist_road_m":1270.0}},{"type":"Feature","geometry":{"type":"Point","coordinates":[-93.6966,35.15607]},"properties":{"layer":"benches","name":"benches-33","description":"DEM-derived benches; elev 1533 ft; slope 9 deg; aspect 206 deg; ~1730 m from nearest AGFC-mapped road. USGS 3DEP ~10 m (py3dep), analysis grid ~26 m, 2026-10-05. Scout on foot to confirm.","lat":35.15607,"lon":-93.6966,"elevation_ft":1533.0,"slope_deg":9.5,"aspect_deg":206.0,"cluster_pixels":335,"dist_road_m":1730.0}},{"type":"Feature","geometry":{"type":"Point","coordinates":[-93.49147,35.16675]},"properties":{"layer":"benches","name":"benches-34","description":"DEM-derived benches; elev 1119 ft; slope 8 deg; aspect 146 deg; ~673 m from nearest AGFC-mapped road. USGS 3DEP ~10 m (py3dep), analysis grid ~26 m, 2026-10-05. Scout on foot to confirm.","lat":35.16675,"lon":-93.49147,"elevation_ft":1119.0,"slope_deg":8.3,"aspect_deg":146.0,"cluster_pixels":334,"dist_road_m":673.0}},{"type":"Feature","geometry":{"type":"Point","coordinates":[-93.40189,35.21759]},"properties":{"layer":"benches","name":"benches-35","description":"DEM-derived benches; elev 1198 ft; slope 8 deg; aspect 212 deg; ~946 m from nearest AGFC-mapped road. USGS 3DEP ~10 m (py3dep), analysis grid ~26 m, 2026-10-05. Scout on foot to confirm.","lat":35.21759,"lon":-93.40189,"elevation_ft":1198.0,"slope_deg":8.5,"aspect_deg":212.0,"cluster_pixels":307,"dist_road_m":946.0}},{"type":"Feature","geometry":{"type":"Point","coordinates":[-93.44974,35.19143]},"properties":{"layer":"benches","name":"benches-36","description":"DEM-derived benches; elev 866 ft; slope 5 deg; aspect 177 deg; ~546 m from nearest AGFC-mapped road. USGS 3DEP ~10 m (py3dep), analysis grid ~26 m, 2026-10-05. Scout on foot to confirm.","lat":35.19143,"lon":-93.44974,"elevation_ft":866.0,"slope_deg":4.7,"aspect_deg":177.0,"cluster_pixels":282,"dist_road_m":546.0}},{"type":"Feature","geometry":{"type":"Point","coordinates":[-93.45163,35.21286]},"properties":{"layer":"benches","name":"benches-37","description":"DEM-derived benches; elev 935 ft; slope 9 deg; aspect 150 deg; ~1495 m from nearest AGFC-mapped road. USGS 3DEP ~10 m (py3dep), analysis grid ~26 m, 2026-10-05. Scout on foot to confirm.","lat":35.21286,"lon":-93.45163,"elevation_ft":935.0,"slope_deg":9.1,"aspect_deg":150.0,"cluster_pixels":278,"dist_road_m":1495.0}},{"type":"Feature","geometry":{"type":"Point","coordinates":[-93.67708,35.18242]},"properties":{"layer":"benches","name":"benches-38","description":"DEM-derived benches; elev 1595 ft; slope 9 deg; aspect 216 deg; ~644 m from nearest AGFC-mapped road. USGS 3DEP ~10 m (py3dep), analysis grid ~26 m, 2026-10-05. Scout on foot to confirm.","lat":35.18242,"lon":-93.67708,"elevation_ft":1595.0,"slope_deg":9.1,"aspect_deg":216.0,"cluster_pixels":275,"dist_road_m":644.0}},{"type":"Feature","geometry":{"type":"Point","coordinates":[-93.50006,35.186]},"properties":{"layer":"benches","name":"benches-39","description":"DEM-derived benches; elev 889 ft; slope 8 deg; aspect 215 deg; ~1041 m from nearest AGFC-mapped road. USGS 3DEP ~10 m (py3dep), analysis grid ~26 m, 2026-10-05. Scout on foot to confirm.","lat":35.186,"lon":-93.50006,"elevation_ft":889.0,"slope_deg":7.9,"aspect_deg":215.0,"cluster_pixels":274,"dist_road_m":1041.0}},{"type":"Feature","geometry":{"type":"Point","coordinates":[-93.46739,35.19809]},"properties":{"layer":"benches","name":"benches-40","description":"DEM-derived benches; elev 1033 ft; slope 9 deg; aspect 145 deg; ~1123 m from nearest AGFC-mapped road. USGS 3DEP ~10 m (py3dep), analysis grid ~26 m, 2026-10-05. Scout on foot to confirm.","lat":35.19809,"lon":-93.46739,"elevation_ft":1033.0,"slope_deg":9.1,"aspect_deg":145.0,"cluster_pixels":273,"dist_road_m":1123.0}},{"type":"Feature","geometry":{"type":"Point","coordinates":[-93.35294,35.23254]},"properties":{"layer":"benches","name":"benches-41","description":"DEM-derived benches; elev 1343 ft; slope 4 deg; aspect 242 deg; ~2722 m from nearest AGFC-mapped road. USGS 3DEP ~10 m (py3dep), analysis grid ~26 m, 2026-10-05. Scout on foot to confirm.","lat":35.23254,"lon":-93.35294,"elevation_ft":1343.0,"slope_deg":3.9,"aspect_deg":242.0,"cluster_pixels":269,"dist_road_m":2722.0}},{"type":"Feature","geometry":{"type":"Point","coordinates":[-93.38725,35.22401]},"properties":{"layer":"benches","name":"benches-42","description":"DEM-derived benches; elev 938 ft; slope 9 deg; aspect 240 deg; ~433 m from nearest AGFC-mapped road. USGS 3DEP ~10 m (py3dep), analysis grid ~26 m, 2026-10-05. Scout on foot to confirm.","lat":35.22401,"lon":-93.38725,"elevation_ft":938.0,"slope_deg":9.0,"aspect_deg":240.0,"cluster_pixels":252,"dist_road_m":433.0}},{"type":"Feature","geometry":{"type":"Point","coordinates":[-93.69117,35.14503]},"properties":{"layer":"benches","name":"benches-43","description":"DEM-derived benches; elev 1191 ft; slope 10 deg; aspect 194 deg; ~2285 m from nearest AGFC-mapped road. USGS 3DEP ~10 m (py3dep), analysis grid ~26 m, 2026-10-05. Scout on foot to confirm.","lat":35.14503,"lon":-93.69117,"elevation_ft":1191.0,"slope_deg":10.2,"aspect_deg":194.0,"cluster_pixels":250,"dist_road_m":2285.0}},{"type":"Feature","geometry":{"type":"Point","coordinates":[-93.46121,35.15843]},"properties":{"layer":"benches","name":"benches-44","description":"DEM-derived benches; elev 883 ft; slope 7 deg; aspect 110 deg; ~523 m from nearest AGFC-mapped road. USGS 3DEP ~10 m (py3dep), analysis grid ~26 m, 2026-10-05. Scout on foot to confirm.","lat":35.15843,"lon":-93.46121,"elevation_ft":883.0,"slope_deg":6.8,"aspect_deg":110.0,"cluster_pixels":239,"dist_road_m":523.0}},{"type":"Feature","geometry":{"type":"Point","coordinates":[-93.55087,35.21892]},"properties":{"layer":"benches","name":"benches-45","description":"DEM-derived benches; elev 896 ft; slope 7 deg; aspect 135 deg; ~2063 m from nearest AGFC-mapped road. USGS 3DEP ~10 m (py3dep), analysis grid ~26 m, 2026-10-05. Scout on foot to confirm.","lat":35.21892,"lon":-93.55087,"elevation_ft":896.0,"slope_deg":6.9,"aspect_deg":135.0,"cluster_pixels":236,"dist_road_m":2063.0}},{"type":"Feature","geometry":{"type":"Point","coordinates":[-93.56701,35.26436]},"properties":{"layer":"benches","name":"benches-46","description":"DEM-derived benches; elev 855 ft; slope 7 deg; aspect 163 deg; ~3286 m from nearest AGFC-mapped road. USGS 3DEP ~10 m (py3dep), analysis grid ~26 m, 2026-10-05. Scout on foot to confirm.","lat":35.26436,"lon":-93.56701,"elevation_ft":855.0,"slope_deg":6.5,"aspect_deg":163.0,"cluster_pixels":233,"dist_road_m":3286.0}},{"type":"Feature","geometry":{"type":"Point","coordinates":[-93.39119,35.21851]},"properties":{"layer":"benches","name":"benches-47","description":"DEM-derived benches; elev 1251 ft; slope 9 deg; aspect 210 deg; ~1055 m from nearest AGFC-mapped road. USGS 3DEP ~10 m (py3dep), analysis grid ~26 m, 2026-10-05. Scout on foot to confirm.","lat":35.21851,"lon":-93.39119,"elevation_ft":1251.0,"slope_deg":8.6,"aspect_deg":210.0,"cluster_pixels":232,"dist_road_m":1055.0}},{"type":"Feature","geometry":{"type":"Point","coordinates":[-93.54753,35.15236]},"properties":{"layer":"benches","name":"benches-48","description":"DEM-derived benches; elev 1238 ft; slope 9 deg; aspect 151 deg; ~250 m from nearest AGFC-mapped road. USGS 3DEP ~10 m (py3dep), analysis grid ~26 m, 2026-10-05. Scout on foot to confirm.","lat":35.15236,"lon":-93.54753,"elevation_ft":1238.0,"slope_deg":9.0,"aspect_deg":151.0,"cluster_pixels":228,"dist_road_m":250.0}},{"type":"Feature","geometry":{"type":"Point","coordinates":[-93.70987,35.15539]},"properties":{"layer":"benches","name":"benches-49","description":"DEM-derived benches; elev 1246 ft; slope 8 deg; aspect 275 deg; ~1609 m from nearest AGFC-mapped road. USGS 3DEP ~10 m (py3dep), analysis grid ~26 m, 2026-10-05. Scout on foot to confirm.","lat":35.15539,"lon":-93.70987,"elevation_ft":1246.0,"slope_deg":8.1,"aspect_deg":275.0,"cluster_pixels":227,"dist_road_m":1609.0}},{"type":"Feature","geometry":{"type":"Point","coordinates":[-93.37241,35.2367]},"properties":{"layer":"benches","name":"benches-50","description":"DEM-derived benches; elev 1229 ft; slope 7 deg; aspect 179 deg; ~1226 m from nearest AGFC-mapped road. USGS 3DEP ~10 m (py3dep), analysis grid ~26 m, 2026-10-05. Scout on foot to confirm.","lat":35.2367,"lon":-93.37241,"elevation_ft":1229.0,"slope_deg":7.0,"aspect_deg":179.0,"cluster_pixels":202,"dist_road_m":1226.0}}]}