{"type":"FeatureCollection","features":[{"type":"Feature","geometry":{"type":"Point","coordinates":[-93.66581,35.15523]},"properties":{"layer":"likely_bedding","name":"likely_bedding-01","description":"DEM-derived likely bedding; elev 1647 ft; slope 15 deg; aspect 181 deg; ~1170 m from nearest AGFC-mapped road. USGS 3DEP ~10 m (py3dep), analysis grid ~26 m, 2026-10-05. Scout on foot to confirm.","lat":35.15523,"lon":-93.66581,"elevation_ft":1647.0,"slope_deg":14.7,"aspect_deg":181.0,"cluster_pixels":10277,"dist_road_m":1170.0}},{"type":"Feature","geometry":{"type":"Point","coordinates":[-93.603,35.15606]},"properties":{"layer":"likely_bedding","name":"likely_bedding-02","description":"DEM-derived likely bedding; elev 1656 ft; slope 15 deg; aspect 175 deg; ~262 m from nearest AGFC-mapped road. USGS 3DEP ~10 m (py3dep), analysis grid ~26 m, 2026-10-05. Scout on foot to confirm.","lat":35.15606,"lon":-93.603,"elevation_ft":1656.0,"slope_deg":14.7,"aspect_deg":175.0,"cluster_pixels":4184,"dist_road_m":262.0}},{"type":"Feature","geometry":{"type":"Point","coordinates":[-93.47764,35.21947]},"properties":{"layer":"likely_bedding","name":"likely_bedding-03","description":"DEM-derived likely bedding; elev 1623 ft; slope 9 deg; aspect 183 deg; ~3086 m from nearest AGFC-mapped road. USGS 3DEP ~10 m (py3dep), analysis grid ~26 m, 2026-10-05. Scout on foot to confirm.","lat":35.21947,"lon":-93.47764,"elevation_ft":1623.0,"slope_deg":9.4,"aspect_deg":183.0,"cluster_pixels":4155,"dist_road_m":3086.0}},{"type":"Feature","geometry":{"type":"Point","coordinates":[-93.58405,35.17241]},"properties":{"layer":"likely_bedding","name":"likely_bedding-04","description":"DEM-derived likely bedding; elev 1701 ft; slope 13 deg; aspect 160 deg; ~535 m from nearest AGFC-mapped road. USGS 3DEP ~10 m (py3dep), analysis grid ~26 m, 2026-10-05. Scout on foot to confirm.","lat":35.17241,"lon":-93.58405,"elevation_ft":1701.0,"slope_deg":13.2,"aspect_deg":160.0,"cluster_pixels":3434,"dist_road_m":535.0}},{"type":"Feature","geometry":{"type":"Point","coordinates":[-93.57685,35.15413]},"properties":{"layer":"likely_bedding","name":"likely_bedding-05","description":"DEM-derived likely bedding; elev 1296 ft; slope 13 deg; aspect 177 deg; ~174 m from nearest AGFC-mapped road. USGS 3DEP ~10 m (py3dep), analysis grid ~26 m, 2026-10-05. Scout on foot to confirm.","lat":35.15413,"lon":-93.57685,"elevation_ft":1296.0,"slope_deg":13.0,"aspect_deg":177.0,"cluster_pixels":1829,"dist_road_m":174.0}},{"type":"Feature","geometry":{"type":"Point","coordinates":[-93.70182,35.15477]},"properties":{"layer":"likely_bedding","name":"likely_bedding-06","description":"DEM-derived likely bedding; elev 1587 ft; slope 13 deg; aspect 193 deg; ~2309 m from nearest AGFC-mapped road. USGS 3DEP ~10 m (py3dep), analysis grid ~26 m, 2026-10-05. Scout on foot to confirm.","lat":35.15477,"lon":-93.70182,"elevation_ft":1587.0,"slope_deg":12.7,"aspect_deg":193.0,"cluster_pixels":1581,"dist_road_m":2309.0}},{"type":"Feature","geometry":{"type":"Point","coordinates":[-93.63282,35.23501]},"properties":{"layer":"likely_bedding","name":"likely_bedding-07","description":"DEM-derived likely bedding; elev 1072 ft; slope 12 deg; aspect 193 deg; ~72 m from nearest AGFC-mapped road. USGS 3DEP ~10 m (py3dep), analysis grid ~26 m, 2026-10-05. Scout on foot to confirm.","lat":35.23501,"lon":-93.63282,"elevation_ft":1072.0,"slope_deg":11.8,"aspect_deg":193.0,"cluster_pixels":1534,"dist_road_m":72.0}},{"type":"Feature","geometry":{"type":"Point","coordinates":[-93.39387,35.21602]},"properties":{"layer":"likely_bedding","name":"likely_bedding-08","description":"DEM-derived likely bedding; elev 1090 ft; slope 13 deg; aspect 183 deg; ~1361 m from nearest AGFC-mapped road. USGS 3DEP ~10 m (py3dep), analysis grid ~26 m, 2026-10-05. Scout on foot to confirm.","lat":35.21602,"lon":-93.39387,"elevation_ft":1090.0,"slope_deg":13.3,"aspect_deg":183.0,"cluster_pixels":1501,"dist_road_m":1361.0}},{"type":"Feature","geometry":{"type":"Point","coordinates":[-93.69464,35.22136]},"properties":{"layer":"likely_bedding","name":"likely_bedding-09","description":"DEM-derived likely bedding; elev 1044 ft; slope 15 deg; aspect 199 deg; ~1254 m from nearest AGFC-mapped road. USGS 3DEP ~10 m (py3dep), analysis grid ~26 m, 2026-10-05. Scout on foot to confirm.","lat":35.22136,"lon":-93.69464,"elevation_ft":1044.0,"slope_deg":14.8,"aspect_deg":199.0,"cluster_pixels":1249,"dist_road_m":1254.0}},{"type":"Feature","geometry":{"type":"Point","coordinates":[-93.70129,35.1822]},"properties":{"layer":"likely_bedding","name":"likely_bedding-10","description":"DEM-derived likely bedding; elev 1356 ft; slope 11 deg; aspect 192 deg; ~753 m from nearest AGFC-mapped road. USGS 3DEP ~10 m (py3dep), analysis grid ~26 m, 2026-10-05. Scout on foot to confirm.","lat":35.1822,"lon":-93.70129,"elevation_ft":1356.0,"slope_deg":10.5,"aspect_deg":192.0,"cluster_pixels":1241,"dist_road_m":753.0}},{"type":"Feature","geometry":{"type":"Point","coordinates":[-93.45619,35.21436]},"properties":{"layer":"likely_bedding","name":"likely_bedding-11","description":"DEM-derived likely bedding; elev 1106 ft; slope 13 deg; aspect 165 deg; ~2008 m from nearest AGFC-mapped road. USGS 3DEP ~10 m (py3dep), analysis grid ~26 m, 2026-10-05. Scout on foot to confirm.","lat":35.21436,"lon":-93.45619,"elevation_ft":1106.0,"slope_deg":13.2,"aspect_deg":165.0,"cluster_pixels":913,"dist_road_m":2008.0}},{"type":"Feature","geometry":{"type":"Point","coordinates":[-93.61351,35.24392]},"properties":{"layer":"likely_bedding","name":"likely_bedding-12","description":"DEM-derived likely bedding; elev 1363 ft; slope 9 deg; aspect 195 deg; ~492 m from nearest AGFC-mapped road. USGS 3DEP ~10 m (py3dep), analysis grid ~26 m, 2026-10-05. Scout on foot to confirm.","lat":35.24392,"lon":-93.61351,"elevation_ft":1363.0,"slope_deg":8.8,"aspect_deg":195.0,"cluster_pixels":891,"dist_road_m":492.0}},{"type":"Feature","geometry":{"type":"Point","coordinates":[-93.70636,35.16672]},"properties":{"layer":"likely_bedding","name":"likely_bedding-14","description":"DEM-derived likely bedding; elev 1399 ft; slope 13 deg; aspect 199 deg; ~1777 m from nearest AGFC-mapped road. USGS 3DEP ~10 m (py3dep), analysis grid ~26 m, 2026-10-05. Scout on foot to confirm.","lat":35.16672,"lon":-93.70636,"elevation_ft":1399.0,"slope_deg":13.4,"aspect_deg":199.0,"cluster_pixels":778,"dist_road_m":1777.0}},{"type":"Feature","geometry":{"type":"Point","coordinates":[-93.63514,35.15043]},"properties":{"layer":"likely_bedding","name":"likely_bedding-15","description":"DEM-derived likely bedding; elev 1211 ft; slope 15 deg; aspect 189 deg; ~781 m from nearest AGFC-mapped road. USGS 3DEP ~10 m (py3dep), analysis grid ~26 m, 2026-10-05. Scout on foot to confirm.","lat":35.15043,"lon":-93.63514,"elevation_ft":1211.0,"slope_deg":15.4,"aspect_deg":189.0,"cluster_pixels":777,"dist_road_m":781.0}},{"type":"Feature","geometry":{"type":"Point","coordinates":[-93.62446,35.15114]},"properties":{"layer":"likely_bedding","name":"likely_bedding-16","description":"DEM-derived likely bedding; elev 1225 ft; slope 15 deg; aspect 179 deg; ~59 m from nearest AGFC-mapped road. USGS 3DEP ~10 m (py3dep), analysis grid ~26 m, 2026-10-05. Scout on foot to confirm.","lat":35.15114,"lon":-93.62446,"elevation_ft":1225.0,"slope_deg":14.6,"aspect_deg":179.0,"cluster_pixels":619,"dist_road_m":59.0}},{"type":"Feature","geometry":{"type":"Point","coordinates":[-93.37197,35.2325]},"properties":{"layer":"likely_bedding","name":"likely_bedding-18","description":"DEM-derived likely bedding; elev 1089 ft; slope 14 deg; aspect 198 deg; ~900 m from nearest AGFC-mapped road. USGS 3DEP ~10 m (py3dep), analysis grid ~26 m, 2026-10-05. Scout on foot to confirm.","lat":35.2325,"lon":-93.37197,"elevation_ft":1089.0,"slope_deg":14.4,"aspect_deg":198.0,"cluster_pixels":578,"dist_road_m":900.0}},{"type":"Feature","geometry":{"type":"Point","coordinates":[-93.44243,35.22057]},"properties":{"layer":"likely_bedding","name":"likely_bedding-19","description":"DEM-derived likely bedding; elev 1085 ft; slope 12 deg; aspect 152 deg; ~1211 m from nearest AGFC-mapped road. USGS 3DEP ~10 m (py3dep), analysis grid ~26 m, 2026-10-05. Scout on foot to confirm.","lat":35.22057,"lon":-93.44243,"elevation_ft":1085.0,"slope_deg":12.2,"aspect_deg":152.0,"cluster_pixels":552,"dist_road_m":1211.0}},{"type":"Feature","geometry":{"type":"Point","coordinates":[-93.53339,35.25157]},"properties":{"layer":"likely_bedding","name":"likely_bedding-20","description":"DEM-derived likely bedding; elev 1135 ft; slope 13 deg; aspect 142 deg; ~5372 m from nearest AGFC-mapped road. USGS 3DEP ~10 m (py3dep), analysis grid ~26 m, 2026-10-05. Scout on foot to confirm.","lat":35.25157,"lon":-93.53339,"elevation_ft":1135.0,"slope_deg":12.9,"aspect_deg":142.0,"cluster_pixels":488,"dist_road_m":5372.0}},{"type":"Feature","geometry":{"type":"Point","coordinates":[-93.54328,35.20412]},"properties":{"layer":"likely_bedding","name":"likely_bedding-21","description":"DEM-derived likely bedding; elev 996 ft; slope 8 deg; aspect 179 deg; ~820 m from nearest AGFC-mapped road. USGS 3DEP ~10 m (py3dep), analysis grid ~26 m, 2026-10-05. Scout on foot to confirm.","lat":35.20412,"lon":-93.54328,"elevation_ft":996.0,"slope_deg":8.3,"aspect_deg":179.0,"cluster_pixels":467,"dist_road_m":820.0}},{"type":"Feature","geometry":{"type":"Point","coordinates":[-93.6948,35.24461]},"properties":{"layer":"likely_bedding","name":"likely_bedding-22","description":"DEM-derived likely bedding; elev 977 ft; slope 6 deg; aspect 182 deg; ~671 m from nearest AGFC-mapped road. USGS 3DEP ~10 m (py3dep), analysis grid ~26 m, 2026-10-05. Scout on foot to confirm.","lat":35.24461,"lon":-93.6948,"elevation_ft":977.0,"slope_deg":6.0,"aspect_deg":182.0,"cluster_pixels":419,"dist_road_m":671.0}},{"type":"Feature","geometry":{"type":"Point","coordinates":[-93.47162,35.18353]},"properties":{"layer":"likely_bedding","name":"likely_bedding-23","description":"DEM-derived likely bedding; elev 986 ft; slope 11 deg; aspect 167 deg; ~266 m from nearest AGFC-mapped road. USGS 3DEP ~10 m (py3dep), analysis grid ~26 m, 2026-10-05. Scout on foot to confirm.","lat":35.18353,"lon":-93.47162,"elevation_ft":986.0,"slope_deg":10.7,"aspect_deg":167.0,"cluster_pixels":416,"dist_road_m":266.0}},{"type":"Feature","geometry":{"type":"Point","coordinates":[-93.35395,35.22838]},"properties":{"layer":"likely_bedding","name":"likely_bedding-24","description":"DEM-derived likely bedding; elev 1049 ft; slope 14 deg; aspect 210 deg; ~2416 m from nearest AGFC-mapped road. USGS 3DEP ~10 m (py3dep), analysis grid ~26 m, 2026-10-05. Scout on foot to confirm.","lat":35.22838,"lon":-93.35395,"elevation_ft":1049.0,"slope_deg":13.9,"aspect_deg":210.0,"cluster_pixels":406,"dist_road_m":2416.0}},{"type":"Feature","geometry":{"type":"Point","coordinates":[-93.50936,35.23688]},"properties":{"layer":"likely_bedding","name":"likely_bedding-25","description":"DEM-derived likely bedding; elev 1011 ft; slope 14 deg; aspect 208 deg; ~4208 m from nearest AGFC-mapped road. USGS 3DEP ~10 m (py3dep), analysis grid ~26 m, 2026-10-05. Scout on foot to confirm.","lat":35.23688,"lon":-93.50936,"elevation_ft":1011.0,"slope_deg":13.6,"aspect_deg":208.0,"cluster_pixels":403,"dist_road_m":4208.0}},{"type":"Feature","geometry":{"type":"Point","coordinates":[-93.3647,35.21769]},"properties":{"layer":"likely_bedding","name":"likely_bedding-26","description":"DEM-derived likely bedding; elev 1184 ft; slope 13 deg; aspect 186 deg; ~877 m from nearest AGFC-mapped road. USGS 3DEP ~10 m (py3dep), analysis grid ~26 m, 2026-10-05. Scout on foot to confirm.","lat":35.21769,"lon":-93.3647,"elevation_ft":1184.0,"slope_deg":13.0,"aspect_deg":186.0,"cluster_pixels":385,"dist_road_m":877.0}},{"type":"Feature","geometry":{"type":"Point","coordinates":[-93.60162,35.23694]},"properties":{"layer":"likely_bedding","name":"likely_bedding-27","description":"DEM-derived likely bedding; elev 1234 ft; slope 11 deg; aspect 209 deg; ~1145 m from nearest AGFC-mapped road. USGS 3DEP ~10 m (py3dep), analysis grid ~26 m, 2026-10-05. Scout on foot to confirm.","lat":35.23694,"lon":-93.60162,"elevation_ft":1234.0,"slope_deg":10.8,"aspect_deg":209.0,"cluster_pixels":366,"dist_road_m":1145.0}},{"type":"Feature","geometry":{"type":"Point","coordinates":[-93.49309,35.24932]},"properties":{"layer":"likely_bedding","name":"likely_bedding-28","description":"DEM-derived likely bedding; elev 1053 ft; slope 16 deg; aspect 225 deg; ~5917 m from nearest AGFC-mapped road. USGS 3DEP ~10 m (py3dep), analysis grid ~26 m, 2026-10-05. Scout on foot to confirm.","lat":35.24932,"lon":-93.49309,"elevation_ft":1053.0,"slope_deg":16.4,"aspect_deg":225.0,"cluster_pixels":352,"dist_road_m":5917.0}},{"type":"Feature","geometry":{"type":"Point","coordinates":[-93.69062,35.14409]},"properties":{"layer":"likely_bedding","name":"likely_bedding-29","description":"DEM-derived likely bedding; elev 1135 ft; slope 15 deg; aspect 176 deg; ~2360 m from nearest AGFC-mapped road. USGS 3DEP ~10 m (py3dep), analysis grid ~26 m, 2026-10-05. Scout on foot to confirm.","lat":35.14409,"lon":-93.69062,"elevation_ft":1135.0,"slope_deg":15.2,"aspect_deg":176.0,"cluster_pixels":352,"dist_road_m":2360.0}},{"type":"Feature","geometry":{"type":"Point","coordinates":[-93.62311,35.19459]},"properties":{"layer":"likely_bedding","name":"likely_bedding-30","description":"DEM-derived likely bedding; elev 1395 ft; slope 6 deg; aspect 174 deg; ~119 m from nearest AGFC-mapped road. USGS 3DEP ~10 m (py3dep), analysis grid ~26 m, 2026-10-05. Scout on foot to confirm.","lat":35.19459,"lon":-93.62311,"elevation_ft":1395.0,"slope_deg":6.5,"aspect_deg":174.0,"cluster_pixels":350,"dist_road_m":119.0}},{"type":"Feature","geometry":{"type":"Point","coordinates":[-93.61373,35.14419]},"properties":{"layer":"likely_bedding","name":"likely_bedding-31","description":"DEM-derived likely bedding; elev 1060 ft; slope 16 deg; aspect 193 deg; ~412 m from nearest AGFC-mapped road. USGS 3DEP ~10 m (py3dep), analysis grid ~26 m, 2026-10-05. Scout on foot to confirm.","lat":35.14419,"lon":-93.61373,"elevation_ft":1060.0,"slope_deg":16.2,"aspect_deg":193.0,"cluster_pixels":348,"dist_road_m":412.0}},{"type":"Feature","geometry":{"type":"Point","coordinates":[-93.55635,35.14673]},"properties":{"layer":"likely_bedding","name":"likely_bedding-32","description":"DEM-derived likely bedding; elev 1109 ft; slope 18 deg; aspect 179 deg; ~314 m from nearest AGFC-mapped road. USGS 3DEP ~10 m (py3dep), analysis grid ~26 m, 2026-10-05. Scout on foot to confirm.","lat":35.14673,"lon":-93.55635,"elevation_ft":1109.0,"slope_deg":18.0,"aspect_deg":179.0,"cluster_pixels":324,"dist_road_m":314.0}},{"type":"Feature","geometry":{"type":"Point","coordinates":[-93.71574,35.16132]},"properties":{"layer":"likely_bedding","name":"likely_bedding-33","description":"DEM-derived likely bedding; elev 981 ft; slope 12 deg; aspect 194 deg; ~863 m from nearest AGFC-mapped road. USGS 3DEP ~10 m (py3dep), analysis grid ~26 m, 2026-10-05. Scout on foot to confirm.","lat":35.16132,"lon":-93.71574,"elevation_ft":981.0,"slope_deg":12.2,"aspect_deg":194.0,"cluster_pixels":321,"dist_road_m":863.0}},{"type":"Feature","geometry":{"type":"Point","coordinates":[-93.67604,35.24517]},"properties":{"layer":"likely_bedding","name":"likely_bedding-34","description":"DEM-derived likely bedding; elev 1002 ft; slope 6 deg; aspect 198 deg; ~868 m from nearest AGFC-mapped road. USGS 3DEP ~10 m (py3dep), analysis grid ~26 m, 2026-10-05. Scout on foot to confirm.","lat":35.24517,"lon":-93.67604,"elevation_ft":1002.0,"slope_deg":6.1,"aspect_deg":198.0,"cluster_pixels":309,"dist_road_m":868.0}},{"type":"Feature","geometry":{"type":"Point","coordinates":[-93.52131,35.17924]},"properties":{"layer":"likely_bedding","name":"likely_bedding-35","description":"DEM-derived likely bedding; elev 1247 ft; slope 11 deg; aspect 182 deg; ~237 m from nearest AGFC-mapped road. USGS 3DEP ~10 m (py3dep), analysis grid ~26 m, 2026-10-05. Scout on foot to confirm.","lat":35.17924,"lon":-93.52131,"elevation_ft":1247.0,"slope_deg":10.9,"aspect_deg":182.0,"cluster_pixels":301,"dist_road_m":237.0}},{"type":"Feature","geometry":{"type":"Point","coordinates":[-93.66053,35.24347]},"properties":{"layer":"likely_bedding","name":"likely_bedding-36","description":"DEM-derived likely bedding; elev 1003 ft; slope 9 deg; aspect 165 deg; ~621 m from nearest AGFC-mapped road. USGS 3DEP ~10 m (py3dep), analysis grid ~26 m, 2026-10-05. Scout on foot to confirm.","lat":35.24347,"lon":-93.66053,"elevation_ft":1003.0,"slope_deg":9.4,"aspect_deg":165.0,"cluster_pixels":299,"dist_road_m":621.0}},{"type":"Feature","geometry":{"type":"Point","coordinates":[-93.61541,35.23838]},"properties":{"layer":"likely_bedding","name":"likely_bedding-37","description":"DEM-derived likely bedding; elev 1197 ft; slope 10 deg; aspect 185 deg; ~1138 m from nearest AGFC-mapped road. USGS 3DEP ~10 m (py3dep), analysis grid ~26 m, 2026-10-05. Scout on foot to confirm.","lat":35.23838,"lon":-93.61541,"elevation_ft":1197.0,"slope_deg":9.8,"aspect_deg":185.0,"cluster_pixels":289,"dist_road_m":1138.0}},{"type":"Feature","geometry":{"type":"Point","coordinates":[-93.49433,35.16751]},"properties":{"layer":"likely_bedding","name":"likely_bedding-38","description":"DEM-derived likely bedding; elev 1150 ft; slope 11 deg; aspect 184 deg; ~711 m from nearest AGFC-mapped road. USGS 3DEP ~10 m (py3dep), analysis grid ~26 m, 2026-10-05. Scout on foot to confirm.","lat":35.16751,"lon":-93.49433,"elevation_ft":1150.0,"slope_deg":11.3,"aspect_deg":184.0,"cluster_pixels":289,"dist_road_m":711.0}},{"type":"Feature","geometry":{"type":"Point","coordinates":[-93.54958,35.24121]},"properties":{"layer":"likely_bedding","name":"likely_bedding-39","description":"DEM-derived likely bedding; elev 1472 ft; slope 6 deg; aspect 206 deg; ~3236 m from nearest AGFC-mapped road. USGS 3DEP ~10 m (py3dep), analysis grid ~26 m, 2026-10-05. Scout on foot to confirm.","lat":35.24121,"lon":-93.54958,"elevation_ft":1472.0,"slope_deg":6.2,"aspect_deg":206.0,"cluster_pixels":274,"dist_road_m":3236.0}},{"type":"Feature","geometry":{"type":"Point","coordinates":[-93.55987,35.17168]},"properties":{"layer":"likely_bedding","name":"likely_bedding-40","description":"DEM-derived likely bedding; elev 1335 ft; slope 11 deg; aspect 154 deg; ~1355 m from nearest AGFC-mapped road. USGS 3DEP ~10 m (py3dep), analysis grid ~26 m, 2026-10-05. Scout on foot to confirm.","lat":35.17168,"lon":-93.55987,"elevation_ft":1335.0,"slope_deg":10.6,"aspect_deg":154.0,"cluster_pixels":271,"dist_road_m":1355.0}},{"type":"Feature","geometry":{"type":"Point","coordinates":[-93.56893,35.24929]},"properties":{"layer":"likely_bedding","name":"likely_bedding-41","description":"DEM-derived likely bedding; elev 1642 ft; slope 6 deg; aspect 206 deg; ~2365 m from nearest AGFC-mapped road. USGS 3DEP ~10 m (py3dep), analysis grid ~26 m, 2026-10-05. Scout on foot to confirm.","lat":35.24929,"lon":-93.56893,"elevation_ft":1642.0,"slope_deg":5.9,"aspect_deg":206.0,"cluster_pixels":246,"dist_road_m":2365.0}},{"type":"Feature","geometry":{"type":"Point","coordinates":[-93.46923,35.21208]},"properties":{"layer":"likely_bedding","name":"likely_bedding-42","description":"DEM-derived likely bedding; elev 1001 ft; slope 14 deg; aspect 146 deg; ~2474 m from nearest AGFC-mapped road. USGS 3DEP ~10 m (py3dep), analysis grid ~26 m, 2026-10-05. Scout on foot to confirm.","lat":35.21208,"lon":-93.46923,"elevation_ft":1001.0,"slope_deg":14.0,"aspect_deg":146.0,"cluster_pixels":246,"dist_road_m":2474.0}},{"type":"Feature","geometry":{"type":"Point","coordinates":[-93.56661,35.24064]},"properties":{"layer":"likely_bedding","name":"likely_bedding-43","description":"DEM-derived likely bedding; elev 1432 ft; slope 7 deg; aspect 213 deg; ~1935 m from nearest AGFC-mapped road. USGS 3DEP ~10 m (py3dep), analysis grid ~26 m, 2026-10-05. Scout on foot to confirm.","lat":35.24064,"lon":-93.56661,"elevation_ft":1432.0,"slope_deg":7.3,"aspect_deg":213.0,"cluster_pixels":245,"dist_road_m":1935.0}},{"type":"Feature","geometry":{"type":"Point","coordinates":[-93.54464,35.15253]},"properties":{"layer":"likely_bedding","name":"likely_bedding-44","description":"DEM-derived likely bedding; elev 1254 ft; slope 12 deg; aspect 176 deg; ~247 m from nearest AGFC-mapped road. USGS 3DEP ~10 m (py3dep), analysis grid ~26 m, 2026-10-05. Scout on foot to confirm.","lat":35.15253,"lon":-93.54464,"elevation_ft":1254.0,"slope_deg":12.4,"aspect_deg":176.0,"cluster_pixels":245,"dist_road_m":247.0}},{"type":"Feature","geometry":{"type":"Point","coordinates":[-93.62429,35.15672]},"properties":{"layer":"likely_bedding","name":"likely_bedding-45","description":"DEM-derived likely bedding; elev 1769 ft; slope 17 deg; aspect 177 deg; ~680 m from nearest AGFC-mapped road. USGS 3DEP ~10 m (py3dep), analysis grid ~26 m, 2026-10-05. Scout on foot to confirm.","lat":35.15672,"lon":-93.62429,"elevation_ft":1769.0,"slope_deg":16.8,"aspect_deg":177.0,"cluster_pixels":240,"dist_road_m":680.0}},{"type":"Feature","geometry":{"type":"Point","coordinates":[-93.59543,35.19519]},"properties":{"layer":"likely_bedding","name":"likely_bedding-46","description":"DEM-derived likely bedding; elev 1433 ft; slope 11 deg; aspect 155 deg; ~982 m from nearest AGFC-mapped road. USGS 3DEP ~10 m (py3dep), analysis grid ~26 m, 2026-10-05. Scout on foot to confirm.","lat":35.19519,"lon":-93.59543,"elevation_ft":1433.0,"slope_deg":11.3,"aspect_deg":155.0,"cluster_pixels":235,"dist_road_m":982.0}},{"type":"Feature","geometry":{"type":"Point","coordinates":[-93.52546,35.17561]},"properties":{"layer":"likely_bedding","name":"likely_bedding-47","description":"DEM-derived likely bedding; elev 1159 ft; slope 12 deg; aspect 140 deg; ~178 m from nearest AGFC-mapped road. USGS 3DEP ~10 m (py3dep), analysis grid ~26 m, 2026-10-05. Scout on foot to confirm.","lat":35.17561,"lon":-93.52546,"elevation_ft":1159.0,"slope_deg":12.3,"aspect_deg":140.0,"cluster_pixels":232,"dist_road_m":178.0}},{"type":"Feature","geometry":{"type":"Point","coordinates":[-93.48817,35.17064]},"properties":{"layer":"likely_bedding","name":"likely_bedding-48","description":"DEM-derived likely bedding; elev 1131 ft; slope 14 deg; aspect 160 deg; ~1148 m from nearest AGFC-mapped road. USGS 3DEP ~10 m (py3dep), analysis grid ~26 m, 2026-10-05. Scout on foot to confirm.","lat":35.17064,"lon":-93.48817,"elevation_ft":1131.0,"slope_deg":13.7,"aspect_deg":160.0,"cluster_pixels":225,"dist_road_m":1148.0}},{"type":"Feature","geometry":{"type":"Point","coordinates":[-93.51617,35.20471]},"properties":{"layer":"likely_bedding","name":"likely_bedding-49","description":"DEM-derived likely bedding; elev 1001 ft; slope 8 deg; aspect 170 deg; ~548 m from nearest AGFC-mapped road. USGS 3DEP ~10 m (py3dep), analysis grid ~26 m, 2026-10-05. Scout on foot to confirm.","lat":35.20471,"lon":-93.51617,"elevation_ft":1001.0,"slope_deg":7.5,"aspect_deg":170.0,"cluster_pixels":223,"dist_road_m":548.0}},{"type":"Feature","geometry":{"type":"Point","coordinates":[-93.58843,35.26224]},"properties":{"layer":"likely_bedding","name":"likely_bedding-50","description":"DEM-derived likely bedding; elev 1099 ft; slope 10 deg; aspect 159 deg; ~1833 m from nearest AGFC-mapped road. USGS 3DEP ~10 m (py3dep), analysis grid ~26 m, 2026-10-05. Scout on foot to confirm.","lat":35.26224,"lon":-93.58843,"elevation_ft":1099.0,"slope_deg":10.3,"aspect_deg":159.0,"cluster_pixels":222,"dist_road_m":1833.0}}]}