{"type":"FeatureCollection","features":[{"type":"Feature","geometry":{"type":"MultiLineString","coordinates":[[[-93.70466,35.21534],[-93.70379,35.21513],[-93.70275,35.21524],[-93.70256,35.21537],[-93.7025,35.21547],[-93.70262,35.21701],[-93.70234,35.21738],[-93.70173,35.21794],[-93.70153,35.21802],[-93.7007,35.21804],[-93.69946,35.218],[-93.69879,35.21813],[-93.69739,35.21813],[-93.69685,35.21805],[-93.69597,35.2177],[-93.69529,35.21761],[-93.69517,35.21763],[-93.69488,35.21735],[-93.69443,35.21719],[-93.69402,35.21718],[-93.69377,35.21725],[-93.69264,35.21729],[-93.6922,35.21724],[-93.69197,35.21717],[-93.69168,35.21705],[-93.69147,35.21687],[-93.69079,35.21677],[-93.69064,35.21671],[-93.68981,35.21592],[-93.6893,35.21564],[-93.68913,35.21551],[-93.68901,35.21538],[-93.6889,35.21536],[-93.68824,35.21546],[-93.68804,35.21545],[-93.68744,35.2149],[-93.68667,35.21467],[-93.68613,35.21459],[-93.68618,35.21435],[-93.68584,35.21412],[-93.68555,35.214],[-93.68509,35.21407],[-93.68456,35.21407],[-93.68398,35.21395],[-93.68221,35.21336],[-93.68184,35.21319],[-93.68147,35.21299],[-93.68148,35.21277],[-93.68146,35.21277]]]},"properties":{"id":"1629","name":"REVILLE CREEK","mvum_symbol_name":"Roads open to all Vehicles, Yearlong","surfacetype":"NAT - NATIVE MATERIAL","seasonal":"yearlong","passengervehicle":"open","passengervehicle_datesopen":"01/01-12/31","highclearancevehicle":"open","highclearancevehicle_datesopen":"01/01-12/31","atv":"open","atv_datesopen":"01/01-12/31","motorcycle":"open","motorcycle_datesopen":"01/01-12/31","kind":"road"}},{"type":"Feature","geometry":{"type":"MultiLineString","coordinates":[[[-93.48275,35.24972],[-93.48292,35.24972],[-93.48315,35.24963],[-93.48334,35.2495],[-93.48359,35.24948],[-93.48437,35.2497],[-93.48533,35.24971],[-93.4858,35.24979],[-93.48662,35.2501],[-93.48782,35.25032],[-93.48805,35.25044],[-93.4882,35.25072],[-93.48845,35.25097],[-93.48923,35.25137],[-93.48964,35.25152],[-93.49021,35.25145],[-93.49119,35.25141],[-93.49144,35.25149],[-93.49178,35.25179],[-93.49219,35.25234],[-93.4925,35.25253],[-93.49271,35.25255],[-93.49322,35.2524],[-93.49365,35.25233],[-93.49388,35.25243],[-93.49424,35.25273]]]},"properties":{"id":"96022B","name":"HUCKLEBERRY POND","mvum_symbol_name":"Special Designation, Yearlong","surfacetype":"NAT - NATIVE MATERIAL","seasonal":"yearlong","atv":"open","atv_datesopen":"01/01-12/31","motorcycle":"open","motorcycle_datesopen":"01/01-12/31","kind":"road"}},{"type":"Feature","geometry":{"type":"MultiLineString","coordinates":[[[-93.69765,35.23428],[-93.69765,35.2342],[-93.69751,35.23382],[-93.6972,35.23342],[-93.697,35.23304],[-93.69701,35.23291],[-93.69731,35.23254],[-93.6975,35.2322],[-93.6977,35.23175],[-93.698,35.23125],[-93.69804,35.23088],[-93.69816,35.2302],[-93.69847,35.22961],[-93.69868,35.22933],[-93.69907,35.22912],[-93.69925,35.22911],[-93.70007,35.22869],[-93.70079,35.22851],[-93.7013,35.22833],[-93.70187,35.2278],[-93.70221,35.22778],[-93.70227,35.22771],[-93.70243,35.22773]]]},"properties":{"id":"96053B","mvum_symbol_name":"Roads open to all Vehicles, Yearlong","surfacetype":"NAT - NATIVE MATERIAL","seasonal":"yearlong","passengervehicle":"open","passengervehicle_datesopen":"01/01-12/31","highclearancevehicle":"open","highclearancevehicle_datesopen":"01/01-12/31","atv":"open","atv_datesopen":"01/01-12/31","motorcycle":"open","motorcycle_datesopen":"01/01-12/31","kind":"road"}},{"type":"Feature","geometry":{"type":"MultiLineString","coordinates":[[[-93.41632,35.2616],[-93.41675,35.26133],[-93.41703,35.26097],[-93.41713,35.26057],[-93.41715,35.26022]]]},"properties":{"id":"1682","name":"LIPE","mvum_symbol_name":"Roads open to all Vehicles, Yearlong","surfacetype":"IMP - IMPROVED NATIVE MATERIAL","seasonal":"yearlong","passengervehicle":"open","passengervehicle_datesopen":"01/01-12/31","highclearancevehicle":"open","highclearancevehicle_datesopen":"01/01-12/31","atv":"open","atv_datesopen":"01/01-12/31","motorcycle":"open","motorcycle_datesopen":"01/01-12/31","kind":"road"}},{"type":"Feature","geometry":{"type":"MultiLineString","coordinates":[[[-93.44971,35.26799],[-93.44981,35.26799],[-93.45043,35.26782],[-93.45121,35.26767],[-93.45295,35.2674],[-93.45337,35.267],[-93.45408,35.2669],[-93.4549,35.26653],[-93.45535,35.26628],[-93.4558,35.26598],[-93.45625,35.26572],[-93.45702,35.26501],[-93.45762,35.26458],[-93.4579,35.2643],[-93.45829,35.26401],[-93.45898,35.26364],[-93.45932,35.26334],[-93.46008,35.26298],[-93.46043,35.26287],[-93.46085,35.26262],[-93.46118,35.26227],[-93.46132,35.26183],[-93.46138,35.2615],[-93.46139,35.2611],[-93.4615,35.26097],[-93.46149,35.26083],[-93.46152,35.26081]]]},"properties":{"id":"1622B","name":"SPIDER WEB","mvum_symbol_name":"Roads open to highway legal vehicles only, Yearlong","surfacetype":"NAT - NATIVE MATERIAL","seasonal":"yearlong","passengervehicle":"open","passengervehicle_datesopen":"01/01-12/31","highclearancevehicle":"open","highclearancevehicle_datesopen":"01/01-12/31","kind":"road"}},{"type":"Feature","geometry":{"type":"MultiLineString","coordinates":[[[-93.70243,35.22773],[-93.70313,35.22776],[-93.70397,35.22789],[-93.70476,35.22814],[-93.70572,35.22855],[-93.70624,35.22873],[-93.70661,35.22876]]]},"properties":{"id":"96053B","mvum_symbol_name":"Roads open to highway legal vehicles only, Yearlong","surfacetype":"NAT - NATIVE MATERIAL","seasonal":"yearlong","passengervehicle":"open","passengervehicle_datesopen":"01/01-12/31","highclearancevehicle":"open","highclearancevehicle_datesopen":"01/01-12/31","kind":"road"}},{"type":"Feature","geometry":{"type":"MultiLineString","coordinates":[[[-93.48025,35.24455],[-93.48043,35.24467],[-93.48061,35.24471],[-93.48069,35.24489],[-93.48071,35.24522],[-93.48056,35.24563],[-93.48061,35.24617],[-93.48068,35.24644],[-93.48085,35.24674],[-93.48118,35.24759],[-93.48122,35.24781],[-93.48121,35.24841],[-93.48157,35.24928],[-93.48182,35.2495],[-93.48215,35.24964],[-93.48251,35.24972],[-93.48275,35.24972]]]},"properties":{"id":"96022B","name":"HUCKLEBERRY POND","mvum_symbol_name":"Roads open to all Vehicles, Yearlong","surfacetype":"NAT - NATIVE MATERIAL","seasonal":"yearlong","passengervehicle":"open","passengervehicle_datesopen":"01/01-12/31","highclearancevehicle":"open","highclearancevehicle_datesopen":"01/01-12/31","atv":"open","atv_datesopen":"01/01-12/31","motorcycle":"open","motorcycle_datesopen":"01/01-12/31","kind":"road"}},{"type":"Feature","geometry":{"type":"MultiLineString","coordinates":[[[-93.40027,35.15534],[-93.40015,35.15595],[-93.40016,35.1561],[-93.40032,35.15671],[-93.40036,35.15708],[-93.40035,35.15754],[-93.40024,35.15788],[-93.39985,35.1583],[-93.39979,35.15862],[-93.40007,35.15939],[-93.40015,35.15977],[-93.40011,35.1601],[-93.40003,35.16031],[-93.39979,35.1608],[-93.39897,35.16209],[-93.39854,35.1625],[-93.39837,35.16277],[-93.39818,35.16295],[-93.39763,35.16317],[-93.39745,35.16332],[-93.39726,35.16355],[-93.39709,35.16367],[-93.39683,35.16374],[-93.39672,35.16382],[-93.39672,35.16388],[-93.39679,35.16398],[-93.39734,35.16442],[-93.39746,35.1646],[-93.39761,35.16497],[-93.39782,35.16517],[-93.39832,35.16552],[-93.39873,35.16586],[-93.39913,35.16632],[-93.39942,35.16654],[-93.39982,35.16668],[-93.40046,35.16684],[-93.40074,35.16679],[-93.40122,35.16679],[-93.4018,35.16693],[-93.40214,35.16689],[-93.40237,35.16677],[-93.40279,35.16642],[-93.40355,35.16615],[-93.40415,35.16562],[-93.40462,35.16548],[-93.40512,35.16522],[-93.40536,35.16515],[-93.40574,35.16512],[-93.40599,35.16504],[-93.40611,35.16493],[-93.40658,35.16513]]]},"properties":{"id":"1639","name":"SUGGS","mvum_symbol_name":"Roads open to highway legal vehicles only, Yearlong","surfacetype":"NAT - NATIVE MATERIAL","seasonal":"yearlong","passengervehicle":"open","passengervehicle_datesopen":"01/01-12/31","highclearancevehicle":"open","highclearancevehicle_datesopen":"01/01-12/31","kind":"road"}},{"type":"Feature","geometry":{"type":"MultiLineString","coordinates":[[[-93.62295,35.21294],[-93.62238,35.2129],[-93.62113,35.21291]]]},"properties":{"id":"96043G","mvum_symbol_name":"Roads open to highway legal vehicles only, Yearlong","surfacetype":"NAT - NATIVE MATERIAL","seasonal":"yearlong","passengervehicle":"open","passengervehicle_datesopen":"01/01-12/31","highclearancevehicle":"open","highclearancevehicle_datesopen":"01/01-12/31","kind":"road"}},{"type":"Feature","geometry":{"type":"MultiLineString","coordinates":[[[-93.56271,35.2733],[-93.56297,35.27342],[-93.56328,35.27366],[-93.56399,35.27401],[-93.56483,35.27435],[-93.56594,35.27464],[-93.56638,35.27467],[-93.56703,35.2748],[-93.56749,35.27491],[-93.56765,35.275],[-93.56834,35.27513],[-93.56864,35.27524],[-93.56906,35.27525],[-93.56936,35.27516],[-93.56982,35.27457],[-93.56993,35.27452],[-93.57,35.27445],[-93.57037,35.27433],[-93.57041,35.27427],[-93.57068,35.27418],[-93.57104,35.27398],[-93.57141,35.27384],[-93.57144,35.27379],[-93.572,35.27355],[-93.57245,35.27304],[-93.57287,35.27203],[-93.57287,35.27179],[-93.573,35.27152],[-93.57344,35.27148],[-93.57365,35.27141],[-93.57438,35.27107],[-93.57568,35.2711],[-93.5762,35.27108],[-93.57631,35.2711]]]},"properties":{"id":"1689","name":"MT. CARMEL ROAD (LO54)","mvum_symbol_name":"Roads open to all Vehicles, Yearlong","surfacetype":"AGG - CRUSHED AGGREGATE OR GRAVEL","seasonal":"yearlong","passengervehicle":"open","passengervehicle_datesopen":"01/01-12/31","highclearancevehicle":"open","highclearancevehicle_datesopen":"01/01-12/31","atv":"open","atv_datesopen":"01/01-12/31","motorcycle":"open","motorcycle_datesopen":"01/01-12/31","kind":"road"}},{"type":"Feature","geometry":{"type":"MultiLineString","coordinates":[[[-93.67437,35.24198],[-93.67428,35.24186],[-93.67354,35.24133],[-93.67329,35.24129],[-93.67289,35.24145],[-93.67201,35.24085],[-93.67183,35.24032],[-93.67187,35.23981],[-93.67185,35.23971]]]},"properties":{"id":"96046B","mvum_symbol_name":"Roads open to highway legal vehicles only, Yearlong","surfacetype":"NAT - NATIVE MATERIAL","seasonal":"yearlong","passengervehicle":"open","passengervehicle_datesopen":"01/01-12/31","highclearancevehicle":"open","highclearancevehicle_datesopen":"01/01-12/31","kind":"road"}},{"type":"Feature","geometry":{"type":"MultiLineString","coordinates":[[[-93.58759,35.23171],[-93.58807,35.23151],[-93.58894,35.2312],[-93.58914,35.23117],[-93.58991,35.23115],[-93.59072,35.23116],[-93.59131,35.23132],[-93.59146,35.23157],[-93.5915,35.23174],[-93.59173,35.23203],[-93.59211,35.23225],[-93.59232,35.2323],[-93.59341,35.23202],[-93.59415,35.23193],[-93.5943,35.23194],[-93.5944,35.23199],[-93.59458,35.23242],[-93.59469,35.23299],[-93.59469,35.23328],[-93.59481,35.23354],[-93.59487,35.23446]]]},"properties":{"id":"1615A","mvum_symbol_name":"Roads open to highway legal vehicles only, Yearlong","surfacetype":"NAT - NATIVE MATERIAL","seasonal":"yearlong","passengervehicle":"open","passengervehicle_datesopen":"01/01-12/31","highclearancevehicle":"open","highclearancevehicle_datesopen":"01/01-12/31","kind":"road"}},{"type":"Feature","geometry":{"type":"MultiLineString","coordinates":[[[-93.48817,35.23056],[-93.48723,35.23062],[-93.48232,35.2305],[-93.48187,35.23052],[-93.48155,35.23058],[-93.48093,35.23077],[-93.48067,35.2308],[-93.47976,35.2308],[-93.47884,35.23105],[-93.47856,35.23104],[-93.47765,35.23075],[-93.47742,35.23074],[-93.47693,35.2308],[-93.47562,35.23073],[-93.47527,35.23068],[-93.4745,35.23038],[-93.47411,35.2303],[-93.4724,35.23008],[-93.47203,35.23],[-93.47143,35.2298],[-93.47063,35.22959],[-93.4677,35.22902],[-93.46706,35.22876],[-93.46552,35.22844],[-93.46498,35.22835],[-93.46428,35.22842],[-93.46408,35.22841],[-93.46363,35.22821],[-93.46314,35.22806],[-93.46191,35.22781],[-93.46003,35.22766],[-93.45906,35.22711],[-93.45861,35.22705],[-93.45842,35.2269],[-93.45832,35.22672],[-93.45723,35.2269],[-93.45432,35.22772],[-93.45313,35.22794],[-93.45212,35.2281],[-93.45126,35.22817],[-93.44984,35.22806]]]},"properties":{"id":"1637","name":"PUT UP","mvum_symbol_name":"Roads open to all Vehicles, Seasonal","surfacetype":"NAT - NATIVE MATERIAL","seasonal":"seasonal","passengervehicle":"open","passengervehicle_datesopen":"06/01-03/31","highclearancevehicle":"open","highclearancevehicle_datesopen":"06/01-03/31","atv":"open","atv_datesopen":"06/01-03/31","motorcycle":"open","motorcycle_datesopen":"06/01-03/31","kind":"road"}},{"type":"Feature","geometry":{"type":"MultiLineString","coordinates":[[[-93.64462,35.17216],[-93.645,35.17215],[-93.64535,35.17209],[-93.64562,35.17197],[-93.6462,35.1718],[-93.64689,35.17191]]]},"properties":{"id":"1606H","name":"CAMERON BLUFF CAMPGROUND LOOP3","mvum_symbol_name":"Roads open to highway legal vehicles only, Yearlong","surfacetype":"P - PAVED","seasonal":"yearlong","passengervehicle":"open","passengervehicle_datesopen":"01/01-12/31","highclearancevehicle":"open","highclearancevehicle_datesopen":"01/01-12/31","kind":"road"}},{"type":"Feature","geometry":{"type":"MultiLineString","coordinates":[[[-93.48012,35.25649],[-93.48007,35.25641],[-93.48007,35.25633],[-93.48021,35.25617],[-93.48025,35.25606],[-93.4802,35.25582],[-93.48005,35.25543],[-93.48005,35.2552],[-93.48,35.25509],[-93.47956,35.25459],[-93.47946,35.25435],[-93.47946,35.25427],[-93.47925,35.25401],[-93.47914,35.25377],[-93.47908,35.2537],[-93.47896,35.25366],[-93.47891,35.25354],[-93.47891,35.25343],[-93.47895,35.25327],[-93.47885,35.253],[-93.47866,35.25265],[-93.47799,35.25227],[-93.47789,35.25227],[-93.47784,35.2522],[-93.47781,35.25206],[-93.47784,35.25179],[-93.47779,35.25165],[-93.47759,35.25138],[-93.47754,35.25119],[-93.47754,35.25103],[-93.47744,35.25084],[-93.4772,35.25065],[-93.47715,35.25041],[-93.47728,35.25014],[-93.47738,35.2501],[-93.47735,35.25002],[-93.47737,35.24956],[-93.47717,35.24929],[-93.47722,35.24909],[-93.47736,35.24882],[-93.47749,35.24858],[-93.47777,35.24838],[-93.47799,35.24848],[-93.47812,35.24846],[-93.47827,35.24837],[-93.4788,35.24759],[-93.47885,35.24755],[-93.47906,35.24758],[-93.4792,35.24755],[-93.47937,35.24735],[-93.47941,35.24724],[-93.47941,35.24699],[-93.47938,35.24691],[-93.4794,35.24683],[-93.47973,35.24652],[-93.47984,35.24634],[-93.47996,35.24583],[-93.47999,35.2455],[-93.48009,35.24528],[-93.48018,35.2452],[-93.48018,35.24501],[-93.48022,35.24482],[-93.48017,35.24462],[-93.48025,35.24455]]]},"properties":{"id":"96076C","name":"CABIN","mvum_symbol_name":"Roads open to all Vehicles, Yearlong","surfacetype":"NAT - NATIVE MATERIAL","seasonal":"yearlong","passengervehicle":"open","passengervehicle_datesopen":"01/01-12/31","highclearancevehicle":"open","highclearancevehicle_datesopen":"01/01-12/31","atv":"open","atv_datesopen":"01/01-12/31","motorcycle":"open","motorcycle_datesopen":"01/01-12/31","kind":"road"}},{"type":"Feature","geometry":{"type":"MultiLineString","coordinates":[[[-93.55416,35.27738],[-93.5544,35.27743],[-93.55496,35.27743],[-93.55555,35.27753],[-93.55596,35.27756],[-93.5572,35.27759],[-93.55819,35.27754],[-93.55846,35.27758],[-93.55912,35.27755],[-93.55941,35.27761]]]},"properties":{"id":"1680","name":"CANADA","mvum_symbol_name":"Roads open to highway legal vehicles only, Yearlong","surfacetype":"NAT - NATIVE MATERIAL","seasonal":"yearlong","passengervehicle":"open","passengervehicle_datesopen":"01/01-12/31","highclearancevehicle":"open","highclearancevehicle_datesopen":"01/01-12/31","kind":"road"}},{"type":"Feature","geometry":{"type":"MultiLineString","coordinates":[[[-93.58635,35.20453],[-93.58636,35.2048],[-93.5865,35.20531],[-93.5866,35.2055],[-93.58671,35.20607],[-93.58678,35.20696],[-93.58684,35.20719],[-93.58714,35.20778],[-93.58715,35.20794],[-93.58706,35.20832],[-93.58708,35.20862]]]},"properties":{"id":"96070A","mvum_symbol_name":"Roads open to highway legal vehicles only, Yearlong","surfacetype":"NAT - NATIVE MATERIAL","seasonal":"yearlong","passengervehicle":"open","passengervehicle_datesopen":"01/01-12/31","highclearancevehicle":"open","highclearancevehicle_datesopen":"01/01-12/31","kind":"road"}},{"type":"Feature","geometry":{"type":"MultiLineString","coordinates":[[[-93.4174,35.27519],[-93.41702,35.27503],[-93.41685,35.27488],[-93.41677,35.27472],[-93.41676,35.27436],[-93.4169,35.27349],[-93.41685,35.273],[-93.41639,35.27179],[-93.41609,35.27111],[-93.41566,35.27066],[-93.41555,35.27049],[-93.41529,35.26987],[-93.41515,35.26966],[-93.41439,35.26895],[-93.41394,35.26864],[-93.41267,35.26789],[-93.41228,35.26777],[-93.41174,35.26776],[-93.41126,35.26779],[-93.40959,35.26753],[-93.40953,35.26749],[-93.40822,35.26735],[-93.40775,35.26725],[-93.40551,35.26661],[-93.40499,35.26641],[-93.40461,35.2662],[-93.40169,35.26412],[-93.3992,35.26288],[-93.39853,35.26249],[-93.3969,35.26165],[-93.39534,35.26077],[-93.39346,35.25962]]]},"properties":{"id":"1619","name":"LITTLE SHOAL","mvum_symbol_name":"Roads open to highway legal vehicles only, Yearlong","surfacetype":"IMP - IMPROVED NATIVE MATERIAL","seasonal":"yearlong","passengervehicle":"open","passengervehicle_datesopen":"01/01-12/31","highclearancevehicle":"open","highclearancevehicle_datesopen":"01/01-12/31","kind":"road"}},{"type":"Feature","geometry":{"type":"MultiLineString","coordinates":[[[-93.5898,35.24581],[-93.58584,35.24561],[-93.58351,35.24559],[-93.58272,35.2456],[-93.58244,35.24565],[-93.58202,35.24576],[-93.5817,35.24589],[-93.58156,35.24603],[-93.58139,35.24628],[-93.58119,35.24667],[-93.58113,35.24694],[-93.58111,35.24723],[-93.58109,35.24852],[-93.58104,35.24867],[-93.58091,35.24891],[-93.58072,35.24908],[-93.58051,35.24916],[-93.58027,35.2492],[-93.57756,35.24919],[-93.57541,35.24924],[-93.57442,35.2493],[-93.57373,35.24928],[-93.57364,35.24932]]]},"properties":{"id":"1663","name":"RICH MTN BY WAY","mvum_symbol_name":"Roads open to all Vehicles, Yearlong","surfacetype":"IMP - IMPROVED NATIVE MATERIAL","seasonal":"yearlong","passengervehicle":"open","passengervehicle_datesopen":"01/01-12/31","highclearancevehicle":"open","highclearancevehicle_datesopen":"01/01-12/31","atv":"open","atv_datesopen":"01/01-12/31","motorcycle":"open","motorcycle_datesopen":"01/01-12/31","kind":"road"}},{"type":"Feature","geometry":{"type":"MultiLineString","coordinates":[[[-93.43838,35.26441],[-93.43929,35.26583],[-93.43922,35.2669],[-93.43927,35.26721],[-93.43942,35.26732],[-93.44091,35.26748],[-93.44476,35.26848],[-93.44555,35.2684],[-93.44618,35.26838],[-93.44832,35.26811],[-93.44871,35.26795],[-93.44952,35.26793],[-93.44971,35.26799]]]},"properties":{"id":"1622B","name":"SPIDER WEB","mvum_symbol_name":"Roads open to all Vehicles, Yearlong","surfacetype":"NAT - NATIVE MATERIAL","seasonal":"yearlong","passengervehicle":"open","passengervehicle_datesopen":"01/01-12/31","highclearancevehicle":"open","highclearancevehicle_datesopen":"01/01-12/31","atv":"open","atv_datesopen":"01/01-12/31","motorcycle":"open","motorcycle_datesopen":"01/01-12/31","kind":"road"}},{"type":"Feature","geometry":{"type":"MultiLineString","coordinates":[[[-93.59069,35.21654],[-93.59067,35.21707],[-93.59071,35.21726],[-93.59079,35.2174],[-93.59101,35.21753],[-93.59208,35.21801],[-93.59232,35.21815]]]},"properties":{"id":"1664","name":"PANE","mvum_symbol_name":"Roads open to highway legal vehicles only, Yearlong","surfacetype":"NAT - NATIVE MATERIAL","seasonal":"yearlong","passengervehicle":"open","passengervehicle_datesopen":"01/01-12/31","highclearancevehicle":"open","highclearancevehicle_datesopen":"01/01-12/31","kind":"road"}},{"type":"Feature","geometry":{"type":"MultiLineString","coordinates":[[[-93.36737,35.17382],[-93.36692,35.17492],[-93.36686,35.17521],[-93.36687,35.17537],[-93.36691,35.1756],[-93.36696,35.1757],[-93.36724,35.17585],[-93.36745,35.17589],[-93.36887,35.17605],[-93.36928,35.17611],[-93.36961,35.17621],[-93.37,35.17636],[-93.37093,35.17691],[-93.3714,35.17728],[-93.37186,35.1777],[-93.37198,35.17787],[-93.37212,35.17836],[-93.3722,35.17849],[-93.37234,35.17862],[-93.37274,35.17888],[-93.37279,35.17896],[-93.37241,35.17905],[-93.37205,35.17901]]]},"properties":{"id":"1618E","name":"JERNIGAN","mvum_symbol_name":"Roads open to highway legal vehicles only, Yearlong","surfacetype":"NAT - NATIVE MATERIAL","seasonal":"yearlong","passengervehicle":"open","passengervehicle_datesopen":"01/01-12/31","highclearancevehicle":"open","highclearancevehicle_datesopen":"01/01-12/31","kind":"road"}},{"type":"Feature","geometry":{"type":"MultiLineString","coordinates":[[[-93.39646,35.17132],[-93.3963,35.17147],[-93.3962,35.1719],[-93.3962,35.17259],[-93.39641,35.17303],[-93.39649,35.17357],[-93.3964,35.17372],[-93.39609,35.17384],[-93.39597,35.1741],[-93.39607,35.17454],[-93.39604,35.17477],[-93.39589,35.17517],[-93.39573,35.17576],[-93.39548,35.17622],[-93.39544,35.17704],[-93.39548,35.17735],[-93.39548,35.17768],[-93.39556,35.17802],[-93.39539,35.17858],[-93.39514,35.17876],[-93.39477,35.17919],[-93.39466,35.17968]]]},"properties":{"id":"1640","name":"HOLMS","mvum_symbol_name":"Roads open to highway legal vehicles only, Yearlong","surfacetype":"IMP - IMPROVED NATIVE MATERIAL","seasonal":"yearlong","passengervehicle":"open","passengervehicle_datesopen":"01/01-12/31","highclearancevehicle":"open","highclearancevehicle_datesopen":"01/01-12/31","kind":"road"}},{"type":"Feature","geometry":{"type":"MultiLineString","coordinates":[[[-93.47738,35.14622],[-93.47779,35.1464],[-93.4784,35.14656],[-93.47922,35.14705],[-93.47955,35.14719],[-93.47967,35.1474],[-93.47987,35.14759],[-93.47988,35.14809],[-93.48081,35.1487],[-93.48026,35.1494],[-93.48004,35.1496],[-93.47995,35.14961],[-93.47995,35.14968],[-93.47982,35.14974],[-93.4793,35.14969],[-93.47911,35.1498],[-93.47839,35.15002],[-93.47807,35.15008],[-93.47774,35.15008],[-93.47728,35.15004],[-93.4767,35.15015],[-93.47651,35.15031],[-93.47644,35.15053],[-93.47651,35.15074],[-93.47658,35.15085],[-93.47704,35.15106],[-93.4777,35.15148],[-93.4781,35.15206],[-93.47837,35.15238],[-93.47857,35.15275],[-93.47911,35.15334],[-93.47977,35.15386],[-93.48154,35.15449],[-93.48201,35.1548],[-93.4824,35.15496],[-93.48292,35.15506],[-93.48332,35.15505],[-93.48386,35.15523],[-93.48431,35.15517],[-93.48483,35.15514],[-93.48564,35.15515],[-93.48616,35.15519],[-93.48654,35.15526],[-93.48739,35.15527],[-93.48817,35.15519],[-93.48887,35.15528],[-93.48913,35.15539],[-93.48963,35.15551],[-93.49056,35.15552],[-93.49172,35.1556],[-93.49214,35.15577],[-93.49242,35.15579],[-93.49398,35.1558],[-93.49493,35.15586],[-93.49539,35.15618],[-93.49612,35.15645],[-93.49627,35.15655],[-93.49645,35.15681],[-93.49672,35.15759],[-93.49681,35.15776],[-93.49705,35.15802],[-93.49743,35.1583],[-93.49747,35.15856],[-93.49735,35.15875],[-93.49658,35.15926],[-93.49612,35.15939],[-93.49575,35.15973],[-93.49563,35.15998],[-93.49551,35.16046]]]},"properties":{"id":"1630","name":"CROW","mvum_symbol_name":"Roads open to highway legal vehicles only, Yearlong","surfacetype":"IMP - IMPROVED NATIVE MATERIAL","seasonal":"yearlong","passengervehicle":"open","passengervehicle_datesopen":"01/01-12/31","highclearancevehicle":"open","highclearancevehicle_datesopen":"01/01-12/31","kind":"road"}},{"type":"Feature","geometry":{"type":"MultiLineString","coordinates":[[[-93.51464,35.24931],[-93.51448,35.24985],[-93.5145,35.25],[-93.51462,35.25019],[-93.51489,35.25041],[-93.51511,35.25064],[-93.51519,35.25084],[-93.51516,35.25104],[-93.51494,35.2515],[-93.5141,35.25294],[-93.51344,35.25414],[-93.5133,35.25448],[-93.5129,35.25591],[-93.51274,35.25613],[-93.51179,35.25705],[-93.51149,35.25738],[-93.51139,35.25756],[-93.51117,35.25818],[-93.51104,35.25831],[-93.5109,35.25833],[-93.51042,35.25821],[-93.5102,35.25822],[-93.50982,35.25836],[-93.50962,35.25849],[-93.5095,35.25876],[-93.5093,35.2602],[-93.50908,35.26075],[-93.50888,35.26108],[-93.50858,35.26149],[-93.50837,35.26166],[-93.50831,35.26179],[-93.50804,35.26212],[-93.50725,35.26294],[-93.50703,35.26311]]]},"properties":{"id":"1604","name":"SHOAL CREEK","mvum_symbol_name":"Roads open to all Vehicles, Yearlong","surfacetype":"NAT - NATIVE MATERIAL","seasonal":"yearlong","passengervehicle":"open","passengervehicle_datesopen":"01/01-12/31","highclearancevehicle":"open","highclearancevehicle_datesopen":"01/01-12/31","atv":"open","atv_datesopen":"01/01-12/31","motorcycle":"open","motorcycle_datesopen":"01/01-12/31","kind":"road"}},{"type":"Feature","geometry":{"type":"MultiLineString","coordinates":[[[-93.46202,35.17234],[-93.46293,35.17251],[-93.46328,35.17265],[-93.46348,35.17258],[-93.4638,35.17234],[-93.464,35.17229],[-93.46452,35.17245],[-93.46473,35.17271],[-93.46506,35.17296],[-93.46518,35.17313],[-93.46538,35.17327],[-93.46567,35.17341],[-93.46588,35.17362],[-93.46643,35.17435],[-93.4666,35.17452],[-93.46733,35.1748],[-93.46797,35.17525],[-93.46833,35.17586],[-93.46901,35.17619],[-93.46986,35.17616],[-93.47013,35.17625],[-93.47072,35.17692],[-93.47086,35.17712],[-93.47105,35.17722],[-93.47126,35.17739],[-93.47146,35.17747],[-93.47228,35.17753],[-93.47267,35.17746],[-93.47322,35.17719],[-93.47401,35.17673],[-93.47479,35.17627],[-93.47538,35.17585],[-93.47555,35.1758],[-93.4758,35.17583],[-93.47621,35.17599],[-93.47713,35.17648],[-93.47751,35.17687],[-93.47753,35.17731],[-93.47758,35.17754],[-93.47861,35.17823],[-93.47888,35.17858],[-93.47969,35.17881],[-93.48057,35.17849],[-93.48091,35.17889]]]},"properties":{"id":"1626A","name":"WHITE CR SPUR NORTH","mvum_symbol_name":"Roads open to highway legal vehicles only, Yearlong","surfacetype":"NAT - NATIVE MATERIAL","seasonal":"yearlong","passengervehicle":"open","passengervehicle_datesopen":"01/01-12/31","highclearancevehicle":"open","highclearancevehicle_datesopen":"01/01-12/31","kind":"road"}},{"type":"Feature","geometry":{"type":"MultiLineString","coordinates":[[[-93.68146,35.21277],[-93.68132,35.21281],[-93.68105,35.21295],[-93.68092,35.21297],[-93.6806,35.21316],[-93.68032,35.21326],[-93.67992,35.21357],[-93.6798,35.21362],[-93.6793,35.21369],[-93.67917,35.21374],[-93.67908,35.21369],[-93.67861,35.21363],[-93.67812,35.21362]]]},"properties":{"id":"1629","name":"REVILLE CREEK","mvum_symbol_name":"Special Designation, Yearlong","surfacetype":"NAT - NATIVE MATERIAL","seasonal":"yearlong","atv":"open","atv_datesopen":"01/01-12/31","motorcycle":"open","motorcycle_datesopen":"01/01-12/31","kind":"road"}},{"type":"Feature","geometry":{"type":"MultiLineString","coordinates":[[[-93.67062,35.22888],[-93.67195,35.22931],[-93.67235,35.22947],[-93.67248,35.22961],[-93.67264,35.23021],[-93.67266,35.23045],[-93.67281,35.231],[-93.67302,35.23124],[-93.67348,35.23155],[-93.674,35.23196],[-93.67467,35.23287],[-93.67499,35.23316],[-93.67517,35.23341],[-93.67529,35.23365],[-93.67535,35.23398],[-93.67525,35.23426],[-93.67535,35.2344]]]},"properties":{"id":"1610","name":"CORLEY","mvum_symbol_name":"Roads open to highway legal vehicles only, Yearlong","surfacetype":"NAT - NATIVE MATERIAL","seasonal":"yearlong","passengervehicle":"open","passengervehicle_datesopen":"01/01-12/31","highclearancevehicle":"open","highclearancevehicle_datesopen":"01/01-12/31","kind":"road"}},{"type":"Feature","geometry":{"type":"MultiLineString","coordinates":[[[-93.54589,35.19444],[-93.54501,35.19443]]]},"properties":{"id":"1627D","mvum_symbol_name":"Roads open to all Vehicles, Yearlong","surfacetype":"NAT - NATIVE MATERIAL","seasonal":"yearlong","passengervehicle":"open","passengervehicle_datesopen":"01/01-12/31","highclearancevehicle":"open","highclearancevehicle_datesopen":"01/01-12/31","atv":"open","atv_datesopen":"01/01-12/31","motorcycle":"open","motorcycle_datesopen":"01/01-12/31","kind":"road"}},{"type":"Feature","geometry":{"type":"MultiLineString","coordinates":[[[-93.62447,35.25846],[-93.6246,35.25873],[-93.62485,35.25956],[-93.62484,35.26008],[-93.62488,35.26059]]]},"properties":{"id":"1617A","name":"JOHN'S","mvum_symbol_name":"Roads open to highway legal vehicles only, Yearlong","surfacetype":"IMP - IMPROVED NATIVE MATERIAL","seasonal":"yearlong","passengervehicle":"open","passengervehicle_datesopen":"01/01-12/31","highclearancevehicle":"open","highclearancevehicle_datesopen":"01/01-12/31","kind":"road"}},{"type":"Feature","geometry":{"type":"MultiLineString","coordinates":[[[-93.58132,35.13413],[-93.58141,35.13494],[-93.58135,35.13528],[-93.58127,35.13535],[-93.58093,35.13537],[-93.5808,35.13544],[-93.58065,35.13559],[-93.58043,35.13572],[-93.5798,35.13571],[-93.57925,35.13553],[-93.57906,35.13556],[-93.57898,35.13573],[-93.57919,35.13647],[-93.57919,35.13668],[-93.57916,35.13695],[-93.57896,35.13719],[-93.57888,35.13748],[-93.57897,35.13757],[-93.57913,35.1376]]]},"properties":{"id":"1621C","name":"COPPERHEAD","mvum_symbol_name":"Roads open to highway legal vehicles only, Yearlong","surfacetype":"NAT - NATIVE MATERIAL","seasonal":"yearlong","passengervehicle":"open","passengervehicle_datesopen":"01/01-12/31","highclearancevehicle":"open","highclearancevehicle_datesopen":"01/01-12/31","kind":"road"}},{"type":"Feature","geometry":{"type":"MultiLineString","coordinates":[[[-93.54632,35.18967],[-93.54443,35.18963],[-93.54365,35.18967],[-93.54349,35.18973]]]},"properties":{"id":"1627E","name":"ELM TREE","mvum_symbol_name":"Roads open to all Vehicles, Yearlong","surfacetype":"NAT - NATIVE MATERIAL","seasonal":"yearlong","passengervehicle":"open","passengervehicle_datesopen":"01/01-12/31","highclearancevehicle":"open","highclearancevehicle_datesopen":"01/01-12/31","atv":"open","atv_datesopen":"01/01-12/31","motorcycle":"open","motorcycle_datesopen":"01/01-12/31","kind":"road"}},{"type":"Feature","geometry":{"type":"MultiLineString","coordinates":[[[-93.49551,35.16046],[-93.49547,35.1606],[-93.49529,35.16062],[-93.49506,35.1607],[-93.4946,35.16096],[-93.49425,35.16105],[-93.49411,35.16115],[-93.49381,35.16121],[-93.49348,35.16116],[-93.49332,35.16106],[-93.49332,35.16135]]]},"properties":{"id":"1630","name":"CROW","mvum_symbol_name":"Roads open to all Vehicles, Yearlong","surfacetype":"IMP - IMPROVED NATIVE MATERIAL","seasonal":"yearlong","passengervehicle":"open","passengervehicle_datesopen":"01/01-12/31","highclearancevehicle":"open","highclearancevehicle_datesopen":"01/01-12/31","atv":"open","atv_datesopen":"01/01-12/31","motorcycle":"open","motorcycle_datesopen":"01/01-12/31","kind":"road"}},{"type":"Feature","geometry":{"type":"MultiLineString","coordinates":[[[-93.64792,35.2205],[-93.64881,35.2219],[-93.64962,35.22275],[-93.65018,35.22326],[-93.65051,35.22354],[-93.65098,35.22387],[-93.65244,35.22454],[-93.65305,35.22473],[-93.65317,35.22485],[-93.65335,35.22514],[-93.65343,35.22522],[-93.65457,35.22604],[-93.6553,35.22621],[-93.65587,35.22643],[-93.65602,35.22654],[-93.65638,35.22692],[-93.65678,35.22705],[-93.65728,35.22727],[-93.65795,35.22743],[-93.65876,35.22797],[-93.66012,35.2285],[-93.66064,35.22852],[-93.66163,35.22845],[-93.66575,35.22859],[-93.66594,35.22857],[-93.66607,35.2285],[-93.66643,35.2285],[-93.67062,35.22888]]]},"properties":{"id":"1610","name":"CORLEY","mvum_symbol_name":"Roads open to all Vehicles, Yearlong","surfacetype":"NAT - NATIVE MATERIAL","seasonal":"yearlong","passengervehicle":"open","passengervehicle_datesopen":"01/01-12/31","highclearancevehicle":"open","highclearancevehicle_datesopen":"01/01-12/31","atv":"open","atv_datesopen":"01/01-12/31","motorcycle":"open","motorcycle_datesopen":"01/01-12/31","kind":"road"}},{"type":"Feature","geometry":{"type":"MultiLineString","coordinates":[[[-93.55482,35.21093],[-93.5539,35.21113],[-93.5535,35.2113],[-93.55323,35.21147],[-93.55291,35.21157],[-93.55263,35.21151],[-93.55251,35.21134],[-93.55202,35.21086],[-93.55163,35.21087],[-93.55131,35.2111],[-93.55144,35.21165],[-93.55145,35.21198],[-93.55094,35.21241],[-93.55054,35.21258],[-93.54974,35.2121],[-93.54946,35.2121],[-93.54906,35.21221],[-93.54895,35.21243],[-93.54868,35.21283],[-93.54857,35.21326],[-93.5483,35.21375],[-93.54779,35.21408],[-93.547,35.21442],[-93.54652,35.21449],[-93.54573,35.2145],[-93.54452,35.2139],[-93.54452,35.21357],[-93.54459,35.21308],[-93.54486,35.21281],[-93.54544,35.21199],[-93.54595,35.21149],[-93.54599,35.21079]]]},"properties":{"id":"1660","name":"SING","mvum_symbol_name":"Roads open to highway legal vehicles only, Yearlong","surfacetype":"IMP - IMPROVED NATIVE MATERIAL","seasonal":"yearlong","passengervehicle":"open","passengervehicle_datesopen":"01/01-12/31","highclearancevehicle":"open","highclearancevehicle_datesopen":"01/01-12/31","kind":"road"}},{"type":"Feature","geometry":{"type":"MultiLineString","coordinates":[[[-93.62456,35.2583],[-93.62423,35.25882],[-93.62388,35.25913],[-93.62343,35.25945],[-93.623,35.25987],[-93.62284,35.25998],[-93.62242,35.26013],[-93.6213,35.26029],[-93.62108,35.26053],[-93.62063,35.26118],[-93.62003,35.26157],[-93.61997,35.26165],[-93.61973,35.26181],[-93.61952,35.2619],[-93.61946,35.26187],[-93.61927,35.26196],[-93.61919,35.26191],[-93.61914,35.26194],[-93.61885,35.26191],[-93.61877,35.26187],[-93.61853,35.26187],[-93.61803,35.26163],[-93.61707,35.26152],[-93.61625,35.26124],[-93.61585,35.26118],[-93.61551,35.26102],[-93.61533,35.26088],[-93.61499,35.26048],[-93.6146,35.26011],[-93.6142,35.25979],[-93.61373,35.25962],[-93.61339,35.25961],[-93.61298,35.25966],[-93.6123,35.25985],[-93.61219,35.25984],[-93.61198,35.2599],[-93.61099,35.25998],[-93.61077,35.26006],[-93.6107,35.26005],[-93.61024,35.26016],[-93.6098,35.2603],[-93.60949,35.26046],[-93.60878,35.2607],[-93.60825,35.26098],[-93.60783,35.26114],[-93.60648,35.26194],[-93.60559,35.2624],[-93.60482,35.26259],[-93.60383,35.2627],[-93.60341,35.26268],[-93.60303,35.26261],[-93.60294,35.26264],[-93.60272,35.26262],[-93.60119,35.26295],[-93.60027,35.26285],[-93.60003,35.26287],[-93.59982,35.26279],[-93.59924,35.26287],[-93.59855,35.26286],[-93.59786,35.26271],[-93.59764,35.26272],[-93.59702,35.26282],[-93.59672,35.26281],[-93.59584,35.26262],[-93.5957,35.26255],[-93.59476,35.26224],[-93.59434,35.26216],[-93.59408,35.26203],[-93.59333,35.26147],[-93.59315,35.26124],[-93.593,35.26111],[-93.59273,35.26072],[-93.59214,35.26025],[-93.59209,35.26025],[-93.59194,35.2601],[-93.5914,35.25978],[-93.59116,35.25956],[-93.59104,35.25938],[-93.59091,35.25929],[-93.59034,35.25919],[-93.58977,35.25902],[-93.58937,35.25885],[-93.58898,35.25861],[-93.58836,35.2581],[-93.58834,35.25805],[-93.58783,35.25783],[-93.58747,35.25763],[-93.58719,35.2574],[-93.58697,35.25715],[-93.58647,35.25671],[-93.58601,35.25665],[-93.58558,35.25654],[-93.58493,35.25587],[-93.58467,35.25572],[-93.58437,35.25563],[-93.58408,35.2556],[-93.58384,35.25563],[-93.5836,35.25571],[-93.58323,35.25574],[-93.58296,35.2558],[-93.58286,35.25578],[-93.58243,35.25591],[-93.58118,35.25611],[-93.57993,35.25621],[-93.57907,35.25651],[-93.5788,35.25662],[-93.57871,35.25669],[-93.57864,35.2567],[-93.57863,35.25677],[-93.5783,35.25698],[-93.57766,35.25753],[-93.57757,35.2576],[-93.57752,35.25755],[-93.57754,35.25762],[-93.57738,35.25791],[-93.57734,35.25816],[-93.57722,35.25835],[-93.57686,35.2585],[-93.57612,35.25856],[-93.57552,35.2587],[-93.57489,35.25896],[-93.57444,35.25919],[-93.57331,35.25991],[-93.57329,35.25988],[-93.57325,35.25996],[-93.57273,35.26042],[-93.57222,35.26078],[-93.57065,35.26177],[-93.56968,35.262],[-93.56929,35.26206],[-93.56899,35.26206],[-93.56874,35.26192],[-93.5686,35.26179],[-93.56834,35.26172],[-93.56818,35.26171],[-93.56726,35.26186],[-93.56705,35.26179],[-93.56661,35.26147],[-93.56632,35.2615],[-93.56587,35.2618],[-93.56534,35.26256],[-93.56506,35.26306],[-93.56468,35.26409],[-93.5645,35.26433],[-93.56409,35.26476],[-93.56321,35.26527],[-93.56294,35.26565],[-93.56274,35.26601],[-93.56259,35.26645],[-93.56293,35.26732],[-93.56298,35.26754],[-93.56295,35.27032]]]},"properties":{"id":"1617","name":"RED BENCH","mvum_symbol_name":"Roads open to all Vehicles, Yearlong","surfacetype":"AGG - CRUSHED AGGREGATE OR GRAVEL","seasonal":"yearlong","passengervehicle":"open","passengervehicle_datesopen":"01/01-12/31","highclearancevehicle":"open","highclearancevehicle_datesopen":"01/01-12/31","atv":"open","atv_datesopen":"01/01-12/31","motorcycle":"open","motorcycle_datesopen":"01/01-12/31","kind":"road"}},{"type":"Feature","geometry":{"type":"MultiLineString","coordinates":[[[-93.72287,35.17228],[-93.72252,35.17246],[-93.72221,35.17275],[-93.72201,35.17296],[-93.72122,35.17411],[-93.72096,35.17432],[-93.72083,35.17452],[-93.72017,35.17503],[-93.71935,35.17668],[-93.71882,35.17699],[-93.71845,35.17718],[-93.71782,35.17733]]]},"properties":{"id":"96073A","mvum_symbol_name":"Roads open to highway legal vehicles only, Yearlong","surfacetype":"NAT - NATIVE MATERIAL","seasonal":"yearlong","passengervehicle":"open","passengervehicle_datesopen":"01/01-12/31","highclearancevehicle":"open","highclearancevehicle_datesopen":"01/01-12/31","kind":"road"}},{"type":"Feature","geometry":{"type":"MultiLineString","coordinates":[[[-93.37336,35.2274],[-93.37357,35.22756],[-93.374,35.22782],[-93.37519,35.22847],[-93.37623,35.22858],[-93.37733,35.22859],[-93.37759,35.22854],[-93.37798,35.22839],[-93.37964,35.22842],[-93.38014,35.22833]]]},"properties":{"id":"1611","name":"DEAN REID","mvum_symbol_name":"Roads open to all Vehicles, Yearlong","surfacetype":"NAT - NATIVE MATERIAL","seasonal":"yearlong","passengervehicle":"open","passengervehicle_datesopen":"01/01-12/31","highclearancevehicle":"open","highclearancevehicle_datesopen":"01/01-12/31","atv":"open","atv_datesopen":"01/01-12/31","motorcycle":"open","motorcycle_datesopen":"01/01-12/31","kind":"road"}},{"type":"Feature","geometry":{"type":"MultiLineString","coordinates":[[[-93.55314,35.25885],[-93.55314,35.25871],[-93.55324,35.25861],[-93.55377,35.25835],[-93.55425,35.25853],[-93.55464,35.25884],[-93.55486,35.25982],[-93.55509,35.26],[-93.55505,35.26018],[-93.55573,35.26064],[-93.55598,35.26092],[-93.55648,35.26128],[-93.55876,35.26278],[-93.56016,35.26351],[-93.56104,35.26385],[-93.56112,35.26405],[-93.56108,35.26418],[-93.56099,35.26427],[-93.56068,35.2643],[-93.56062,35.26439],[-93.56075,35.2645],[-93.56091,35.26456],[-93.56105,35.26466],[-93.56128,35.26499],[-93.56146,35.26514],[-93.56165,35.26523],[-93.56182,35.26518],[-93.56226,35.26497],[-93.56255,35.26512],[-93.56279,35.26537],[-93.56301,35.26554]]]},"properties":{"id":"96030D","mvum_symbol_name":"Roads open to all Vehicles, Yearlong","surfacetype":"NAT - NATIVE MATERIAL","seasonal":"yearlong","passengervehicle":"open","passengervehicle_datesopen":"01/01-12/31","highclearancevehicle":"open","highclearancevehicle_datesopen":"01/01-12/31","atv":"open","atv_datesopen":"01/01-12/31","motorcycle":"open","motorcycle_datesopen":"01/01-12/31","kind":"road"}},{"type":"Feature","geometry":{"type":"MultiLineString","coordinates":[[[-93.56667,35.18631],[-93.56637,35.18609],[-93.56612,35.18602],[-93.56534,35.18545],[-93.5648,35.18523]]]},"properties":{"id":"96063A","mvum_symbol_name":"Roads open to highway legal vehicles only, Yearlong","surfacetype":"NAT - NATIVE MATERIAL","seasonal":"yearlong","passengervehicle":"open","passengervehicle_datesopen":"01/01-12/31","highclearancevehicle":"open","highclearancevehicle_datesopen":"01/01-12/31","kind":"road"}},{"type":"Feature","geometry":{"type":"MultiLineString","coordinates":[[[-93.71946,35.18203],[-93.71953,35.18196],[-93.71966,35.18193],[-93.72007,35.18194],[-93.72021,35.1818],[-93.72037,35.18147],[-93.72044,35.1814],[-93.72113,35.18124],[-93.7215,35.18111],[-93.72195,35.18109],[-93.72216,35.18103],[-93.72255,35.18081],[-93.72295,35.18071],[-93.72313,35.1806],[-93.72369,35.18044],[-93.72391,35.1803],[-93.72407,35.18013],[-93.72416,35.17964],[-93.72413,35.17847],[-93.72414,35.17835],[-93.72422,35.17819],[-93.72456,35.17788],[-93.72485,35.17755],[-93.72512,35.17735],[-93.72607,35.17726],[-93.72661,35.17716],[-93.72691,35.17699],[-93.72698,35.17689],[-93.72721,35.17634],[-93.72771,35.17602],[-93.72786,35.17597],[-93.72851,35.17587],[-93.72857,35.17578],[-93.72859,35.1751],[-93.72865,35.17466],[-93.72908,35.17422],[-93.72927,35.17365],[-93.72934,35.17358],[-93.72964,35.17342],[-93.72976,35.1733]]]},"properties":{"id":"96074E","name":"LOWER RIDGE","mvum_symbol_name":"Roads open to highway legal vehicles only, Yearlong","surfacetype":"NAT - NATIVE MATERIAL","seasonal":"yearlong","passengervehicle":"open","passengervehicle_datesopen":"01/01-12/31","highclearancevehicle":"open","highclearancevehicle_datesopen":"01/01-12/31","kind":"road"}},{"type":"Feature","geometry":{"type":"MultiLineString","coordinates":[[[-93.40723,35.19822],[-93.40718,35.19832],[-93.40682,35.19867],[-93.40658,35.19881],[-93.40593,35.19906],[-93.40555,35.19912],[-93.40435,35.1992],[-93.40388,35.19929],[-93.40274,35.19971],[-93.40235,35.19976],[-93.40198,35.19979],[-93.40119,35.19968],[-93.40021,35.19986],[-93.39932,35.19986],[-93.39915,35.19991],[-93.39896,35.2],[-93.39876,35.20018],[-93.39852,35.20051],[-93.39843,35.20059],[-93.39768,35.20063],[-93.39734,35.20082],[-93.39707,35.20106],[-93.3969,35.20142],[-93.39685,35.20165],[-93.3967,35.20194],[-93.3958,35.2023],[-93.39549,35.20247],[-93.39527,35.20276],[-93.3952,35.20299],[-93.39507,35.20317],[-93.39491,35.2033],[-93.39397,35.20378],[-93.39304,35.20404],[-93.39289,35.20407],[-93.39203,35.20361],[-93.39187,35.20356],[-93.39182,35.2035],[-93.3915,35.20331],[-93.39074,35.20312],[-93.38997,35.20309],[-93.38924,35.20314],[-93.3887,35.20314],[-93.38851,35.20311],[-93.38754,35.20275],[-93.38662,35.20285],[-93.38619,35.20293],[-93.38591,35.2031],[-93.38578,35.20322],[-93.38571,35.20337],[-93.3856,35.20346],[-93.38533,35.20421],[-93.38532,35.20438],[-93.38512,35.20473],[-93.38497,35.20491],[-93.38466,35.20513],[-93.38449,35.2052],[-93.38382,35.20537],[-93.38318,35.20529],[-93.38265,35.20527],[-93.38081,35.20549],[-93.37979,35.2057],[-93.37815,35.20622],[-93.37754,35.2066],[-93.37734,35.20695],[-93.37687,35.20743],[-93.37661,35.20752],[-93.37579,35.20756],[-93.37541,35.20766],[-93.37426,35.20782],[-93.37382,35.20791],[-93.37342,35.20803],[-93.37257,35.20842],[-93.37168,35.20889],[-93.37026,35.20949],[-93.36868,35.21036],[-93.36833,35.21061],[-93.36805,35.21091],[-93.36766,35.21103],[-93.36699,35.2111],[-93.36672,35.21117],[-93.36654,35.21131],[-93.36592,35.21151],[-93.36555,35.21167],[-93.36501,35.21198],[-93.36474,35.21219],[-93.36429,35.21266],[-93.36402,35.21283],[-93.36381,35.21287],[-93.36261,35.21285],[-93.36227,35.2129],[-93.36167,35.21308],[-93.36132,35.21333],[-93.36048,35.21435],[-93.36013,35.2147],[-93.35949,35.21511],[-93.35912,35.21515],[-93.35633,35.21499],[-93.35601,35.21526],[-93.35581,35.21533],[-93.35601,35.21601],[-93.35643,35.21711],[-93.35647,35.21734],[-93.35647,35.21753],[-93.35641,35.21777],[-93.35617,35.21816],[-93.356,35.21859],[-93.35594,35.21901],[-93.35599,35.21943],[-93.35618,35.21976],[-93.35658,35.22],[-93.35698,35.22085],[-93.35693,35.22161],[-93.35705,35.2221],[-93.35736,35.22286],[-93.35784,35.22352],[-93.35918,35.22474],[-93.35989,35.22517],[-93.3607,35.22577],[-93.36115,35.22604],[-93.3624,35.22649],[-93.36314,35.22686],[-93.364,35.22706],[-93.36452,35.22724],[-93.36537,35.22766],[-93.36636,35.22799],[-93.36673,35.22808],[-93.36771,35.22805],[-93.36839,35.22788],[-93.36946,35.22749],[-93.37062,35.22716],[-93.37117,35.22696],[-93.37188,35.22694],[-93.37264,35.22703],[-93.37328,35.22733],[-93.37336,35.2274]]]},"properties":{"id":"1611","name":"DEAN REID","mvum_symbol_name":"Roads open to all Vehicles, Yearlong","surfacetype":"AGG - CRUSHED AGGREGATE OR GRAVEL","seasonal":"yearlong","passengervehicle":"open","passengervehicle_datesopen":"01/01-12/31","highclearancevehicle":"open","highclearancevehicle_datesopen":"01/01-12/31","atv":"open","atv_datesopen":"01/01-12/31","motorcycle":"open","motorcycle_datesopen":"01/01-12/31","kind":"road"}},{"type":"Feature","geometry":{"type":"MultiLineString","coordinates":[[[-93.62571,35.21313],[-93.62543,35.21307],[-93.62295,35.21294]]]},"properties":{"id":"96043G","mvum_symbol_name":"Roads open to all Vehicles, Yearlong","surfacetype":"NAT - NATIVE MATERIAL","seasonal":"yearlong","passengervehicle":"open","passengervehicle_datesopen":"01/01-12/31","highclearancevehicle":"open","highclearancevehicle_datesopen":"01/01-12/31","atv":"open","atv_datesopen":"01/01-12/31","motorcycle":"open","motorcycle_datesopen":"01/01-12/31","kind":"road"}},{"type":"Feature","geometry":{"type":"MultiLineString","coordinates":[[[-93.71352,35.23447],[-93.71351,35.23437],[-93.7133,35.23414],[-93.71291,35.23398],[-93.71233,35.23393],[-93.71212,35.23383],[-93.71126,35.23381],[-93.71039,35.23374]]]},"properties":{"id":"1609C","name":"BRAY SPRINGS","mvum_symbol_name":"Roads open to highway legal vehicles only, Yearlong","surfacetype":"NAT - NATIVE MATERIAL","seasonal":"yearlong","passengervehicle":"open","passengervehicle_datesopen":"01/01-12/31","highclearancevehicle":"open","highclearancevehicle_datesopen":"01/01-12/31","kind":"road"}},{"type":"Feature","geometry":{"type":"MultiLineString","coordinates":[[[-93.55663,35.24013],[-93.55661,35.2398],[-93.55697,35.23862],[-93.55752,35.2373],[-93.55783,35.23707],[-93.558,35.23652],[-93.55806,35.23591],[-93.55842,35.2355],[-93.55888,35.23524],[-93.55883,35.23488],[-93.55895,35.23448],[-93.55899,35.23407],[-93.55913,35.23377],[-93.55941,35.23271],[-93.55908,35.23224],[-93.55909,35.23184],[-93.55925,35.23127],[-93.55895,35.23063],[-93.55899,35.23036],[-93.55923,35.23001],[-93.55914,35.2293],[-93.55888,35.22864],[-93.55838,35.22824],[-93.55807,35.22765],[-93.55826,35.22729],[-93.55781,35.22664],[-93.55711,35.22625],[-93.55644,35.22605]]]},"properties":{"id":"96033B","mvum_symbol_name":"Roads open to highway legal vehicles only, Yearlong","surfacetype":"NAT - NATIVE MATERIAL","seasonal":"yearlong","passengervehicle":"open","passengervehicle_datesopen":"01/01-12/31","highclearancevehicle":"open","highclearancevehicle_datesopen":"01/01-12/31","kind":"road"}},{"type":"Feature","geometry":{"type":"MultiLineString","coordinates":[[[-93.71344,35.24485],[-93.71316,35.24488],[-93.71274,35.24482],[-93.71193,35.24495],[-93.71159,35.24484],[-93.71036,35.24491],[-93.70973,35.24485],[-93.70951,35.24487],[-93.70918,35.24477],[-93.70883,35.24451],[-93.70814,35.2435],[-93.70789,35.24298],[-93.70766,35.2426],[-93.70761,35.24227],[-93.70739,35.24175],[-93.70693,35.2415],[-93.70603,35.24124],[-93.70534,35.24114],[-93.70435,35.24107],[-93.70403,35.24109],[-93.70265,35.24059],[-93.70192,35.24056],[-93.70095,35.24069],[-93.69986,35.24073],[-93.69957,35.24068],[-93.69943,35.24062],[-93.69918,35.24048],[-93.69867,35.23984],[-93.69838,35.23954],[-93.69833,35.23941],[-93.69831,35.23907],[-93.69835,35.23881],[-93.69829,35.23853],[-93.69797,35.23813],[-93.69736,35.23764],[-93.6963,35.23718],[-93.69582,35.23707],[-93.6945,35.23699],[-93.69381,35.23689],[-93.69142,35.23687],[-93.69107,35.2369],[-93.69066,35.23686],[-93.69036,35.23676],[-93.68963,35.23639],[-93.68929,35.23615],[-93.68908,35.23607],[-93.68792,35.23586],[-93.68748,35.23568],[-93.68651,35.23515],[-93.68619,35.23491],[-93.68597,35.23467],[-93.68579,35.23454],[-93.68564,35.23449],[-93.68538,35.23447],[-93.68507,35.23454],[-93.68448,35.23484],[-93.68429,35.23491],[-93.68354,35.23506],[-93.68362,35.23448],[-93.68363,35.23313],[-93.68372,35.23269],[-93.68371,35.23242],[-93.68366,35.23231],[-93.68358,35.23221],[-93.68329,35.2321],[-93.68209,35.2319],[-93.68106,35.23145],[-93.6805,35.23124],[-93.68,35.23098],[-93.67945,35.23064],[-93.6793,35.23042],[-93.67936,35.23002],[-93.67916,35.22899],[-93.67916,35.2287],[-93.67908,35.22844],[-93.67863,35.22792],[-93.67763,35.22706],[-93.67737,35.22678],[-93.67706,35.22655],[-93.67649,35.22597],[-93.67628,35.2254],[-93.6763,35.22475],[-93.67623,35.22454],[-93.67535,35.22325],[-93.67518,35.22304],[-93.67483,35.22282],[-93.67467,35.22267],[-93.67447,35.22244],[-93.67414,35.22193],[-93.67392,35.22184],[-93.67302,35.22158],[-93.67281,35.22149],[-93.67251,35.22119],[-93.67203,35.22054],[-93.6717,35.21982],[-93.67144,35.21941],[-93.67092,35.21876],[-93.67075,35.2184],[-93.67065,35.21811],[-93.67049,35.2179],[-93.67044,35.21767],[-93.67034,35.2175],[-93.67033,35.21736],[-93.67025,35.2172],[-93.67023,35.21689],[-93.67001,35.2162],[-93.67009,35.21595],[-93.67011,35.21553],[-93.66998,35.21471],[-93.6699,35.21455],[-93.66979,35.214],[-93.66976,35.21372],[-93.67012,35.21292],[-93.67025,35.21255],[-93.67019,35.21149],[-93.67003,35.21118],[-93.67024,35.21072],[-93.67041,35.21008],[-93.67027,35.20973],[-93.67012,35.20923],[-93.67002,35.20909],[-93.67004,35.2087],[-93.67012,35.20859],[-93.67066,35.20843],[-93.67099,35.20837],[-93.67145,35.20815],[-93.67197,35.20783],[-93.67246,35.20772],[-93.67323,35.20765],[-93.67334,35.20759],[-93.67336,35.20753],[-93.67315,35.20719],[-93.67258,35.20678],[-93.67201,35.20658],[-93.67159,35.20651],[-93.67104,35.20638],[-93.67086,35.20629],[-93.67064,35.20627],[-93.67039,35.20614],[-93.66984,35.20557],[-93.66988,35.205],[-93.66997,35.20439],[-93.67033,35.20361],[-93.6706,35.20312],[-93.67071,35.20274],[-93.67084,35.20179],[-93.67088,35.20056],[-93.67087,35.19987],[-93.67073,35.19874],[-93.67078,35.19795],[-93.67086,35.19752],[-93.67081,35.19683],[-93.67069,35.19624],[-93.67074,35.19539],[-93.67082,35.1948],[-93.67079,35.19455],[-93.67058,35.19409],[-93.67031,35.19378],[-93.67016,35.19353],[-93.67006,35.1932],[-93.67007,35.19294],[-93.67,35.19195],[-93.67012,35.19176],[-93.67021,35.19151],[-93.67051,35.19119],[-93.67113,35.19077],[-93.67132,35.19037],[-93.67145,35.19018],[-93.67216,35.18949],[-93.67251,35.18889],[-93.67303,35.18843],[-93.67334,35.1881]]]},"properties":{"id":"1609","name":"ZELON YOUNG/ROBERT HILL RD","mvum_symbol_name":"Roads open to all Vehicles, Yearlong","surfacetype":"AGG - CRUSHED AGGREGATE OR GRAVEL","seasonal":"yearlong","passengervehicle":"open","passengervehicle_datesopen":"01/01-12/31","highclearancevehicle":"open","highclearancevehicle_datesopen":"01/01-12/31","atv":"open","atv_datesopen":"01/01-12/31","motorcycle":"open","motorcycle_datesopen":"01/01-12/31","kind":"road"}},{"type":"Feature","geometry":{"type":"MultiLineString","coordinates":[[[-93.6212,35.2604],[-93.62057,35.26037],[-93.62041,35.2603],[-93.62038,35.26024]]]},"properties":{"id":"96045J","mvum_symbol_name":"Roads open to highway legal vehicles only, Yearlong","surfacetype":"NAT - NATIVE MATERIAL","seasonal":"yearlong","passengervehicle":"open","passengervehicle_datesopen":"01/01-12/31","highclearancevehicle":"open","highclearancevehicle_datesopen":"01/01-12/31","kind":"road"}},{"type":"Feature","geometry":{"type":"MultiLineString","coordinates":[[[-93.51535,35.25982],[-93.51488,35.26099],[-93.51494,35.26146]]]},"properties":{"id":"1687F","name":"CHUCK ROAD","mvum_symbol_name":"Roads open to highway legal vehicles only, Yearlong","surfacetype":"NAT - NATIVE MATERIAL","seasonal":"yearlong","passengervehicle":"open","passengervehicle_datesopen":"01/01-12/31","highclearancevehicle":"open","highclearancevehicle_datesopen":"01/01-12/31","kind":"road"}},{"type":"Feature","geometry":{"type":"MultiLineString","coordinates":[[[-93.49332,35.16135],[-93.49332,35.16145],[-93.49328,35.16154],[-93.49315,35.16161],[-93.49293,35.16194],[-93.49286,35.1622],[-93.49286,35.16252],[-93.49309,35.16305],[-93.4931,35.16341],[-93.49299,35.16362],[-93.4929,35.16391],[-93.49285,35.16417],[-93.49286,35.16446],[-93.49266,35.16504],[-93.49255,35.16525],[-93.49242,35.16536],[-93.49236,35.16602],[-93.49237,35.16642],[-93.49252,35.16712],[-93.49261,35.16738],[-93.49276,35.16763],[-93.49289,35.16781],[-93.49307,35.16795],[-93.49409,35.16832],[-93.49475,35.16873],[-93.49499,35.16928],[-93.49515,35.16997],[-93.49526,35.17027],[-93.49541,35.17058],[-93.49604,35.1717],[-93.49622,35.17274],[-93.49618,35.17314],[-93.49608,35.1734],[-93.49582,35.17375],[-93.49544,35.17416],[-93.49532,35.17433],[-93.49526,35.17453],[-93.49524,35.17505],[-93.49553,35.17581],[-93.49555,35.17593],[-93.49554,35.17609],[-93.49523,35.17655],[-93.49517,35.17677],[-93.49516,35.17713],[-93.49518,35.1772],[-93.49546,35.17762],[-93.4955,35.17792],[-93.49544,35.17807],[-93.49514,35.17855],[-93.4949,35.17885],[-93.4947,35.17903],[-93.49422,35.17931],[-93.49391,35.1796],[-93.49388,35.1806],[-93.4943,35.18111],[-93.49433,35.18131],[-93.4943,35.18157],[-93.49388,35.1818],[-93.49346,35.18316]]]},"properties":{"id":"1630","name":"CROW","mvum_symbol_name":"Roads open to highway legal vehicles only, Yearlong","surfacetype":"IMP - IMPROVED NATIVE MATERIAL","seasonal":"yearlong","passengervehicle":"open","passengervehicle_datesopen":"01/01-12/31","highclearancevehicle":"open","highclearancevehicle_datesopen":"01/01-12/31","kind":"road"}},{"type":"Feature","geometry":{"type":"MultiLineString","coordinates":[[[-93.46964,35.25917],[-93.46962,35.25897],[-93.46947,35.25887],[-93.46881,35.25885],[-93.46788,35.25842],[-93.46756,35.25775],[-93.46754,35.25751],[-93.46759,35.2574],[-93.46819,35.25695],[-93.46833,35.25671],[-93.46845,35.25628],[-93.46866,35.25576],[-93.46905,35.25505],[-93.46937,35.25421]]]},"properties":{"id":"96021A","mvum_symbol_name":"Roads open to all Vehicles, Yearlong","surfacetype":"NAT - NATIVE MATERIAL","seasonal":"yearlong","passengervehicle":"open","passengervehicle_datesopen":"01/01-12/31","highclearancevehicle":"open","highclearancevehicle_datesopen":"01/01-12/31","atv":"open","atv_datesopen":"01/01-12/31","motorcycle":"open","motorcycle_datesopen":"01/01-12/31","kind":"road"}},{"type":"Feature","geometry":{"type":"MultiLineString","coordinates":[[[-93.60219,35.14089],[-93.60216,35.1411],[-93.60196,35.1414],[-93.60183,35.14167],[-93.60183,35.1418],[-93.60193,35.14196],[-93.60204,35.14204],[-93.60205,35.1423],[-93.60202,35.14252],[-93.60145,35.14241],[-93.60106,35.14218],[-93.60099,35.14209],[-93.60089,35.14234],[-93.60067,35.14257],[-93.60037,35.14279],[-93.60018,35.14313],[-93.59974,35.14344],[-93.59956,35.1435],[-93.59898,35.14342],[-93.59844,35.14351],[-93.59727,35.1434],[-93.5972,35.14321],[-93.59716,35.14274],[-93.5969,35.14249]]]},"properties":{"id":"1698","name":"SNAKE CREEK","mvum_symbol_name":"Roads open to highway legal vehicles only, Yearlong","surfacetype":"NAT - NATIVE MATERIAL","seasonal":"yearlong","passengervehicle":"open","passengervehicle_datesopen":"01/01-12/31","highclearancevehicle":"open","highclearancevehicle_datesopen":"01/01-12/31","kind":"road"}},{"type":"Feature","geometry":{"type":"MultiLineString","coordinates":[[[-93.56983,35.21167],[-93.56922,35.21162],[-93.56875,35.21153],[-93.56843,35.21153],[-93.56775,35.21131],[-93.56723,35.21122],[-93.56675,35.21106],[-93.56596,35.2114],[-93.56556,35.21124],[-93.56531,35.21102],[-93.56503,35.21092],[-93.56456,35.21093],[-93.56377,35.21143],[-93.56326,35.2116],[-93.56286,35.2116],[-93.56246,35.21154],[-93.56119,35.21195],[-93.5608,35.21196],[-93.56008,35.21174],[-93.55967,35.21158],[-93.5588,35.21159],[-93.558,35.21127],[-93.5574,35.21118],[-93.55688,35.21096],[-93.55548,35.21082],[-93.55482,35.21093]]]},"properties":{"id":"1660","name":"SING","mvum_symbol_name":"Roads open to all Vehicles, Yearlong","surfacetype":"IMP - IMPROVED NATIVE MATERIAL","seasonal":"yearlong","passengervehicle":"open","passengervehicle_datesopen":"01/01-12/31","highclearancevehicle":"open","highclearancevehicle_datesopen":"01/01-12/31","atv":"open","atv_datesopen":"01/01-12/31","motorcycle":"open","motorcycle_datesopen":"01/01-12/31","kind":"road"}},{"type":"Feature","geometry":{"type":"MultiLineString","coordinates":[[[-93.57364,35.24932],[-93.57239,35.24985],[-93.57187,35.24988],[-93.5716,35.25003],[-93.5709,35.25062],[-93.57014,35.251],[-93.5693,35.2515],[-93.56787,35.25198],[-93.56714,35.25216],[-93.56583,35.25195],[-93.56541,35.25182],[-93.5647,35.25171]]]},"properties":{"id":"1663","name":"RICH MTN BY WAY","mvum_symbol_name":"Roads open to highway legal vehicles only, Yearlong","surfacetype":"IMP - IMPROVED NATIVE MATERIAL","seasonal":"yearlong","passengervehicle":"open","passengervehicle_datesopen":"01/01-12/31","highclearancevehicle":"open","highclearancevehicle_datesopen":"01/01-12/31","kind":"road"}},{"type":"Feature","geometry":{"type":"MultiLineString","coordinates":[[[-93.68529,35.24343],[-93.68518,35.24289],[-93.68493,35.24217],[-93.68451,35.24149],[-93.68426,35.24121],[-93.68363,35.24075],[-93.683,35.2404],[-93.68279,35.24033],[-93.68257,35.2403],[-93.68231,35.24035],[-93.68165,35.24063],[-93.6813,35.24068],[-93.68113,35.24066],[-93.68081,35.24049],[-93.67954,35.23962],[-93.67898,35.23904],[-93.67857,35.23851],[-93.6782,35.23813],[-93.67792,35.23803],[-93.67758,35.23775],[-93.67748,35.23757],[-93.67729,35.23736],[-93.67684,35.23653]]]},"properties":{"id":"1676B","mvum_symbol_name":"Roads open to highway legal vehicles only, Yearlong","surfacetype":"NAT - NATIVE MATERIAL","seasonal":"yearlong","passengervehicle":"open","passengervehicle_datesopen":"01/01-12/31","highclearancevehicle":"open","highclearancevehicle_datesopen":"01/01-12/31","kind":"road"}},{"type":"Feature","geometry":{"type":"MultiLineString","coordinates":[[[-93.3872,35.15596],[-93.38712,35.15617],[-93.38691,35.1564],[-93.38689,35.15656],[-93.38702,35.15684],[-93.3871,35.15732],[-93.38702,35.15763],[-93.38674,35.15794],[-93.38654,35.15858],[-93.38629,35.15898],[-93.38616,35.15993],[-93.38636,35.16032],[-93.38664,35.16052],[-93.38682,35.16078],[-93.38714,35.1615],[-93.38762,35.16163],[-93.38758,35.1633]]]},"properties":{"id":"1640","name":"HOLMS","mvum_symbol_name":"Roads open to all Vehicles, Yearlong","surfacetype":"IMP - IMPROVED NATIVE MATERIAL","seasonal":"yearlong","passengervehicle":"open","passengervehicle_datesopen":"01/01-12/31","highclearancevehicle":"open","highclearancevehicle_datesopen":"01/01-12/31","atv":"open","atv_datesopen":"01/01-12/31","motorcycle":"open","motorcycle_datesopen":"01/01-12/31","kind":"road"}},{"type":"Feature","geometry":{"type":"MultiLineString","coordinates":[[[-93.55617,35.18844],[-93.55654,35.18839],[-93.55803,35.1884],[-93.55936,35.18836],[-93.55972,35.18848],[-93.56025,35.18878],[-93.5604,35.1889],[-93.56064,35.18928],[-93.56086,35.18934],[-93.56095,35.18932],[-93.56108,35.18924],[-93.56109,35.18917],[-93.56105,35.18894],[-93.56094,35.18865],[-93.56064,35.18811],[-93.5605,35.18794],[-93.56043,35.18776],[-93.56046,35.18761],[-93.56059,35.18754],[-93.5607,35.18754]]]},"properties":{"id":"1627","name":"BEAR HOLLOW","mvum_symbol_name":"Roads open to highway legal vehicles only, Yearlong","surfacetype":"NAT - NATIVE MATERIAL","seasonal":"yearlong","passengervehicle":"open","passengervehicle_datesopen":"01/01-12/31","highclearancevehicle":"open","highclearancevehicle_datesopen":"01/01-12/31","kind":"road"}},{"type":"Feature","geometry":{"type":"MultiLineString","coordinates":[[[-93.69768,35.23424],[-93.69786,35.23404],[-93.69806,35.23367],[-93.69811,35.23349],[-93.69824,35.23331],[-93.69832,35.23325],[-93.69844,35.23273],[-93.6985,35.23259],[-93.69864,35.23239],[-93.69914,35.23224],[-93.69994,35.23214],[-93.70023,35.23217],[-93.70075,35.23247],[-93.70081,35.23248],[-93.70109,35.23277],[-93.70137,35.23292],[-93.70212,35.23328],[-93.70261,35.23343],[-93.70472,35.23372],[-93.7061,35.23378],[-93.70828,35.23369],[-93.70889,35.23375],[-93.71039,35.23374]]]},"properties":{"id":"1609B","name":"RATTLER","mvum_symbol_name":"Roads open to highway legal vehicles only, Yearlong","surfacetype":"NAT - NATIVE MATERIAL","seasonal":"yearlong","passengervehicle":"open","passengervehicle_datesopen":"01/01-12/31","highclearancevehicle":"open","highclearancevehicle_datesopen":"01/01-12/31","kind":"road"}},{"type":"Feature","geometry":{"type":"MultiLineString","coordinates":[[[-93.54643,35.26168],[-93.54633,35.26136],[-93.54604,35.26065],[-93.54564,35.26015],[-93.54569,35.26002],[-93.54548,35.25948],[-93.54534,35.25935],[-93.54516,35.25931],[-93.54471,35.25936],[-93.54322,35.26032],[-93.54299,35.26069],[-93.54288,35.2608],[-93.54245,35.26091],[-93.54215,35.26093],[-93.54186,35.26091],[-93.54154,35.26077],[-93.54134,35.26078],[-93.54118,35.26083],[-93.54068,35.26114],[-93.54051,35.26118],[-93.54028,35.2612],[-93.5397,35.26115],[-93.53955,35.26117],[-93.53866,35.26141],[-93.53779,35.26153],[-93.5371,35.26152],[-93.53525,35.26132],[-93.53491,35.26135],[-93.53477,35.26145],[-93.53457,35.2617],[-93.53412,35.26247],[-93.53391,35.26295],[-93.53379,35.26364],[-93.53373,35.26381],[-93.53351,35.26401],[-93.53316,35.26409],[-93.53287,35.26423]]]},"properties":{"id":"96030B","name":"BEAR","mvum_symbol_name":"Roads open to all Vehicles, Yearlong","surfacetype":"NAT - NATIVE MATERIAL","seasonal":"yearlong","passengervehicle":"open","passengervehicle_datesopen":"01/01-12/31","highclearancevehicle":"open","highclearancevehicle_datesopen":"01/01-12/31","atv":"open","atv_datesopen":"01/01-12/31","motorcycle":"open","motorcycle_datesopen":"01/01-12/31","kind":"road"}},{"type":"Feature","geometry":{"type":"MultiLineString","coordinates":[[[-93.5211,35.25979],[-93.52105,35.2601],[-93.52076,35.26037],[-93.52073,35.26059],[-93.52077,35.26102],[-93.52073,35.26127],[-93.5205,35.2615],[-93.52022,35.26155],[-93.51985,35.26182],[-93.51972,35.2622],[-93.51958,35.26324],[-93.51966,35.26359],[-93.51965,35.26374],[-93.51945,35.26389],[-93.51912,35.26442],[-93.51918,35.26467],[-93.51959,35.26527],[-93.51971,35.26563],[-93.52029,35.26615],[-93.52083,35.26645],[-93.52139,35.26701],[-93.52183,35.26711],[-93.52288,35.26721],[-93.52305,35.26726],[-93.52316,35.26752],[-93.52355,35.26785],[-93.52457,35.2688],[-93.52499,35.26908],[-93.52527,35.2694],[-93.52538,35.26949],[-93.52586,35.26973],[-93.52604,35.26994],[-93.52609,35.27012]]]},"properties":{"id":"1687D","name":"HICKORY GROVE","mvum_symbol_name":"Roads open to all Vehicles, Yearlong","surfacetype":"IMP - IMPROVED NATIVE MATERIAL","seasonal":"yearlong","passengervehicle":"open","passengervehicle_datesopen":"01/01-12/31","highclearancevehicle":"open","highclearancevehicle_datesopen":"01/01-12/31","atv":"open","atv_datesopen":"01/01-12/31","motorcycle":"open","motorcycle_datesopen":"01/01-12/31","kind":"road"}},{"type":"Feature","geometry":{"type":"MultiLineString","coordinates":[[[-93.69736,35.23764],[-93.69729,35.23749],[-93.69733,35.23721],[-93.69721,35.23602],[-93.69727,35.23533],[-93.69733,35.23508],[-93.6976,35.23453],[-93.69765,35.23428],[-93.69768,35.23424]]]},"properties":{"id":"1609B","name":"RATTLER","mvum_symbol_name":"Roads open to all Vehicles, Yearlong","surfacetype":"NAT - NATIVE MATERIAL","seasonal":"yearlong","passengervehicle":"open","passengervehicle_datesopen":"01/01-12/31","highclearancevehicle":"open","highclearancevehicle_datesopen":"01/01-12/31","atv":"open","atv_datesopen":"01/01-12/31","motorcycle":"open","motorcycle_datesopen":"01/01-12/31","kind":"road"}},{"type":"Feature","geometry":{"type":"MultiLineString","coordinates":[[[-93.43171,35.18516],[-93.43157,35.18542],[-93.43143,35.18551],[-93.43098,35.18564],[-93.43015,35.18603],[-93.42998,35.18618],[-93.42983,35.18639],[-93.42979,35.18684],[-93.42969,35.18696],[-93.42965,35.18712],[-93.42965,35.18726],[-93.42969,35.18736],[-93.42981,35.18751],[-93.42981,35.18786],[-93.42976,35.18802],[-93.42974,35.18829],[-93.42983,35.18903],[-93.42975,35.18931],[-93.42968,35.18935]]]},"properties":{"id":"96013C","mvum_symbol_name":"Roads open to highway legal vehicles only, Yearlong","surfacetype":"NAT - NATIVE MATERIAL","seasonal":"yearlong","passengervehicle":"open","passengervehicle_datesopen":"01/01-12/31","highclearancevehicle":"open","highclearancevehicle_datesopen":"01/01-12/31","kind":"road"}},{"type":"Feature","geometry":{"type":"MultiLineString","coordinates":[[[-93.48245,35.22559],[-93.47962,35.22603],[-93.4792,35.22602],[-93.47885,35.22591],[-93.47787,35.2253],[-93.47751,35.22516],[-93.47266,35.2238]]]},"properties":{"id":"1613A","name":"HUCKLEBERRY TOWER","mvum_symbol_name":"Roads open to highway legal vehicles only, Seasonal","surfacetype":"IMP - IMPROVED NATIVE MATERIAL","seasonal":"seasonal","passengervehicle":"open","passengervehicle_datesopen":"06/01-03/31","highclearancevehicle":"open","highclearancevehicle_datesopen":"06/01-03/31","kind":"road"}},{"type":"Feature","geometry":{"type":"MultiLineString","coordinates":[[[-93.46152,35.26081],[-93.46172,35.26066],[-93.46247,35.25989],[-93.46291,35.25939]]]},"properties":{"id":"1622B","name":"SPIDER WEB","mvum_symbol_name":"Roads open to all Vehicles, Yearlong","surfacetype":"NAT - NATIVE MATERIAL","seasonal":"yearlong","passengervehicle":"open","passengervehicle_datesopen":"01/01-12/31","highclearancevehicle":"open","highclearancevehicle_datesopen":"01/01-12/31","atv":"open","atv_datesopen":"01/01-12/31","motorcycle":"open","motorcycle_datesopen":"01/01-12/31","kind":"road"}},{"type":"Feature","geometry":{"type":"MultiLineString","coordinates":[[[-93.63044,35.19378],[-93.63055,35.19362],[-93.63052,35.19212],[-93.63056,35.19196],[-93.63055,35.19161],[-93.63047,35.19141],[-93.6305,35.19119],[-93.63073,35.1908],[-93.63123,35.19029],[-93.63134,35.19022],[-93.6315,35.19019],[-93.63169,35.19022],[-93.63193,35.1904],[-93.63264,35.19119],[-93.6334,35.19192],[-93.63383,35.19194],[-93.63421,35.19152],[-93.63432,35.19133],[-93.63447,35.1912],[-93.63463,35.19114],[-93.63482,35.1911],[-93.63521,35.19113],[-93.63548,35.19109],[-93.63599,35.19096],[-93.63621,35.19063],[-93.63625,35.19044],[-93.63627,35.18952],[-93.6363,35.1891],[-93.63634,35.18897],[-93.63629,35.18852],[-93.63613,35.188],[-93.63612,35.18781],[-93.63616,35.18765],[-93.63627,35.18743],[-93.63639,35.1873],[-93.6365,35.1872],[-93.63681,35.1871],[-93.63716,35.18713],[-93.63748,35.18735],[-93.6378,35.18769],[-93.638,35.18801],[-93.63831,35.18833],[-93.63855,35.18855],[-93.63946,35.18924],[-93.63974,35.18933],[-93.64001,35.18936],[-93.64044,35.18938],[-93.64079,35.18934],[-93.64122,35.18936],[-93.64177,35.18964],[-93.64297,35.19094],[-93.64356,35.19166],[-93.64396,35.19198],[-93.64498,35.19228],[-93.64534,35.19259],[-93.64562,35.19268],[-93.64666,35.19241],[-93.64759,35.19208],[-93.64932,35.19116],[-93.6499,35.19109],[-93.65069,35.1911],[-93.65123,35.19106],[-93.65147,35.19096],[-93.65169,35.19073],[-93.65196,35.19053],[-93.65441,35.19015],[-93.65499,35.19017],[-93.65714,35.19036],[-93.65737,35.19029],[-93.65757,35.19016],[-93.65768,35.18984],[-93.65763,35.18949],[-93.65766,35.18923],[-93.65762,35.18901],[-93.6575,35.18869],[-93.65717,35.18818],[-93.65709,35.18799],[-93.65709,35.18777],[-93.65735,35.18729],[-93.65746,35.18677],[-93.65745,35.18649],[-93.65749,35.1863],[-93.6576,35.18617],[-93.65787,35.186],[-93.6583,35.18603],[-93.65854,35.18628],[-93.65878,35.1866],[-93.65902,35.18701],[-93.65914,35.18713],[-93.6593,35.1872],[-93.65945,35.18719],[-93.65964,35.18713],[-93.65976,35.187],[-93.65991,35.18673],[-93.66007,35.18657],[-93.66026,35.18647],[-93.66092,35.18636],[-93.66123,35.18626],[-93.66138,35.18617],[-93.66157,35.18578],[-93.6616,35.18556],[-93.66168,35.18536],[-93.66183,35.18511],[-93.66248,35.18471],[-93.66267,35.18468],[-93.66287,35.18471],[-93.66322,35.18489],[-93.66342,35.18505],[-93.66358,35.18527],[-93.66374,35.18543],[-93.66445,35.18584],[-93.66473,35.18595],[-93.66516,35.18598],[-93.66637,35.18596],[-93.66691,35.18585],[-93.66806,35.1851],[-93.66845,35.18481],[-93.66887,35.18458],[-93.66918,35.18461],[-93.66945,35.1847],[-93.66965,35.18489],[-93.67071,35.18659],[-93.67099,35.18716],[-93.67131,35.18757],[-93.67178,35.18792],[-93.6721,35.18801],[-93.67358,35.18812],[-93.67389,35.18818],[-93.67421,35.18836],[-93.67437,35.18851],[-93.67492,35.18866],[-93.67515,35.18869],[-93.67551,35.18881],[-93.67684,35.18934],[-93.67704,35.18946],[-93.67739,35.18946],[-93.67758,35.18936],[-93.67789,35.18926],[-93.67816,35.18922],[-93.67843,35.18922],[-93.67879,35.18928],[-93.67948,35.18905],[-93.67999,35.18893],[-93.68041,35.18851],[-93.68079,35.18803],[-93.68098,35.18786],[-93.68109,35.18767],[-93.68109,35.18745],[-93.6812,35.18716],[-93.6812,35.187],[-93.68131,35.18674],[-93.68134,35.18639],[-93.68179,35.18571],[-93.68206,35.18548],[-93.68225,35.18526],[-93.6826,35.185],[-93.68383,35.18433],[-93.68383,35.1842],[-93.6843,35.18404],[-93.68445,35.18403],[-93.68457,35.18397],[-93.68483,35.18371],[-93.68491,35.18352],[-93.68502,35.18339],[-93.68521,35.18326],[-93.68548,35.183],[-93.68579,35.18296],[-93.6861,35.18302],[-93.68634,35.18315],[-93.68669,35.18327],[-93.68732,35.18361],[-93.68764,35.18383],[-93.68804,35.18397],[-93.68858,35.18409],[-93.68905,35.18412],[-93.68999,35.18427],[-93.69038,35.18436],[-93.69246,35.18516],[-93.69294,35.1853],[-93.69391,35.18545],[-93.69426,35.18554],[-93.69481,35.18582],[-93.6954,35.186],[-93.69564,35.18622],[-93.69615,35.1866],[-93.69647,35.18701],[-93.69652,35.18729],[-93.69653,35.18761],[-93.69665,35.18812],[-93.69686,35.18857],[-93.69702,35.18872],[-93.69781,35.18909],[-93.69824,35.1894],[-93.69852,35.18952],[-93.69926,35.18961],[-93.69957,35.18954],[-93.6998,35.18944],[-93.70015,35.18937],[-93.70124,35.18955],[-93.70144,35.18961],[-93.7018,35.18962],[-93.70199,35.18946],[-93.70214,35.18917],[-93.70249,35.18914],[-93.70296,35.18926],[-93.70331,35.18951],[-93.70347,35.18973],[-93.70364,35.19014],[-93.70368,35.19033],[-93.70396,35.19071],[-93.70404,35.19087],[-93.70413,35.19119],[-93.70409,35.19151],[-93.7041,35.19205],[-93.70419,35.19228],[-93.70419,35.19253],[-93.70416,35.19269],[-93.70386,35.19324],[-93.70377,35.19425],[-93.70394,35.19476],[-93.70368,35.19575],[-93.70353,35.19601],[-93.70319,35.19643],[-93.70292,35.19669],[-93.70242,35.19696],[-93.70212,35.19718],[-93.702,35.19731],[-93.70178,35.19769],[-93.70125,35.1983],[-93.70094,35.19847],[-93.70079,35.1985],[-93.70048,35.19863],[-93.7001,35.19893],[-93.69987,35.19935],[-93.69976,35.19947],[-93.69945,35.19964],[-93.69883,35.19987],[-93.69857,35.20007],[-93.69834,35.20026],[-93.69818,35.20049],[-93.69815,35.20068],[-93.69819,35.20081],[-93.69827,35.2009],[-93.69905,35.20108],[-93.69929,35.20117],[-93.69992,35.20158],[-93.7002,35.20164],[-93.70047,35.20177],[-93.70059,35.20189],[-93.70088,35.20232],[-93.701,35.20264],[-93.70116,35.20293],[-93.70136,35.20318],[-93.70145,35.20347],[-93.70154,35.20417],[-93.70151,35.20474],[-93.70148,35.20494],[-93.70114,35.20567],[-93.70111,35.20584],[-93.70119,35.20599],[-93.70131,35.20612],[-93.70155,35.20623],[-93.70284,35.20676],[-93.70312,35.20701],[-93.70336,35.20717],[-93.70359,35.20728],[-93.70344,35.20787],[-93.70341,35.20814],[-93.70349,35.20843],[-93.70386,35.20881],[-93.7041,35.20899],[-93.70434,35.20929],[-93.70449,35.20963],[-93.70449,35.20987],[-93.70427,35.21052],[-93.70429,35.21079],[-93.7042,35.21095],[-93.70414,35.21117],[-93.7042,35.21133],[-93.70451,35.21183],[-93.70457,35.21222],[-93.7045,35.21242],[-93.7041,35.21274],[-93.7039,35.213],[-93.70382,35.21336],[-93.70387,35.21361],[-93.70406,35.21375],[-93.70428,35.21396],[-93.70458,35.21455],[-93.7047,35.2156],[-93.70482,35.21587],[-93.70513,35.21605],[-93.7055,35.21613]]]},"properties":{"id":"1605","name":"GREEN BENCH","mvum_symbol_name":"Roads open to all Vehicles, Yearlong","surfacetype":"AGG - CRUSHED AGGREGATE OR GRAVEL","seasonal":"yearlong","passengervehicle":"open","passengervehicle_datesopen":"01/01-12/31","highclearancevehicle":"open","highclearancevehicle_datesopen":"01/01-12/31","atv":"open","atv_datesopen":"01/01-12/31","motorcycle":"open","motorcycle_datesopen":"01/01-12/31","kind":"road"}},{"type":"Feature","geometry":{"type":"MultiLineString","coordinates":[[[-93.5607,35.18754],[-93.56157,35.18791],[-93.56253,35.18797],[-93.56346,35.18794],[-93.56459,35.18778],[-93.56497,35.18767],[-93.56547,35.18734],[-93.56583,35.18715],[-93.56611,35.18695],[-93.56648,35.1864],[-93.56667,35.18631],[-93.5669,35.18625],[-93.56733,35.18602],[-93.56783,35.1856],[-93.56813,35.18541],[-93.56863,35.18523],[-93.56936,35.18514],[-93.56963,35.18502],[-93.56977,35.18481],[-93.56988,35.18447],[-93.57005,35.18423],[-93.57027,35.18401],[-93.57075,35.18366],[-93.57106,35.18336],[-93.57126,35.18311],[-93.57133,35.18287],[-93.57125,35.1827],[-93.57043,35.18206],[-93.57025,35.18176],[-93.5701,35.18136],[-93.57007,35.1811],[-93.57019,35.1806],[-93.5702,35.18024],[-93.57011,35.17995],[-93.57018,35.17948],[-93.57014,35.17941],[-93.57014,35.17896],[-93.57008,35.17886],[-93.57007,35.17874],[-93.57009,35.17855],[-93.57016,35.1784],[-93.56997,35.178],[-93.56998,35.17783],[-93.56992,35.17762],[-93.56993,35.17755],[-93.57007,35.17734],[-93.5701,35.17721],[-93.57006,35.17677],[-93.57017,35.17617],[-93.57027,35.17598],[-93.57044,35.1758],[-93.5703,35.17554],[-93.57006,35.17535],[-93.56975,35.1752],[-93.56957,35.17515],[-93.5692,35.17466],[-93.56907,35.17441],[-93.56904,35.17408],[-93.56905,35.17301],[-93.56916,35.17263],[-93.56916,35.17249]]]},"properties":{"id":"1627","name":"BEAR HOLLOW","mvum_symbol_name":"Roads open to all Vehicles, Yearlong","surfacetype":"NAT - NATIVE MATERIAL","seasonal":"yearlong","passengervehicle":"open","passengervehicle_datesopen":"01/01-12/31","highclearancevehicle":"open","highclearancevehicle_datesopen":"01/01-12/31","atv":"open","atv_datesopen":"01/01-12/31","motorcycle":"open","motorcycle_datesopen":"01/01-12/31","kind":"road"}},{"type":"Feature","geometry":{"type":"MultiLineString","coordinates":[[[-93.56241,35.20307],[-93.5625,35.20287],[-93.56269,35.20275],[-93.56275,35.20264],[-93.56309,35.20238],[-93.5631,35.2022],[-93.56305,35.20195],[-93.56297,35.20177],[-93.56296,35.20148],[-93.56308,35.20115],[-93.56325,35.20084],[-93.56329,35.20069],[-93.56318,35.20027],[-93.5633,35.2001],[-93.56356,35.19963],[-93.56367,35.19934],[-93.56382,35.19858],[-93.56382,35.19843],[-93.56363,35.19805],[-93.56335,35.19734],[-93.56335,35.19691],[-93.5633,35.19669],[-93.56316,35.19654],[-93.56286,35.19636]]]},"properties":{"id":"96064A","mvum_symbol_name":"Roads open to highway legal vehicles only, Yearlong","surfacetype":"NAT - NATIVE MATERIAL","seasonal":"yearlong","passengervehicle":"open","passengervehicle_datesopen":"01/01-12/31","highclearancevehicle":"open","highclearancevehicle_datesopen":"01/01-12/31","kind":"road"}},{"type":"Feature","geometry":{"type":"MultiLineString","coordinates":[[[-93.68055,35.1342],[-93.6806,35.13437],[-93.68081,35.13453],[-93.68091,35.1347],[-93.68103,35.13722],[-93.68104,35.13866],[-93.68096,35.14085],[-93.68082,35.14115],[-93.68076,35.14138],[-93.68109,35.14159],[-93.68179,35.14187],[-93.68201,35.14187],[-93.68226,35.14179],[-93.68298,35.14175],[-93.68323,35.14168],[-93.68405,35.14173],[-93.68427,35.14166],[-93.6845,35.14167],[-93.68516,35.14158],[-93.68558,35.14164],[-93.68601,35.14159],[-93.68628,35.14162],[-93.68672,35.14176],[-93.68709,35.14196],[-93.68718,35.14207],[-93.68717,35.1421],[-93.6871,35.14214],[-93.68668,35.14211],[-93.68622,35.14215],[-93.68605,35.14227],[-93.686,35.14234],[-93.686,35.14239],[-93.68616,35.14242],[-93.6866,35.14241],[-93.68686,35.1425],[-93.68736,35.14256],[-93.68745,35.14263],[-93.68744,35.14268],[-93.68735,35.14272],[-93.68695,35.1427],[-93.68677,35.14274],[-93.68638,35.14294],[-93.68613,35.14312],[-93.68566,35.14377],[-93.6851,35.14439],[-93.68513,35.14453],[-93.68556,35.14479],[-93.68574,35.14487],[-93.68587,35.14501],[-93.68595,35.14518],[-93.68603,35.14522],[-93.68608,35.14521],[-93.6861,35.14514],[-93.68608,35.14491],[-93.68612,35.14472],[-93.68624,35.14464],[-93.68688,35.14403],[-93.68714,35.14384],[-93.68785,35.14387],[-93.68871,35.14396],[-93.68916,35.14405],[-93.69003,35.14408],[-93.69013,35.14416],[-93.69011,35.14422],[-93.68992,35.14443],[-93.68888,35.14502],[-93.68877,35.14511],[-93.68857,35.14564],[-93.68857,35.14581],[-93.6887,35.1459],[-93.68886,35.14563],[-93.68902,35.14546],[-93.68925,35.14537],[-93.68974,35.14529],[-93.69006,35.14527],[-93.69034,35.14532],[-93.69101,35.14554],[-93.69119,35.14565],[-93.69136,35.14588],[-93.69152,35.14661],[-93.69161,35.14679],[-93.69161,35.14686],[-93.6917,35.14706],[-93.69161,35.14778],[-93.69168,35.14801],[-93.69165,35.1481],[-93.69161,35.14811],[-93.69148,35.14809],[-93.69101,35.14786],[-93.69046,35.14773],[-93.69015,35.14779],[-93.68997,35.14787],[-93.68992,35.14796],[-93.68994,35.148],[-93.69039,35.14806],[-93.6906,35.14832],[-93.69085,35.14855],[-93.69102,35.14892],[-93.69121,35.1495],[-93.69152,35.14994],[-93.69169,35.15009],[-93.69184,35.15029],[-93.69198,35.15051],[-93.69215,35.15093],[-93.69208,35.15102],[-93.69194,35.15105],[-93.69129,35.15091],[-93.69114,35.15096],[-93.69079,35.15116],[-93.69069,35.15125],[-93.69049,35.15155],[-93.69008,35.15195],[-93.68993,35.15217],[-93.68985,35.15239],[-93.68985,35.15279],[-93.68992,35.15296],[-93.69009,35.15319],[-93.69007,35.15357],[-93.69015,35.15384],[-93.69021,35.15391],[-93.69034,35.15393],[-93.69085,35.15375],[-93.69102,35.15373],[-93.69153,35.15389],[-93.69208,35.15425],[-93.69243,35.15442],[-93.69291,35.15471],[-93.69307,35.15487],[-93.69317,35.15504],[-93.69341,35.15578],[-93.69347,35.15612],[-93.69344,35.15753],[-93.69319,35.15842],[-93.69302,35.15852],[-93.69294,35.15861],[-93.69294,35.15871],[-93.69346,35.16002],[-93.69369,35.16022],[-93.69375,35.16036],[-93.69375,35.16053],[-93.69373,35.16072],[-93.69369,35.16082],[-93.69358,35.16098],[-93.69344,35.16112],[-93.69335,35.16126],[-93.6933,35.16139],[-93.69317,35.16151],[-93.69296,35.1616],[-93.69279,35.16174],[-93.69249,35.16192],[-93.69236,35.1622],[-93.69224,35.16229],[-93.69215,35.16245],[-93.69193,35.1626],[-93.69185,35.16283],[-93.69155,35.16315],[-93.69149,35.16337],[-93.69121,35.16358],[-93.69118,35.16366],[-93.6912,35.16377],[-93.69117,35.16388],[-93.69111,35.1639]]]},"properties":{"id":"1691","name":"LACEY CREEK","mvum_symbol_name":"Roads open to all Vehicles, Yearlong","surfacetype":"NAT - NATIVE MATERIAL","seasonal":"yearlong","passengervehicle":"open","passengervehicle_datesopen":"01/01-12/31","highclearancevehicle":"open","highclearancevehicle_datesopen":"01/01-12/31","atv":"open","atv_datesopen":"01/01-12/31","motorcycle":"open","motorcycle_datesopen":"01/01-12/31","kind":"road"}},{"type":"Feature","geometry":{"type":"MultiLineString","coordinates":[[[-93.68321,35.19294],[-93.68234,35.19298],[-93.68126,35.19297],[-93.6798,35.19289]]]},"properties":{"id":"96048B","mvum_symbol_name":"Roads open to highway legal vehicles only, Yearlong","surfacetype":"NAT - NATIVE MATERIAL","seasonal":"yearlong","passengervehicle":"open","passengervehicle_datesopen":"01/01-12/31","highclearancevehicle":"open","highclearancevehicle_datesopen":"01/01-12/31","kind":"road"}},{"type":"Feature","geometry":{"type":"MultiLineString","coordinates":[[[-93.68372,35.23269],[-93.68422,35.23298],[-93.68442,35.23306],[-93.68583,35.23309],[-93.68757,35.23321],[-93.68792,35.23315],[-93.68821,35.233],[-93.68842,35.23287],[-93.6886,35.2326]]]},"properties":{"id":"1675A","mvum_symbol_name":"Roads open to highway legal vehicles only, Yearlong","surfacetype":"NAT - NATIVE MATERIAL","seasonal":"yearlong","passengervehicle":"open","passengervehicle_datesopen":"01/01-12/31","highclearancevehicle":"open","highclearancevehicle_datesopen":"01/01-12/31","kind":"road"}},{"type":"Feature","geometry":{"type":"MultiLineString","coordinates":[[[-93.47839,35.16507],[-93.47863,35.16523],[-93.47882,35.1655],[-93.47889,35.16572],[-93.47876,35.16654],[-93.47876,35.1671],[-93.47888,35.16728],[-93.47901,35.16736],[-93.47931,35.16745],[-93.47953,35.16756],[-93.47988,35.16776],[-93.47999,35.16786],[-93.48051,35.16802],[-93.48092,35.16811],[-93.48117,35.16811],[-93.48139,35.1682],[-93.48187,35.1683],[-93.48225,35.16817],[-93.48256,35.16795],[-93.48307,35.16781],[-93.48329,35.16754],[-93.48346,35.16743],[-93.48353,35.16743]]]},"properties":{"id":"96059D","mvum_symbol_name":"Roads open to highway legal vehicles only, Yearlong","surfacetype":"NAT - NATIVE MATERIAL","seasonal":"yearlong","passengervehicle":"open","passengervehicle_datesopen":"01/01-12/31","highclearancevehicle":"open","highclearancevehicle_datesopen":"01/01-12/31","kind":"road"}},{"type":"Feature","geometry":{"type":"MultiLineString","coordinates":[[[-93.54349,35.18973],[-93.54351,35.18914],[-93.54346,35.18877],[-93.54318,35.18804],[-93.54327,35.18762],[-93.54341,35.1872],[-93.54345,35.18694],[-93.5433,35.18598],[-93.54345,35.18549],[-93.54365,35.1851],[-93.54391,35.18474],[-93.54409,35.18457],[-93.54438,35.18442],[-93.54453,35.1844],[-93.5448,35.18442],[-93.54541,35.18452],[-93.54601,35.18444],[-93.54608,35.18437],[-93.5461,35.18426],[-93.54549,35.18399],[-93.54507,35.18385],[-93.5449,35.18368],[-93.5448,35.18341],[-93.5448,35.18319],[-93.54508,35.18246],[-93.54511,35.18196],[-93.54518,35.18171],[-93.54564,35.18122],[-93.54567,35.18103],[-93.54566,35.18066],[-93.54538,35.17994],[-93.54528,35.17946],[-93.54527,35.17916],[-93.54531,35.17884],[-93.54544,35.17846],[-93.54558,35.17824],[-93.54586,35.17799],[-93.54597,35.17784]]]},"properties":{"id":"1627E","name":"ELM TREE","mvum_symbol_name":"Roads open to highway legal vehicles only, Yearlong","surfacetype":"NAT - NATIVE MATERIAL","seasonal":"yearlong","passengervehicle":"open","passengervehicle_datesopen":"01/01-12/31","highclearancevehicle":"open","highclearancevehicle_datesopen":"01/01-12/31","kind":"road"}},{"type":"Feature","geometry":{"type":"MultiLineString","coordinates":[[[-93.54787,35.19468],[-93.54787,35.19417],[-93.54749,35.19324],[-93.54702,35.19233],[-93.54651,35.19158],[-93.54594,35.19026],[-93.54595,35.19003],[-93.54615,35.18974],[-93.54636,35.18966],[-93.54758,35.18937],[-93.54797,35.18913],[-93.54959,35.18861],[-93.54975,35.18854],[-93.55011,35.18832],[-93.55035,35.18823],[-93.55064,35.18827],[-93.55128,35.18865],[-93.55196,35.18878],[-93.55236,35.1889],[-93.55289,35.18898],[-93.55346,35.18896],[-93.55388,35.18874],[-93.55471,35.18857],[-93.55561,35.18858],[-93.55617,35.18844]]]},"properties":{"id":"1627","name":"BEAR HOLLOW","mvum_symbol_name":"Roads open to all Vehicles, Yearlong","surfacetype":"NAT - NATIVE MATERIAL","seasonal":"yearlong","passengervehicle":"open","passengervehicle_datesopen":"01/01-12/31","highclearancevehicle":"open","highclearancevehicle_datesopen":"01/01-12/31","atv":"open","atv_datesopen":"01/01-12/31","motorcycle":"open","motorcycle_datesopen":"01/01-12/31","kind":"road"}},{"type":"Feature","geometry":{"type":"MultiLineString","coordinates":[[[-93.42339,35.19999],[-93.42335,35.20038],[-93.4233,35.2005],[-93.42298,35.20093],[-93.42281,35.2018],[-93.4229,35.2027],[-93.423,35.20311],[-93.42298,35.20353],[-93.42287,35.2037],[-93.42284,35.20386],[-93.42284,35.20409],[-93.42291,35.20459],[-93.42284,35.20477],[-93.42282,35.20524],[-93.42273,35.20534],[-93.42229,35.20545],[-93.42213,35.20554],[-93.42194,35.20579],[-93.42182,35.20607],[-93.42181,35.20756],[-93.42169,35.20776],[-93.4217,35.20795],[-93.42183,35.20809],[-93.42183,35.20867],[-93.42192,35.20894],[-93.42183,35.20968],[-93.42193,35.21012],[-93.42182,35.21063],[-93.42181,35.21093],[-93.4216,35.21127],[-93.42158,35.21139],[-93.42166,35.2118],[-93.42162,35.21224],[-93.42153,35.21267],[-93.42137,35.21306],[-93.42057,35.21444],[-93.42042,35.21456],[-93.42024,35.21463]]]},"properties":{"id":"96012A","mvum_symbol_name":"Roads open to all Vehicles, Yearlong","surfacetype":"NAT - NATIVE MATERIAL","seasonal":"yearlong","passengervehicle":"open","passengervehicle_datesopen":"01/01-12/31","highclearancevehicle":"open","highclearancevehicle_datesopen":"01/01-12/31","atv":"open","atv_datesopen":"01/01-12/31","motorcycle":"open","motorcycle_datesopen":"01/01-12/31","kind":"road"}},{"type":"Feature","geometry":{"type":"MultiLineString","coordinates":[[[-93.48692,35.16038],[-93.48717,35.16091],[-93.48732,35.16113],[-93.48735,35.16144],[-93.48723,35.16205],[-93.48715,35.16212],[-93.48689,35.16222],[-93.48582,35.16221],[-93.48567,35.16224],[-93.48542,35.16243],[-93.48525,35.16278],[-93.48511,35.16301],[-93.48479,35.16337],[-93.48463,35.1636],[-93.48404,35.16393],[-93.48377,35.16415],[-93.48365,35.16432],[-93.48306,35.1647],[-93.48213,35.16468],[-93.4819,35.16478],[-93.48096,35.16532],[-93.48049,35.16535],[-93.47997,35.16526],[-93.47952,35.16507],[-93.47801,35.16507],[-93.47785,35.16499],[-93.47754,35.16494],[-93.47656,35.16492],[-93.47646,35.16497],[-93.47604,35.16505],[-93.47548,35.16524],[-93.47508,35.16515],[-93.47489,35.16516],[-93.4743,35.16542],[-93.47413,35.16546],[-93.47378,35.16542],[-93.4735,35.16542],[-93.47322,35.16552],[-93.47308,35.16567],[-93.47261,35.16599],[-93.4723,35.1664],[-93.47229,35.16648],[-93.47233,35.16652],[-93.47271,35.1666],[-93.47343,35.16694],[-93.47373,35.16711],[-93.47382,35.1673]]]},"properties":{"id":"96059A","mvum_symbol_name":"Roads open to highway legal vehicles only, Yearlong","surfacetype":"NAT - NATIVE MATERIAL","seasonal":"yearlong","passengervehicle":"open","passengervehicle_datesopen":"01/01-12/31","highclearancevehicle":"open","highclearancevehicle_datesopen":"01/01-12/31","kind":"road"}},{"type":"Feature","geometry":{"type":"MultiLineString","coordinates":[[[-93.58393,35.15775],[-93.5841,35.15772],[-93.58459,35.15775],[-93.5848,35.15774],[-93.58534,35.15757],[-93.58595,35.15748],[-93.58632,35.15755],[-93.58688,35.15782],[-93.58716,35.15805],[-93.5873,35.15828],[-93.58739,35.15886],[-93.58756,35.15902],[-93.58771,35.15913],[-93.58806,35.15926],[-93.58847,35.15922],[-93.58875,35.15935],[-93.5889,35.15933],[-93.58913,35.15903],[-93.58925,35.15895],[-93.58948,35.15891],[-93.58982,35.15868],[-93.58998,35.15843],[-93.59004,35.15842],[-93.59023,35.15827],[-93.59091,35.15798],[-93.59117,35.15778],[-93.59136,35.15773],[-93.59198,35.15767],[-93.59242,35.15755],[-93.59298,35.15722],[-93.5932,35.15714],[-93.59349,35.15691],[-93.59368,35.15688],[-93.59426,35.15689],[-93.59473,35.157],[-93.59477,35.15706],[-93.59494,35.15712],[-93.59529,35.15714],[-93.59539,35.15712],[-93.59564,35.15698],[-93.59653,35.15662],[-93.59666,35.15662],[-93.59679,35.15669],[-93.59759,35.15665],[-93.59764,35.15659],[-93.59828,35.15658],[-93.59866,35.1565],[-93.5988,35.15642],[-93.59905,35.15646],[-93.59946,35.15635],[-93.59964,35.1564],[-93.60003,35.15639],[-93.60023,35.15636],[-93.60043,35.15643],[-93.60119,35.15649],[-93.60169,35.15644],[-93.60212,35.1565],[-93.60243,35.15644],[-93.60254,35.15649],[-93.60264,35.15646],[-93.60286,35.15647],[-93.60295,35.15651],[-93.6033,35.15649],[-93.60341,35.15651],[-93.60379,35.15645],[-93.60421,35.1565],[-93.60449,35.15661],[-93.60461,35.15671],[-93.60467,35.15667],[-93.60504,35.15676],[-93.60517,35.1567],[-93.60526,35.1566],[-93.60533,35.15656],[-93.60563,35.15654],[-93.60608,35.1564],[-93.60631,35.15639],[-93.60639,35.15627],[-93.60654,35.15628],[-93.60667,35.15637],[-93.6068,35.15639],[-93.60713,35.15623],[-93.60737,35.15621],[-93.60759,35.15627],[-93.6077,35.15626],[-93.60786,35.1566],[-93.60793,35.15667],[-93.6081,35.15669],[-93.60841,35.15684],[-93.60844,35.15679],[-93.60862,35.15679],[-93.60873,35.15671],[-93.60886,35.15674],[-93.60929,35.15664],[-93.6095,35.15672],[-93.60962,35.15683],[-93.60963,35.15688],[-93.60975,35.15698],[-93.60979,35.15716],[-93.60977,35.15723],[-93.6098,35.15745],[-93.60989,35.15749],[-93.61019,35.15736],[-93.61024,35.15729],[-93.6107,35.15714],[-93.6107,35.15707],[-93.61082,35.15698],[-93.61106,35.15692],[-93.61133,35.15677],[-93.61138,35.15667],[-93.61148,35.15659],[-93.61151,35.15646],[-93.61169,35.15625],[-93.61176,35.15619],[-93.61185,35.15617],[-93.61216,35.15586],[-93.61241,35.15578],[-93.61247,35.15581],[-93.61254,35.15575],[-93.61273,35.15575],[-93.61311,35.15565],[-93.61321,35.1556],[-93.61324,35.15554],[-93.61322,35.1555],[-93.61327,35.15546],[-93.61332,35.15534],[-93.61336,35.15534],[-93.61351,35.15517],[-93.61368,35.15515],[-93.61386,35.15509]]]},"properties":{"id":"96037A","mvum_symbol_name":"Roads open to all Vehicles, Yearlong","surfacetype":"NAT - NATIVE MATERIAL","seasonal":"yearlong","passengervehicle":"open","passengervehicle_datesopen":"01/01-12/31","highclearancevehicle":"open","highclearancevehicle_datesopen":"01/01-12/31","atv":"open","atv_datesopen":"01/01-12/31","motorcycle":"open","motorcycle_datesopen":"01/01-12/31","kind":"road"}},{"type":"Feature","geometry":{"type":"MultiLineString","coordinates":[[[-93.43884,35.20705],[-93.4384,35.20681],[-93.4383,35.2067],[-93.43802,35.20609],[-93.43796,35.20578],[-93.43803,35.20559],[-93.43806,35.20521],[-93.43784,35.20457],[-93.43738,35.20357],[-93.43697,35.20291],[-93.43633,35.2023],[-93.43598,35.20207],[-93.43576,35.202],[-93.43528,35.20193],[-93.43466,35.2018],[-93.43363,35.2019],[-93.43291,35.20182],[-93.43254,35.20183],[-93.43107,35.20201],[-93.43043,35.20215],[-93.42987,35.20222],[-93.42961,35.20221],[-93.42895,35.20204],[-93.42855,35.202],[-93.42762,35.20203],[-93.42736,35.20201],[-93.42692,35.20179],[-93.42614,35.20126],[-93.42578,35.20087],[-93.42536,35.20058],[-93.42512,35.20051],[-93.42428,35.20042],[-93.42391,35.20021],[-93.42313,35.19989],[-93.42271,35.19982],[-93.42198,35.19987],[-93.42181,35.19984],[-93.42073,35.19941],[-93.41968,35.19917],[-93.41865,35.19899],[-93.41756,35.19869],[-93.41714,35.1985],[-93.41685,35.19832],[-93.41618,35.19777],[-93.41592,35.19762],[-93.41562,35.19749],[-93.41524,35.19738],[-93.41421,35.19717],[-93.41332,35.19684],[-93.41319,35.19686],[-93.41306,35.19695],[-93.41289,35.19709],[-93.41272,35.19728],[-93.41255,35.1977],[-93.41178,35.19935],[-93.41162,35.19963],[-93.41138,35.19984],[-93.41077,35.20014],[-93.41049,35.20023],[-93.41014,35.20029],[-93.40951,35.20033]]]},"properties":{"id":"1648","name":"LONG BRANCH","mvum_symbol_name":"Roads open to all Vehicles, Yearlong","surfacetype":"IMP - IMPROVED NATIVE MATERIAL","seasonal":"yearlong","passengervehicle":"open","passengervehicle_datesopen":"01/01-12/31","highclearancevehicle":"open","highclearancevehicle_datesopen":"01/01-12/31","atv":"open","atv_datesopen":"01/01-12/31","motorcycle":"open","motorcycle_datesopen":"01/01-12/31","kind":"road"}},{"type":"Feature","geometry":{"type":"MultiLineString","coordinates":[[[-93.54501,35.19443],[-93.54463,35.19441]],[[-93.54421,35.19354],[-93.54409,35.19329],[-93.54384,35.19295],[-93.5437,35.19206],[-93.54358,35.19186],[-93.54351,35.19151]],[[-93.54309,35.19007],[-93.54311,35.18993],[-93.54335,35.18977],[-93.54349,35.18973]]]},"properties":{"id":"1627D","mvum_symbol_name":"Special Designation, Yearlong","surfacetype":"NAT - NATIVE MATERIAL","seasonal":"yearlong","atv":"open","atv_datesopen":"01/01-12/31","motorcycle":"open","motorcycle_datesopen":"01/01-12/31","kind":"road"}},{"type":"Feature","geometry":{"type":"MultiLineString","coordinates":[[[-93.41715,35.26022],[-93.41709,35.26002],[-93.41682,35.25957],[-93.41682,35.25941],[-93.4169,35.25927],[-93.41707,35.25907],[-93.41711,35.25894],[-93.41712,35.25878],[-93.41698,35.25843],[-93.41662,35.25804],[-93.41653,35.25789],[-93.41647,35.25776],[-93.41645,35.2576],[-93.41649,35.25742],[-93.41686,35.25698],[-93.41714,35.25679],[-93.41761,35.25655],[-93.41963,35.25616],[-93.42039,35.2561],[-93.42155,35.2562],[-93.4223,35.25615],[-93.42263,35.25599],[-93.42288,35.25583],[-93.42328,35.25546],[-93.42366,35.25523],[-93.4241,35.25476],[-93.42456,35.25458],[-93.42479,35.25441],[-93.42489,35.25428],[-93.42493,35.25406],[-93.42491,35.25378],[-93.42494,35.25367],[-93.42515,35.2534],[-93.42556,35.25314],[-93.42578,35.25304],[-93.42681,35.25272],[-93.42806,35.25215],[-93.42851,35.25185],[-93.42933,35.25118],[-93.43072,35.24976],[-93.43157,35.24918]]]},"properties":{"id":"1682","name":"LIPE","mvum_symbol_name":"Roads open to highway legal vehicles only, Yearlong","surfacetype":"IMP - IMPROVED NATIVE MATERIAL","seasonal":"yearlong","passengervehicle":"open","passengervehicle_datesopen":"01/01-12/31","highclearancevehicle":"open","highclearancevehicle_datesopen":"01/01-12/31","kind":"road"}},{"type":"Feature","geometry":{"type":"MultiLineString","coordinates":[[[-93.37303,35.18666],[-93.37321,35.1858],[-93.37326,35.18571],[-93.37329,35.18522],[-93.37348,35.1848]]]},"properties":{"id":"96003C","mvum_symbol_name":"Roads open to highway legal vehicles only, Yearlong","surfacetype":"NAT - NATIVE MATERIAL","seasonal":"yearlong","passengervehicle":"open","passengervehicle_datesopen":"01/01-12/31","highclearancevehicle":"open","highclearancevehicle_datesopen":"01/01-12/31","kind":"road"}},{"type":"Feature","geometry":{"type":"MultiLineString","coordinates":[[[-93.43857,35.2647],[-93.43894,35.2646],[-93.43957,35.26434],[-93.44022,35.26399],[-93.44036,35.26348],[-93.44078,35.26321],[-93.44108,35.26317],[-93.44159,35.26274],[-93.44184,35.26248],[-93.4424,35.26252],[-93.44322,35.26238],[-93.44419,35.26196],[-93.44485,35.26194],[-93.445,35.26184],[-93.44537,35.26187],[-93.44589,35.26205],[-93.44635,35.26212],[-93.44662,35.26229],[-93.44736,35.26304],[-93.44777,35.26317],[-93.4486,35.26357],[-93.44903,35.26371],[-93.45001,35.26368],[-93.45053,35.26353],[-93.451,35.26333],[-93.45177,35.26314],[-93.45333,35.26291],[-93.45437,35.26291],[-93.45508,35.26299],[-93.45533,35.26298],[-93.45599,35.2629],[-93.45737,35.26286],[-93.4576,35.26281],[-93.45798,35.2626],[-93.45818,35.26233],[-93.45856,35.26202],[-93.45891,35.26198],[-93.45934,35.26185],[-93.45985,35.26176],[-93.46037,35.2616],[-93.46149,35.26083]]]},"properties":{"id":"96058A","mvum_symbol_name":"Roads open to all Vehicles, Yearlong","surfacetype":"NAT - NATIVE MATERIAL","seasonal":"yearlong","passengervehicle":"open","passengervehicle_datesopen":"01/01-12/31","highclearancevehicle":"open","highclearancevehicle_datesopen":"01/01-12/31","atv":"open","atv_datesopen":"01/01-12/31","motorcycle":"open","motorcycle_datesopen":"01/01-12/31","kind":"road"}},{"type":"Feature","geometry":{"type":"MultiLineString","coordinates":[[[-93.62593,35.2131],[-93.62581,35.2131],[-93.62556,35.21317],[-93.62536,35.21332],[-93.6246,35.21427],[-93.62415,35.21466],[-93.62409,35.21465],[-93.62408,35.21476],[-93.62401,35.21486],[-93.62355,35.21535],[-93.62337,35.2156],[-93.62294,35.21595],[-93.62283,35.216],[-93.62158,35.21625],[-93.62123,35.21628],[-93.62049,35.21641],[-93.62015,35.2165],[-93.61976,35.2164],[-93.61968,35.21607],[-93.61969,35.2159]]]},"properties":{"id":"1628","name":"COMMUNITY CENTER RD","mvum_symbol_name":"Roads open to highway legal vehicles only, Yearlong","surfacetype":"NAT - NATIVE MATERIAL","seasonal":"yearlong","passengervehicle":"open","passengervehicle_datesopen":"01/01-12/31","highclearancevehicle":"open","highclearancevehicle_datesopen":"01/01-12/31","kind":"road"}},{"type":"Feature","geometry":{"type":"MultiLineString","coordinates":[[[-93.60073,35.18433],[-93.60061,35.1848],[-93.60047,35.18492],[-93.60029,35.18499],[-93.60007,35.18501],[-93.59986,35.18498]]]},"properties":{"id":"96035E","mvum_symbol_name":"Roads open to highway legal vehicles only, Yearlong","surfacetype":"NAT - NATIVE MATERIAL","seasonal":"yearlong","passengervehicle":"open","passengervehicle_datesopen":"01/01-12/31","highclearancevehicle":"open","highclearancevehicle_datesopen":"01/01-12/31","kind":"road"}},{"type":"Feature","geometry":{"type":"MultiLineString","coordinates":[[[-93.68147,35.21287],[-93.68169,35.21227],[-93.68195,35.21189],[-93.68208,35.21179],[-93.68239,35.21133],[-93.68266,35.21079],[-93.68307,35.21032],[-93.68313,35.21016],[-93.68321,35.20972],[-93.68348,35.20899],[-93.68358,35.2088],[-93.68402,35.20822],[-93.68417,35.2081],[-93.68462,35.20793],[-93.68472,35.20784],[-93.68502,35.20728],[-93.68545,35.20708],[-93.6857,35.20701],[-93.68601,35.2071],[-93.68613,35.20705],[-93.68621,35.20696],[-93.68622,35.2066],[-93.68632,35.20646],[-93.68634,35.2063],[-93.68648,35.20608],[-93.68664,35.20571],[-93.68706,35.2052],[-93.6873,35.20463],[-93.68761,35.20434],[-93.68789,35.20415],[-93.68834,35.20403],[-93.68858,35.20389],[-93.6887,35.2038],[-93.68909,35.20333],[-93.68938,35.20316],[-93.68968,35.20306],[-93.69014,35.20277],[-93.69032,35.20261],[-93.69054,35.20246],[-93.69099,35.20199],[-93.69107,35.20187],[-93.69115,35.20167],[-93.69105,35.20132],[-93.69092,35.20112],[-93.69077,35.20057],[-93.6905,35.20012],[-93.69048,35.19994],[-93.69048,35.19976],[-93.69066,35.19957],[-93.69089,35.19944],[-93.691,35.19949],[-93.6912,35.19967],[-93.6913,35.1999],[-93.69137,35.20036],[-93.69171,35.20069],[-93.69177,35.20092],[-93.69176,35.20126],[-93.69179,35.20164],[-93.69196,35.20198],[-93.692,35.20213],[-93.6921,35.20224],[-93.69215,35.20234],[-93.6921,35.20261],[-93.69232,35.20303],[-93.69236,35.20323],[-93.69259,35.20381],[-93.69279,35.20409],[-93.6933,35.20445],[-93.69413,35.20482],[-93.69466,35.2051],[-93.69499,35.20518],[-93.69534,35.20535],[-93.6961,35.20552],[-93.69653,35.20587],[-93.69701,35.20613],[-93.69732,35.20648],[-93.69831,35.20681],[-93.69897,35.20689],[-93.69927,35.2068],[-93.70039,35.20664],[-93.70257,35.20666]]]},"properties":{"id":"1674","name":"THOMAS","mvum_symbol_name":"Roads open to all Vehicles, Yearlong","surfacetype":"NAT - NATIVE MATERIAL","seasonal":"yearlong","passengervehicle":"open","passengervehicle_datesopen":"01/01-12/31","highclearancevehicle":"open","highclearancevehicle_datesopen":"01/01-12/31","atv":"open","atv_datesopen":"01/01-12/31","motorcycle":"open","motorcycle_datesopen":"01/01-12/31","kind":"road"}}]}