{"type":"FeatureCollection","features":[{"type":"Feature","geometry":{"type":"Point","coordinates":[-93.47786,35.22133]},"properties":{"layer":"pinch_points","name":"pinch-03","description":"Saddle within 400 m of bench/bedding \u2014 travel funnel. DEM-derived saddles; elev 1654 ft; slope 9 deg; aspect 179 deg; ~3277 m from nearest AGFC-mapped road. USGS 3DEP ~10 m (py3dep), analysis grid ~26 m, 2026-10-05. Scout on foot to confirm.","lat":35.22133,"lon":-93.47786,"elevation_ft":1654.0,"slope_deg":8.9,"aspect_deg":179.0,"cluster_pixels":4536,"dist_road_m":3277.0}},{"type":"Feature","geometry":{"type":"Point","coordinates":[-93.70354,35.19363]},"properties":{"layer":"pinch_points","name":"pinch-06","description":"Saddle within 400 m of bench/bedding \u2014 travel funnel. DEM-derived saddles; elev 1203 ft; slope 9 deg; aspect 204 deg; ~35 m from nearest AGFC-mapped road. USGS 3DEP ~10 m (py3dep), analysis grid ~26 m, 2026-10-05. Scout on foot to confirm.","lat":35.19363,"lon":-93.70354,"elevation_ft":1203.0,"slope_deg":9.1,"aspect_deg":204.0,"cluster_pixels":3326,"dist_road_m":35.0}},{"type":"Feature","geometry":{"type":"Point","coordinates":[-93.3998,35.21963]},"properties":{"layer":"pinch_points","name":"pinch-09","description":"Saddle within 400 m of bench/bedding \u2014 travel funnel. DEM-derived saddles; elev 1194 ft; slope 10 deg; aspect 181 deg; ~980 m from nearest AGFC-mapped road. USGS 3DEP ~10 m (py3dep), analysis grid ~26 m, 2026-10-05. Scout on foot to confirm.","lat":35.21963,"lon":-93.3998,"elevation_ft":1194.0,"slope_deg":9.7,"aspect_deg":181.0,"cluster_pixels":2504,"dist_road_m":980.0}},{"type":"Feature","geometry":{"type":"Point","coordinates":[-93.4557,35.21156]},"properties":{"layer":"pinch_points","name":"pinch-12","description":"Saddle within 400 m of bench/bedding \u2014 travel funnel. DEM-derived saddles; elev 890 ft; slope 9 deg; aspect 153 deg; ~1702 m from nearest AGFC-mapped road. USGS 3DEP ~10 m (py3dep), analysis grid ~26 m, 2026-10-05. Scout on foot to confirm.","lat":35.21156,"lon":-93.4557,"elevation_ft":890.0,"slope_deg":9.3,"aspect_deg":153.0,"cluster_pixels":2173,"dist_road_m":1702.0}},{"type":"Feature","geometry":{"type":"Point","coordinates":[-93.70701,35.15464]},"properties":{"layer":"pinch_points","name":"pinch-15","description":"Saddle within 400 m of bench/bedding \u2014 travel funnel. DEM-derived saddles; elev 1394 ft; slope 11 deg; aspect 237 deg; ~1938 m from nearest AGFC-mapped road. USGS 3DEP ~10 m (py3dep), analysis grid ~26 m, 2026-10-05. Scout on foot to confirm.","lat":35.15464,"lon":-93.70701,"elevation_ft":1394.0,"slope_deg":11.2,"aspect_deg":237.0,"cluster_pixels":1886,"dist_road_m":1938.0}},{"type":"Feature","geometry":{"type":"Point","coordinates":[-93.45205,35.24356]},"properties":{"layer":"pinch_points","name":"pinch-21","description":"Saddle within 400 m of bench/bedding \u2014 travel funnel. DEM-derived saddles; elev 1389 ft; slope 10 deg; aspect 164 deg; ~3599 m from nearest AGFC-mapped road. USGS 3DEP ~10 m (py3dep), analysis grid ~26 m, 2026-10-05. Scout on foot to confirm.","lat":35.24356,"lon":-93.45205,"elevation_ft":1389.0,"slope_deg":9.6,"aspect_deg":164.0,"cluster_pixels":1548,"dist_road_m":3599.0}},{"type":"Feature","geometry":{"type":"Point","coordinates":[-93.6439,35.18385]},"properties":{"layer":"pinch_points","name":"pinch-23","description":"Saddle within 400 m of bench/bedding \u2014 travel funnel. DEM-derived saddles; elev 1844 ft; slope 12 deg; aspect 159 deg; ~683 m from nearest AGFC-mapped road. USGS 3DEP ~10 m (py3dep), analysis grid ~26 m, 2026-10-05. Scout on foot to confirm.","lat":35.18385,"lon":-93.6439,"elevation_ft":1844.0,"slope_deg":11.7,"aspect_deg":159.0,"cluster_pixels":1326,"dist_road_m":683.0}},{"type":"Feature","geometry":{"type":"Point","coordinates":[-93.6135,35.14232]},"properties":{"layer":"pinch_points","name":"pinch-28","description":"Saddle within 400 m of bench/bedding \u2014 travel funnel. DEM-derived saddles; elev 861 ft; slope 12 deg; aspect 182 deg; ~344 m from nearest AGFC-mapped road. USGS 3DEP ~10 m (py3dep), analysis grid ~26 m, 2026-10-05. Scout on foot to confirm.","lat":35.14232,"lon":-93.6135,"elevation_ft":861.0,"slope_deg":11.8,"aspect_deg":182.0,"cluster_pixels":1132,"dist_road_m":344.0}},{"type":"Feature","geometry":{"type":"Point","coordinates":[-93.49287,35.15911]},"properties":{"layer":"pinch_points","name":"pinch-35","description":"Saddle within 400 m of bench/bedding \u2014 travel funnel. DEM-derived saddles; elev 905 ft; slope 8 deg; aspect 203 deg; ~191 m from nearest AGFC-mapped road. USGS 3DEP ~10 m (py3dep), analysis grid ~26 m, 2026-10-05. Scout on foot to confirm.","lat":35.15911,"lon":-93.49287,"elevation_ft":905.0,"slope_deg":8.4,"aspect_deg":203.0,"cluster_pixels":978,"dist_road_m":191.0}},{"type":"Feature","geometry":{"type":"Point","coordinates":[-93.67241,35.17489]},"properties":{"layer":"pinch_points","name":"pinch-39","description":"Saddle within 400 m of bench/bedding \u2014 travel funnel. DEM-derived saddles; elev 2024 ft; slope 11 deg; aspect 176 deg; ~1120 m from nearest AGFC-mapped road. USGS 3DEP ~10 m (py3dep), analysis grid ~26 m, 2026-10-05. Scout on foot to confirm.","lat":35.17489,"lon":-93.67241,"elevation_ft":2024.0,"slope_deg":11.0,"aspect_deg":176.0,"cluster_pixels":881,"dist_road_m":1120.0}},{"type":"Feature","geometry":{"type":"Point","coordinates":[-93.43992,35.21819]},"properties":{"layer":"pinch_points","name":"pinch-41","description":"Saddle within 400 m of bench/bedding \u2014 travel funnel. DEM-derived saddles; elev 888 ft; slope 9 deg; aspect 144 deg; ~840 m from nearest AGFC-mapped road. USGS 3DEP ~10 m (py3dep), analysis grid ~26 m, 2026-10-05. Scout on foot to confirm.","lat":35.21819,"lon":-93.43992,"elevation_ft":888.0,"slope_deg":9.0,"aspect_deg":144.0,"cluster_pixels":864,"dist_road_m":840.0}},{"type":"Feature","geometry":{"type":"Point","coordinates":[-93.7118,35.16775]},"properties":{"layer":"pinch_points","name":"pinch-42","description":"Saddle within 400 m of bench/bedding \u2014 travel funnel. DEM-derived saddles; elev 1339 ft; slope 10 deg; aspect 218 deg; ~1161 m from nearest AGFC-mapped road. USGS 3DEP ~10 m (py3dep), analysis grid ~26 m, 2026-10-05. Scout on foot to confirm.","lat":35.16775,"lon":-93.7118,"elevation_ft":1339.0,"slope_deg":9.5,"aspect_deg":218.0,"cluster_pixels":861,"dist_road_m":1161.0}},{"type":"Feature","geometry":{"type":"Point","coordinates":[-93.387,35.22307]},"properties":{"layer":"pinch_points","name":"pinch-43","description":"Saddle within 400 m of bench/bedding \u2014 travel funnel. DEM-derived saddles; elev 982 ft; slope 10 deg; aspect 203 deg; ~529 m from nearest AGFC-mapped road. USGS 3DEP ~10 m (py3dep), analysis grid ~26 m, 2026-10-05. Scout on foot to confirm.","lat":35.22307,"lon":-93.387,"elevation_ft":982.0,"slope_deg":9.7,"aspect_deg":203.0,"cluster_pixels":840,"dist_road_m":529.0}},{"type":"Feature","geometry":{"type":"Point","coordinates":[-93.69375,35.16461]},"properties":{"layer":"pinch_points","name":"pinch-48","description":"Saddle within 400 m of bench/bedding \u2014 travel funnel. DEM-derived saddles; elev 1945 ft; slope 9 deg; aspect 237 deg; ~1163 m from nearest AGFC-mapped road. USGS 3DEP ~10 m (py3dep), analysis grid ~26 m, 2026-10-05. Scout on foot to confirm.","lat":35.16461,"lon":-93.69375,"elevation_ft":1945.0,"slope_deg":8.7,"aspect_deg":237.0,"cluster_pixels":744,"dist_road_m":1163.0}}]}