{"type":"FeatureCollection","features":[{"type":"Feature","properties":{"layer":"roads_100ft_buffer","name":"100-ft road no-hunt setback","description":"Approximate 100-ft (30.48 m) buffer around AGFC WMA Transportation roads (FeatureServer/8, Mount Magazine WMA). No hunting within 100 ft of a road (AGFC). Buffer uses ~0.00032 deg (~100-110 ft); not a surveyed setback. Fetched 2026-10-05.","source":"AGFC FeatureServer/8","rule":"No hunting within 100 ft of a road"},"geometry":{"type":"MultiPolygon","coordinates":[[[[-93.65404,35.14075],[-93.65483,35.13976],[-93.65518,35.13954],[-93.65646,35.13957],[-93.6571,35.13974],[-93.65744,35.14004],[-93.65857,35.14054],[-93.65872,35.14086],[-93.6586,35.14107],[-93.65833,35.14112],[-93.65712,35.1406],[-93.65681,35.14031],[-93.6554,35.14014],[-93.65431,35.14134],[-93.65276,35.14183],[-93.65212,35.14168],[-93.65188,35.14175],[-93.65166,35.14196],[-93.65164,35.14263],[-93.65119,35.14299],[-93.65066,35.14308],[-93.64993,35.14282],[-93.64725,35.14302],[-93.64609,35.14374],[-93.64583,35.14372],[-93.64522,35.14336],[-93.64444,35.14323],[-93.64276,35.14263],[-93.64118,35.14266],[-93.64042,35.14288],[-93.63976,35.14353],[-93.6395,35.14425],[-93.63909,35.14449],[-93.63852,35.14437],[-93.63799,35.14373],[-93.63728,35.1439],[-93.63666,35.1439],[-93.63557,35.14336],[-93.63478,35.14314],[-93.63264,35.14297],[-93.62938,35.14328],[-93.62789,35.14428],[-93.62824,35.1453],[-93.62822,35.14589],[-93.6284,35.14633],[-93.6286,35.14776],[-93.62842,35.14868],[-93.62824,35.14891],[-93.62798,35.14899],[-93.62677,35.14893],[-93.62774,35.14992],[-93.62788,35.15034],[-93.62783,35.15062],[-93.6274,35.15081],[-93.6267,35.15051],[-93.62609,35.15041],[-93.62447,35.15093],[-93.62348,35.15053],[-93.62336,35.15031],[-93.62343,35.15008],[-93.62364,35.14996],[-93.62404,35.15001],[-93.62453,35.15029],[-93.62597,35.14978],[-93.62693,35.14991],[-93.62606,35.14919],[-93.62584,35.14883],[-93.62586,35.14845],[-93.62622,35.14825],[-93.62784,35.14835],[-93.62797,35.14784],[-93.62778,35.14647],[-93.62759,35.14597],[-93.62761,35.14542],[-93.62742,35.1447],[-93.62702,35.14406],[-93.6241,35.14257],[-93.62316,35.14254],[-93.62243,35.14236],[-93.62223,35.14288],[-93.62238,35.14343],[-93.62226,35.14405],[-93.62169,35.14467],[-93.62105,35.14469],[-93.62086,35.14569],[-93.62053,35.14631],[-93.62049,35.14686],[-93.62089,35.14837],[-93.62058,35.14927],[-93.62039,35.1495],[-93.62004,35.14961],[-93.6197,35.14953],[-93.6195,35.14929],[-93.61935,35.14851],[-93.61917,35.1483],[-93.61764,35.14744],[-93.61677,35.14719],[-93.61734,35.14893],[-93.61714,35.14935],[-93.61672,35.14942],[-93.61391,35.14899],[-93.61329,35.14907],[-93.61312,35.14889],[-93.61312,35.14865],[-93.6136,35.14836],[-93.61659,35.14875],[-93.61595,35.14697],[-93.61607,35.14662],[-93.61643,35.14647],[-93.61787,35.14685],[-93.61935,35.14764],[-93.61989,35.14815],[-93.62005,35.14886],[-93.62025,35.14836],[-93.61986,35.14697],[-93.61991,35.14614],[-93.62025,35.14549],[-93.62053,35.14431],[-93.62091,35.14406],[-93.62142,35.14409],[-93.62167,35.14378],[-93.62173,35.14346],[-93.62158,35.1429],[-93.62173,35.14232],[-93.62065,35.14201],[-93.61891,35.14213],[-93.61772,35.14188],[-93.61418,35.13951],[-93.61298,35.13953],[-93.60909,35.14002],[-93.60456,35.14115],[-93.60386,35.14158],[-93.6025,35.14153],[-93.60197,35.14115],[-93.60165,35.14035],[-93.60181,35.13857],[-93.6023,35.13742],[-93.60248,35.13483],[-93.60267,35.1338],[-93.60255,35.133],[-93.60155,35.13304],[-93.60075,35.13349],[-93.6005,35.13339],[-93.60041,35.13313],[-93.60095,35.13265],[-93.60176,35.13236],[-93.6052,35.13241],[-93.60547,35.13264],[-93.60542,35.13291],[-93.60521,35.13304],[-93.60319,35.133],[-93.60331,35.13381],[-93.60312,35.1349],[-93.60294,35.1375],[-93.60244,35.13871],[-93.60229,35.14016],[-93.60248,35.14076],[-93.60292,35.14098],[-93.60371,35.14095],[-93.60437,35.14054],[-93.60895,35.1394],[-93.61291,35.13889],[-93.61419,35.13887],[-93.61468,35.13898],[-93.61794,35.14128],[-93.61893,35.14149],[-93.62071,35.14137],[-93.62159,35.14162],[-93.62115,35.1404],[-93.62114,35.13999],[-93.62083,35.13936],[-93.62041,35.13886],[-93.62018,35.13813],[-93.62002,35.13706],[-93.62014,35.1364],[-93.61952,35.13613],[-93.6193,35.13583],[-93.61923,35.13517],[-93.61968,35.13481],[-93.62001,35.13506],[-93.6199,35.13559],[-93.62041,35.13579],[-93.62074,35.13615],[-93.6208,35.13648],[-93.62067,35.13707],[-93.62092,35.13837],[-93.62174,35.13975],[-93.62182,35.14033],[-93.62233,35.14173],[-93.62433,35.14197],[-93.62767,35.14367],[-93.62891,35.1428],[-93.6294,35.1426],[-93.63267,35.14233],[-93.63508,35.14254],[-93.63582,35.14277],[-93.63676,35.14327],[-93.63778,35.14307],[-93.63818,35.14311],[-93.63899,35.14385],[-93.63923,35.14316],[-93.64021,35.14225],[-93.64108,35.14202],[-93.64201,35.14196],[-93.64349,35.14215],[-93.64464,35.14262],[-93.64546,35.14276],[-93.64602,35.1431],[-93.64669,35.14253],[-93.64716,35.14238],[-93.64994,35.14217],[-93.65076,35.14244],[-93.65097,35.14239],[-93.65114,35.14156],[-93.65157,35.14118],[-93.65211,35.14103],[-93.65279,35.14117],[-93.65404,35.14075]]],[[[-93.7269,35.1508],[-93.72661,35.14858],[-93.7265,35.14831],[-93.72598,35.14781],[-93.72587,35.1467],[-93.72565,35.1465],[-93.72487,35.1463],[-93.72434,35.14597],[-93.72377,35.14476],[-93.72395,35.1444],[-93.72434,35.1445],[-93.72488,35.1456],[-93.72593,35.14592],[-93.7264,35.14634],[-93.72655,35.14751],[-93.72701,35.14791],[-93.72723,35.1484],[-93.72743,35.15032],[-93.72815,35.15181],[-93.72822,35.15222],[-93.72812,35.15256],[-93.72784,35.15288],[-93.72633,35.15379],[-93.72618,35.1544],[-93.72626,35.15453],[-93.7274,35.15482],[-93.72781,35.15504],[-93.72813,35.15548],[-93.72819,35.15599],[-93.72808,35.15632],[-93.72763,35.15672],[-93.72667,35.15725],[-93.72561,35.15763],[-93.72486,35.15821],[-93.72412,35.1593],[-93.72412,35.16159],[-93.7235,35.16357],[-93.72369,35.16462],[-93.72322,35.16544],[-93.72295,35.16623],[-93.72299,35.16673],[-93.72343,35.1674],[-93.72349,35.16798],[-93.72337,35.1683],[-93.72261,35.16893],[-93.72245,35.16924],[-93.72269,35.16991],[-93.72258,35.17097],[-93.72267,35.17128],[-93.72329,35.17229],[-93.72432,35.17339],[-93.72448,35.17444],[-93.7241,35.17501],[-93.72254,35.17612],[-93.72218,35.17686],[-93.72201,35.17754],[-93.72263,35.17813],[-93.7228,35.17848],[-93.72283,35.179],[-93.72257,35.17963],[-93.72218,35.18009],[-93.72002,35.18116],[-93.71951,35.18165],[-93.71955,35.18178],[-93.72096,35.18251],[-93.7216,35.18338],[-93.72169,35.18402],[-93.72138,35.18537],[-93.72063,35.18618],[-93.72053,35.1872],[-93.72013,35.18783],[-93.71903,35.18846],[-93.7185,35.18894],[-93.71673,35.18961],[-93.71644,35.19017],[-93.71607,35.19051],[-93.71491,35.19085],[-93.71454,35.1912],[-93.71413,35.19214],[-93.71438,35.19279],[-93.7141,35.19383],[-93.71264,35.19569],[-93.7124,35.19634],[-93.71206,35.19658],[-93.71116,35.19662],[-93.71065,35.19684],[-93.71012,35.19725],[-93.70934,35.19839],[-93.70896,35.19951],[-93.70907,35.20125],[-93.70887,35.20163],[-93.70775,35.20259],[-93.7077,35.20306],[-93.70748,35.20357],[-93.70533,35.20571],[-93.70453,35.20594],[-93.70439,35.20645],[-93.70382,35.20743],[-93.70343,35.20755],[-93.70325,35.20737],[-93.70324,35.20716],[-93.70406,35.20548],[-93.70493,35.20521],[-93.70698,35.20316],[-93.70721,35.20223],[-93.70842,35.20114],[-93.70832,35.19946],[-93.70851,35.19863],[-93.70959,35.19687],[-93.71032,35.19629],[-93.71095,35.19602],[-93.71189,35.19594],[-93.7121,35.19535],[-93.71345,35.19371],[-93.71373,35.19279],[-93.71349,35.19226],[-93.71353,35.19185],[-93.71404,35.1908],[-93.71464,35.19028],[-93.71572,35.18998],[-93.71638,35.18907],[-93.71819,35.18837],[-93.71866,35.18794],[-93.71974,35.18733],[-93.71992,35.18702],[-93.7199,35.18644],[-93.72008,35.18584],[-93.72078,35.18513],[-93.72103,35.18366],[-93.72058,35.18302],[-93.71898,35.18212],[-93.71886,35.18148],[-93.71968,35.18063],[-93.72168,35.17965],[-93.72204,35.17927],[-93.72217,35.17862],[-93.72137,35.17771],[-93.72136,35.17728],[-93.72158,35.17664],[-93.72208,35.17567],[-93.72385,35.17434],[-93.72377,35.17372],[-93.72279,35.17268],[-93.72208,35.17152],[-93.72193,35.17099],[-93.72205,35.16998],[-93.72181,35.16917],[-93.72213,35.1685],[-93.72285,35.16788],[-93.72283,35.16763],[-93.72239,35.16695],[-93.72231,35.16615],[-93.72264,35.16517],[-93.72304,35.16454],[-93.72286,35.16354],[-93.72349,35.16149],[-93.72352,35.15908],[-93.72411,35.15804],[-93.72524,35.1571],[-93.72669,35.15654],[-93.72755,35.15596],[-93.72754,35.15572],[-93.7273,35.15548],[-93.72577,35.15497],[-93.72553,35.15443],[-93.72567,35.15366],[-93.72584,35.15337],[-93.72755,35.15224],[-93.72755,35.15204],[-93.7269,35.1508]]],[[[-93.68326,35.16363],[-93.68352,35.16385],[-93.68362,35.1643],[-93.68345,35.1646],[-93.68292,35.16482],[-93.68249,35.16472],[-93.68221,35.16431],[-93.67185,35.16453],[-93.66941,35.16544],[-93.66639,35.1671],[-93.66196,35.16799],[-93.65965,35.16973],[-93.65853,35.1701],[-93.65499,35.17],[-93.65321,35.16933],[-93.65158,35.16904],[-93.64975,35.16978],[-93.64554,35.17062],[-93.64411,35.17076],[-93.64289,35.17071],[-93.64181,35.17026],[-93.64109,35.1698],[-93.64074,35.16925],[-93.6404,35.16768],[-93.64,35.1674],[-93.63931,35.1672],[-93.63754,35.16802],[-93.63609,35.16798],[-93.63557,35.1682],[-93.63509,35.16871],[-93.63498,35.16938],[-93.63476,35.16976],[-93.63256,35.17094],[-93.63196,35.17249],[-93.63155,35.17308],[-93.63116,35.17332],[-93.6303,35.17356],[-93.62949,35.17365],[-93.62844,35.17359],[-93.62694,35.17309],[-93.62435,35.17419],[-93.62333,35.17429],[-93.62143,35.17412],[-93.61873,35.17447],[-93.61638,35.1761],[-93.61476,35.17667],[-93.61142,35.17706],[-93.60638,35.17737],[-93.6037,35.17751],[-93.60272,35.17744],[-93.59325,35.17576],[-93.59014,35.17599],[-93.58675,35.17712],[-93.58411,35.17764],[-93.58217,35.17897],[-93.58205,35.17925],[-93.58225,35.17945],[-93.58259,35.17953],[-93.58502,35.17964],[-93.588,35.18029],[-93.59054,35.18051],[-93.59854,35.18306],[-93.60052,35.18398],[-93.60122,35.1839],[-93.60258,35.18346],[-93.60326,35.18342],[-93.60396,35.18358],[-93.60666,35.18471],[-93.60812,35.18471],[-93.60942,35.18498],[-93.6108,35.18487],[-93.61258,35.18551],[-93.6149,35.18534],[-93.61619,35.18494],[-93.61699,35.18492],[-93.61756,35.1852],[-93.61861,35.18645],[-93.62083,35.18687],[-93.62178,35.18738],[-93.62226,35.18803],[-93.62267,35.18964],[-93.62319,35.19009],[-93.63026,35.19337],[-93.63021,35.19113],[-93.63113,35.18992],[-93.63146,35.18984],[-93.63185,35.18993],[-93.63359,35.19167],[-93.63456,35.19087],[-93.63564,35.19079],[-93.6359,35.19063],[-93.63603,35.18892],[-93.63586,35.18781],[-93.63613,35.18721],[-93.63669,35.18686],[-93.63751,35.18697],[-93.63868,35.18824],[-93.63971,35.18898],[-93.64115,35.18904],[-93.64172,35.18927],[-93.64392,35.19154],[-93.64567,35.19234],[-93.64729,35.19185],[-93.64933,35.19087],[-93.65127,35.19075],[-93.65164,35.19037],[-93.65211,35.19018],[-93.65445,35.18985],[-93.65727,35.19],[-93.65732,35.18915],[-93.65679,35.18814],[-93.65676,35.18788],[-93.65706,35.18725],[-93.65716,35.18633],[-93.6573,35.18603],[-93.65779,35.18572],[-93.65837,35.18577],[-93.65945,35.1869],[-93.65998,35.1863],[-93.6612,35.18595],[-93.66159,35.18501],[-93.66213,35.18453],[-93.66254,35.18439],[-93.66326,35.18453],[-93.66441,35.18551],[-93.66519,35.18568],[-93.66685,35.18553],[-93.66868,35.18441],[-93.66945,35.18436],[-93.66973,35.18452],[-93.6701,35.18501],[-93.67144,35.18721],[-93.67195,35.18757],[-93.67412,35.18787],[-93.67471,35.18828],[-93.67582,35.18857],[-93.67709,35.18911],[-93.67915,35.18888],[-93.67983,35.18864],[-93.68039,35.18809],[-93.68072,35.18764],[-93.68118,35.18611],[-93.68162,35.18549],[-93.68356,35.18404],[-93.68443,35.18372],[-93.68517,35.18287],[-93.68572,35.18267],[-93.68673,35.18298],[-93.6881,35.1837],[-93.69031,35.18401],[-93.69259,35.18489],[-93.69399,35.18514],[-93.69553,35.18578],[-93.69639,35.1864],[-93.69671,35.18678],[-93.69718,35.18846],[-93.69781,35.18871],[-93.69842,35.18913],[-93.69914,35.18929],[-93.70031,35.18908],[-93.70169,35.18929],[-93.70225,35.18884],[-93.70308,35.18897],[-93.70366,35.18941],[-93.70444,35.19111],[-93.70457,35.19247],[-93.70419,35.19353],[-93.70426,35.19486],[-93.70403,35.19588],[-93.7033,35.19684],[-93.70222,35.19761],[-93.70163,35.1985],[-93.70065,35.19901],[-93.69988,35.19981],[-93.69888,35.20026],[-93.69856,35.20062],[-93.6992,35.20078],[-93.70068,35.20143],[-93.70096,35.20173],[-93.70188,35.20355],[-93.70184,35.20492],[-93.70149,35.20579],[-93.70211,35.2064],[-93.70216,35.2067],[-93.70185,35.20694],[-93.70043,35.20697],[-93.69868,35.2072],[-93.69743,35.20685],[-93.69603,35.20584],[-93.69554,35.20573],[-93.6948,35.20825],[-93.69479,35.20868],[-93.6953,35.20975],[-93.69523,35.21024],[-93.69495,35.21042],[-93.69465,35.21022],[-93.69466,35.20983],[-93.69417,35.20888],[-93.69414,35.2085],[-93.6946,35.20693],[-93.69461,35.20634],[-93.69514,35.20522],[-93.69551,35.20509],[-93.6962,35.20522],[-93.6977,35.20627],[-93.69873,35.20656],[-93.70109,35.20631],[-93.70089,35.20603],[-93.70085,35.20567],[-93.70122,35.20479],[-93.70125,35.20368],[-93.70041,35.20206],[-93.69897,35.20137],[-93.69817,35.20116],[-93.69794,35.20089],[-93.6979,35.20057],[-93.69839,35.19983],[-93.69952,35.19929],[-93.69994,35.19874],[-93.70122,35.19802],[-93.70174,35.19718],[-93.70288,35.19635],[-93.70342,35.19566],[-93.70362,35.19477],[-93.70356,35.19343],[-93.70393,35.19244],[-93.70376,35.19096],[-93.70305,35.18968],[-93.70242,35.18946],[-93.7021,35.18983],[-93.7017,35.18994],[-93.70027,35.18972],[-93.69912,35.18993],[-93.6982,35.18973],[-93.69669,35.18887],[-93.69635,35.18813],[-93.69617,35.18713],[-93.69522,35.18634],[-93.69378,35.18574],[-93.69242,35.18551],[-93.69015,35.18463],[-93.6879,35.18431],[-93.68576,35.18331],[-93.68548,35.18343],[-93.68483,35.18423],[-93.68392,35.18458],[-93.68208,35.18594],[-93.68175,35.1864],[-93.68129,35.18794],[-93.68041,35.189],[-93.67998,35.18927],[-93.67909,35.18954],[-93.67699,35.18974],[-93.67561,35.18917],[-93.67448,35.18888],[-93.67389,35.18847],[-93.6735,35.18843],[-93.67271,35.18914],[-93.67249,35.18958],[-93.67155,35.19052],[-93.67133,35.1911],[-93.67056,35.19158],[-93.67029,35.19198],[-93.6704,35.19343],[-93.67101,35.19414],[-93.67113,35.19456],[-93.671,35.19622],[-93.67118,35.19699],[-93.67108,35.19909],[-93.67123,35.20092],[-93.67103,35.20298],[-93.67027,35.20449],[-93.67016,35.20545],[-93.67042,35.20578],[-93.67087,35.20602],[-93.67259,35.20643],[-93.67342,35.20699],[-93.67373,35.20746],[-93.67358,35.20778],[-93.67333,35.20794],[-93.6723,35.20807],[-93.67127,35.20857],[-93.67036,35.20883],[-93.67065,35.2101],[-93.67041,35.21114],[-93.67054,35.21277],[-93.66998,35.21362],[-93.67046,35.2156],[-93.67033,35.21622],[-93.67065,35.21739],[-93.67115,35.2185],[-93.67267,35.2209],[-93.67306,35.22126],[-93.674,35.22149],[-93.67447,35.22179],[-93.67485,35.22249],[-93.67549,35.22291],[-93.67648,35.22429],[-93.67663,35.22465],[-93.67657,35.22533],[-93.67684,35.22593],[-93.67757,35.22646],[-93.67924,35.22808],[-93.67947,35.22849],[-93.67964,35.23035],[-93.68029,35.2308],[-93.68152,35.23135],[-93.68258,35.23172],[-93.68355,35.23181],[-93.68386,35.23205],[-93.68409,35.23262],[-93.68397,35.23468],[-93.68513,35.23422],[-93.6858,35.2342],[-93.68661,35.23486],[-93.6878,35.23548],[-93.68918,35.23577],[-93.69059,35.23649],[-93.6938,35.23656],[-93.6965,35.23694],[-93.69769,35.23746],[-93.69836,35.23807],[-93.69864,35.2386],[-93.69863,35.2393],[-93.69953,35.24032],[-93.70076,35.24039],[-93.70245,35.24027],[-93.70394,35.24074],[-93.70606,35.24096],[-93.70746,35.24141],[-93.70777,35.24172],[-93.70843,35.24331],[-93.70924,35.24443],[-93.70942,35.2445],[-93.71759,35.2446],[-93.71819,35.24503],[-93.71912,35.24519],[-93.7208,35.24483],[-93.72151,35.24491],[-93.7226,35.2445],[-93.72663,35.24461],[-93.72693,35.24485],[-93.72677,35.24522],[-93.72249,35.24515],[-93.72164,35.24554],[-93.72125,35.24559],[-93.72083,35.24548],[-93.71917,35.24584],[-93.71799,35.24564],[-93.71748,35.24524],[-93.71362,35.24513],[-93.71048,35.24523],[-93.70927,35.24512],[-93.70879,35.24489],[-93.70806,35.24392],[-93.70753,35.24299],[-93.70722,35.24205],[-93.70695,35.24187],[-93.70568,35.24155],[-93.70379,35.24137],[-93.70237,35.24091],[-93.69953,35.241],[-93.69892,35.24065],[-93.69818,35.23976],[-93.69796,35.23932],[-93.69798,35.23861],[-93.69711,35.23789],[-93.69606,35.23746],[-93.69554,35.23738],[-93.69375,35.2372],[-93.69113,35.23722],[-93.6904,35.23711],[-93.68897,35.23638],[-93.68753,35.23605],[-93.68627,35.23541],[-93.68562,35.23482],[-93.68544,35.23481],[-93.68396,35.23534],[-93.68381,35.23736],[-93.68364,35.23789],[-93.68333,35.2381],[-93.68236,35.23823],[-93.68185,35.23852],[-93.68326,35.23909],[-93.68572,35.23976],[-93.68601,35.24004],[-93.68604,35.24044],[-93.68569,35.24126],[-93.68623,35.24179],[-93.68633,35.2422],[-93.68606,35.24257],[-93.68545,35.24279],[-93.68597,35.24464],[-93.68697,35.24583],[-93.68708,35.24622],[-93.68625,35.24963],[-93.68658,35.25041],[-93.68653,35.25158],[-93.68603,35.25222],[-93.68506,35.25287],[-93.68466,35.25288],[-93.68245,35.25209],[-93.68096,35.25233],[-93.67945,35.25274],[-93.67843,35.2528],[-93.67829,35.25247],[-93.67851,35.25223],[-93.68229,35.25147],[-93.68288,35.25153],[-93.68493,35.25224],[-93.68593,35.25134],[-93.68594,35.25051],[-93.68561,35.24959],[-93.6861,35.24723],[-93.68644,35.24619],[-93.68539,35.24491],[-93.68472,35.24258],[-93.68492,35.24221],[-93.68563,35.24207],[-93.68518,35.24169],[-93.68506,35.24137],[-93.6851,35.24087],[-93.68539,35.24033],[-93.68194,35.23929],[-93.68136,35.23895],[-93.68114,35.23864],[-93.68124,35.2382],[-93.68183,35.23775],[-93.68243,35.23753],[-93.68312,35.23748],[-93.68344,35.23256],[-93.68332,35.23241],[-93.68244,35.23235],[-93.68128,35.23194],[-93.67996,35.23135],[-93.67912,35.23073],[-93.679,35.23045],[-93.67884,35.22864],[-93.67873,35.22846],[-93.67714,35.22694],[-93.67636,35.22635],[-93.67594,35.22546],[-93.67599,35.22476],[-93.67502,35.22335],[-93.67443,35.22297],[-93.67391,35.22215],[-93.67282,35.22185],[-93.67241,35.22159],[-93.67057,35.21878],[-93.67004,35.2176],[-93.66969,35.21633],[-93.66982,35.2157],[-93.66933,35.21361],[-93.66942,35.2133],[-93.6699,35.21267],[-93.66977,35.21115],[-93.66604,35.20921],[-93.66538,35.20801],[-93.66502,35.20766],[-93.66486,35.20827],[-93.66404,35.20902],[-93.66228,35.20882],[-93.6613,35.20857],[-93.66155,35.20917],[-93.66141,35.20971],[-93.66058,35.21048],[-93.65949,35.21119],[-93.65894,35.21189],[-93.65845,35.21195],[-93.65777,35.21168],[-93.65729,35.21115],[-93.65699,35.21187],[-93.65681,35.21288],[-93.65721,35.21439],[-93.65719,35.21486],[-93.65688,35.21548],[-93.65664,35.21565],[-93.65626,35.21577],[-93.65407,35.2158],[-93.65313,35.21556],[-93.65245,35.2163],[-93.65206,35.21648],[-93.65165,35.21652],[-93.65052,35.2163],[-93.64849,35.2168],[-93.64814,35.21697],[-93.64805,35.21739],[-93.64764,35.21765],[-93.64435,35.21765],[-93.64401,35.21753],[-93.64278,35.21604],[-93.64268,35.2139],[-93.6349,35.21364],[-93.63454,35.2146],[-93.63168,35.21764],[-93.63161,35.21803],[-93.63184,35.21873],[-93.63182,35.21907],[-93.63168,35.21941],[-93.63074,35.22051],[-93.63072,35.22177],[-93.63085,35.22219],[-93.63114,35.22243],[-93.63231,35.2228],[-93.63283,35.2231],[-93.6335,35.22409],[-93.63426,35.22489],[-93.63459,35.2254],[-93.63544,35.22794],[-93.63617,35.22894],[-93.63723,35.22953],[-93.6374,35.22981],[-93.63742,35.23032],[-93.63681,35.23127],[-93.63585,35.23163],[-93.63418,35.2317],[-93.63263,35.23125],[-93.63097,35.23131],[-93.63072,35.23147],[-93.62931,35.23316],[-93.63186,35.23496],[-93.63282,35.23535],[-93.63475,35.23584],[-93.63644,35.23699],[-93.6428,35.24568],[-93.64338,35.24614],[-93.64411,35.24631],[-93.65386,35.24665],[-93.6562,35.24762],[-93.65841,35.24828],[-93.65927,35.24868],[-93.66076,35.24996],[-93.66427,35.25065],[-93.66467,35.25086],[-93.66552,35.25166],[-93.66557,35.2519],[-93.66541,35.25213],[-93.66506,35.2521],[-93.664,35.25124],[-93.6605,35.25055],[-93.65898,35.24925],[-93.65345,35.24723],[-93.64407,35.24695],[-93.6433,35.24678],[-93.64266,35.24692],[-93.63544,35.24665],[-93.63113,35.24684],[-93.62923,35.24708],[-93.62877,35.24732],[-93.62675,35.24912],[-93.62574,35.25047],[-93.62538,35.2507],[-93.62493,35.25079],[-93.62118,35.25077],[-93.61654,35.25051],[-93.61592,35.25038],[-93.61505,35.25008],[-93.61366,35.249],[-93.61289,35.24861],[-93.61049,35.24838],[-93.60067,35.248],[-93.59933,35.24769],[-93.59691,35.24648],[-93.59007,35.24617],[-93.58972,35.246],[-93.58953,35.24556],[-93.58964,35.2421],[-93.58905,35.23663],[-93.58861,35.23487],[-93.58704,35.23105],[-93.58633,35.22996],[-93.58213,35.22638],[-93.5796,35.22534],[-93.57666,35.22454],[-93.57564,35.22461],[-93.57454,35.22517],[-93.57387,35.22516],[-93.57331,35.22488],[-93.57257,35.22393],[-93.57238,35.2223],[-93.57241,35.21819],[-93.57228,35.21596],[-93.57241,35.21535],[-93.57239,35.21437],[-93.57087,35.2138],[-93.56972,35.21308],[-93.56945,35.21272],[-93.56945,35.212],[-93.56969,35.21077],[-93.56971,35.20873],[-93.56896,35.20645],[-93.56889,35.20509],[-93.56875,35.20474],[-93.56818,35.20419],[-93.56725,35.20407],[-93.56462,35.2042],[-93.56295,35.20349],[-93.56083,35.20319],[-93.55848,35.20237],[-93.55477,35.19946],[-93.55432,35.19889],[-93.55385,35.1978],[-93.55197,35.19749],[-93.5515,35.1973],[-93.54769,35.19489],[-93.54715,35.19475],[-93.54605,35.19476],[-93.54376,35.19641],[-93.54285,35.19662],[-93.54196,35.19713],[-93.54125,35.19734],[-93.53758,35.19689],[-93.53214,35.19683],[-93.53082,35.19669],[-93.52782,35.19711],[-93.52748,35.19723],[-93.52635,35.19818],[-93.52543,35.19936],[-93.52441,35.19988],[-93.52195,35.20048],[-93.51938,35.20025],[-93.51758,35.20023],[-93.51637,35.20006],[-93.51265,35.19915],[-93.51112,35.19927],[-93.5106,35.19921],[-93.50758,35.19804],[-93.50389,35.1976],[-93.49831,35.19587],[-93.49651,35.195],[-93.48836,35.19396],[-93.486,35.19338],[-93.48216,35.19097],[-93.48123,35.18999],[-93.4794,35.18973],[-93.47738,35.18865],[-93.47611,35.18861],[-93.47534,35.18837],[-93.47449,35.18833],[-93.474,35.1881],[-93.47176,35.18646],[-93.47117,35.18621],[-93.46895,35.18656],[-93.46774,35.18721],[-93.46721,35.1873],[-93.46343,35.18742],[-93.45814,35.18724],[-93.45687,35.18731],[-93.45595,35.18751],[-93.45471,35.1872],[-93.45327,35.18716],[-93.45364,35.18765],[-93.45577,35.18955],[-93.4582,35.19129],[-93.4594,35.19162],[-93.45958,35.19195],[-93.45944,35.19242],[-93.45901,35.19264],[-93.45832,35.19254],[-93.45795,35.19261],[-93.45734,35.19335],[-93.45662,35.19396],[-93.45585,35.19442],[-93.45379,35.19517],[-93.45253,35.19624],[-93.44922,35.19807],[-93.44867,35.19826],[-93.44752,35.1984],[-93.44588,35.19908],[-93.44485,35.20055],[-93.44336,35.20149],[-93.44224,35.20191],[-93.44073,35.20408],[-93.4405,35.20569],[-93.44016,35.20649],[-93.43906,35.20732],[-93.43682,35.2086],[-93.43653,35.20892],[-93.43596,35.20986],[-93.43324,35.21537],[-93.43062,35.21964],[-93.4287,35.22165],[-93.42781,35.22213],[-93.42172,35.22435],[-93.41842,35.22569],[-93.41674,35.22595],[-93.41661,35.22794],[-93.41557,35.2297],[-93.41502,35.23103],[-93.41495,35.23298],[-93.41561,35.24125],[-93.41514,35.24724],[-93.41494,35.24761],[-93.41383,35.24851],[-93.41353,35.24923],[-93.41273,35.2505],[-93.41193,35.25293],[-93.41169,35.2545],[-93.41142,35.25478],[-93.40958,35.25575],[-93.40921,35.25628],[-93.40902,35.25685],[-93.40917,35.2574],[-93.41012,35.25827],[-93.41289,35.26001],[-93.41569,35.26072],[-93.41641,35.2612],[-93.41661,35.26147],[-93.41841,35.26604],[-93.41941,35.26778],[-93.41978,35.26869],[-93.41968,35.27133],[-93.4189,35.2729],[-93.41857,35.27304],[-93.41838,35.27293],[-93.41831,35.2727],[-93.41906,35.27116],[-93.41913,35.2688],[-93.41783,35.26631],[-93.41604,35.26177],[-93.41545,35.26131],[-93.41295,35.26076],[-93.40977,35.2588],[-93.40856,35.25765],[-93.40838,35.25686],[-93.40863,35.25602],[-93.40914,35.25528],[-93.40958,35.25494],[-93.41114,35.25416],[-93.41132,35.25275],[-93.41225,35.25003],[-93.41344,35.24796],[-93.41452,35.24706],[-93.41497,35.24126],[-93.41431,35.23303],[-93.41438,35.23097],[-93.41469,35.23001],[-93.41605,35.22753],[-93.4161,35.22415],[-93.41598,35.22297],[-93.41608,35.22133],[-93.41495,35.22126],[-93.41394,35.2215],[-93.41303,35.22196],[-93.41137,35.22205],[-93.41075,35.22252],[-93.41023,35.22343],[-93.40979,35.22382],[-93.409,35.22409],[-93.40775,35.22417],[-93.40753,35.22564],[-93.40685,35.22698],[-93.40632,35.22753],[-93.40543,35.22815],[-93.404,35.22894],[-93.40366,35.22902],[-93.40233,35.22875],[-93.40128,35.229],[-93.4001,35.22904],[-93.39843,35.22946],[-93.39717,35.22958],[-93.39535,35.22908],[-93.39422,35.22933],[-93.39319,35.22934],[-93.39281,35.22917],[-93.39212,35.22851],[-93.39148,35.22834],[-93.38775,35.22833],[-93.3853,35.22787],[-93.38448,35.22811],[-93.3836,35.22816],[-93.38174,35.22791],[-93.38075,35.22808],[-93.37861,35.22796],[-93.3778,35.22737],[-93.37745,35.22664],[-93.37608,35.22543],[-93.3758,35.2248],[-93.37573,35.22372],[-93.37635,35.22289],[-93.37699,35.22131],[-93.37598,35.21837],[-93.37561,35.21796],[-93.37524,35.21785],[-93.37375,35.21822],[-93.37333,35.21817],[-93.37289,35.21799],[-93.37236,35.21751],[-93.37213,35.21626],[-93.37216,35.21546],[-93.37231,35.21461],[-93.37276,35.21382],[-93.37205,35.21227],[-93.37138,35.2116],[-93.37118,35.21091],[-93.36962,35.21018],[-93.36936,35.20993],[-93.36926,35.2094],[-93.36961,35.20832],[-93.36918,35.20747],[-93.36917,35.20718],[-93.36936,35.20674],[-93.37021,35.20565],[-93.3706,35.20519],[-93.37105,35.2049],[-93.3721,35.20471],[-93.37352,35.20484],[-93.37445,35.20507],[-93.37508,35.20458],[-93.37685,35.20391],[-93.37752,35.20321],[-93.37814,35.20202],[-93.37874,35.20157],[-93.37957,35.20127],[-93.38259,35.20095],[-93.38293,35.20072],[-93.38316,35.19834],[-93.38334,35.19774],[-93.38329,35.19687],[-93.38381,35.19544],[-93.38172,35.19127],[-93.38044,35.19001],[-93.38023,35.18955],[-93.38021,35.18896],[-93.37802,35.18885],[-93.37608,35.18921],[-93.37303,35.18995],[-93.36915,35.19145],[-93.36527,35.19183],[-93.36304,35.19219],[-93.35933,35.19324],[-93.3531,35.19401],[-93.35117,35.19455],[-93.35093,35.19449],[-93.3508,35.19425],[-93.3509,35.194],[-93.35117,35.19389],[-93.35126,35.18629],[-93.35133,35.18551],[-93.35162,35.1853],[-93.35272,35.18558],[-93.35635,35.18576],[-93.36202,35.1858],[-93.36418,35.18549],[-93.37033,35.1857],[-93.37473,35.18678],[-93.37794,35.18821],[-93.38216,35.18839],[-93.38895,35.18968],[-93.39108,35.19039],[-93.39331,35.19096],[-93.39484,35.19162],[-93.39715,35.19225],[-93.40091,35.19465],[-93.40734,35.19784],[-93.40868,35.19891],[-93.40991,35.20028],[-93.41055,35.20159],[-93.41081,35.20286],[-93.41146,35.20392],[-93.41165,35.20484],[-93.41302,35.20713],[-93.41346,35.20961],[-93.41382,35.21066],[-93.4144,35.21156],[-93.41553,35.21275],[-93.41699,35.21495],[-93.41662,35.22299],[-93.41673,35.22528],[-93.41768,35.22519],[-93.41906,35.22478],[-93.42149,35.22375],[-93.42758,35.22154],[-93.42829,35.22115],[-93.43009,35.21929],[-93.43267,35.21507],[-93.43539,35.20956],[-93.436,35.20855],[-93.43644,35.20808],[-93.43964,35.20612],[-93.43987,35.20554],[-93.44015,35.2038],[-93.4418,35.20142],[-93.44308,35.20092],[-93.44444,35.20006],[-93.44502,35.19908],[-93.44553,35.19854],[-93.44733,35.19779],[-93.44895,35.19749],[-93.45218,35.1957],[-93.45349,35.1946],[-93.45557,35.19384],[-93.45628,35.19342],[-93.45687,35.19292],[-93.45741,35.19223],[-93.45805,35.19192],[-93.45495,35.18972],[-93.45318,35.1881],[-93.45248,35.18715],[-93.45072,35.18655],[-93.45011,35.18657],[-93.44843,35.18698],[-93.44181,35.18676],[-93.43987,35.18644],[-93.43908,35.18607],[-93.42123,35.18468],[-93.42053,35.18448],[-93.41713,35.1825],[-93.41638,35.18228],[-93.41409,35.18268],[-93.41191,35.18361],[-93.40836,35.18324],[-93.407,35.18283],[-93.405,35.18283],[-93.40351,35.18266],[-93.40103,35.18209],[-93.39997,35.18133],[-93.39971,35.18076],[-93.3952,35.17998],[-93.39381,35.18004],[-93.39249,35.17969],[-93.39219,35.17943],[-93.39212,35.17886],[-93.38822,35.1773],[-93.38647,35.17724],[-93.3829,35.17637],[-93.38084,35.17612],[-93.37332,35.17422],[-93.3549,35.17384],[-93.35339,35.17369],[-93.35126,35.17318],[-93.35106,35.17303],[-93.35103,35.17279],[-93.35115,35.17261],[-93.35139,35.17255],[-93.35351,35.17306],[-93.35493,35.1732],[-93.37341,35.17359],[-93.38096,35.17549],[-93.38302,35.17574],[-93.38656,35.1766],[-93.38798,35.17659],[-93.38841,35.17669],[-93.39253,35.17834],[-93.39272,35.17855],[-93.39277,35.17911],[-93.39391,35.17941],[-93.39558,35.17939],[-93.39986,35.18014],[-93.40027,35.18042],[-93.40048,35.18093],[-93.4013,35.1815],[-93.40361,35.18203],[-93.40503,35.18219],[-93.40708,35.1822],[-93.40847,35.18261],[-93.41187,35.18297],[-93.41392,35.18206],[-93.41646,35.18164],[-93.4174,35.18192],[-93.4208,35.1839],[-93.42129,35.18404],[-93.43854,35.18538],[-93.43751,35.18355],[-93.43743,35.18205],[-93.43514,35.17977],[-93.43229,35.17754],[-93.43161,35.17669],[-93.43114,35.17558],[-93.43119,35.17501],[-93.43194,35.17366],[-93.43205,35.1725],[-93.43277,35.17152],[-93.43292,35.17104],[-93.43279,35.17004],[-93.43308,35.16753],[-93.43229,35.16394],[-93.43175,35.16438],[-93.42984,35.16547],[-93.42944,35.16557],[-93.42886,35.16538],[-93.4285,35.16497],[-93.42753,35.16277],[-93.4273,35.1625],[-93.42678,35.16222],[-93.42565,35.16197],[-93.42485,35.16128],[-93.42452,35.16043],[-93.42461,35.15979],[-93.42537,35.1584],[-93.42551,35.15778],[-93.42521,35.15748],[-93.42419,35.15738],[-93.4238,35.15721],[-93.42341,35.15685],[-93.42317,35.15625],[-93.41992,35.15621],[-93.41507,35.15549],[-93.41217,35.15523],[-93.40826,35.15549],[-93.39908,35.15569],[-93.38627,35.15629],[-93.35157,35.15556],[-93.35128,35.15535],[-93.35136,35.15501],[-93.35159,35.15492],[-93.38627,35.15565],[-93.39905,35.15505],[-93.40824,35.15485],[-93.41219,35.15459],[-93.41515,35.15486],[-93.42,35.15558],[-93.42269,35.1556],[-93.42249,35.15519],[-93.42266,35.15441],[-93.42303,35.15396],[-93.42371,35.15358],[-93.42447,35.15352],[-93.42476,35.1536],[-93.42571,35.15493],[-93.42623,35.15486],[-93.42629,35.15459],[-93.42561,35.15376],[-93.42423,35.15314],[-93.42085,35.15333],[-93.41913,35.15294],[-93.41813,35.15234],[-93.41799,35.15211],[-93.41799,35.1517],[-93.41836,35.15125],[-93.41928,35.1506],[-93.42035,35.15043],[-93.42258,35.15071],[-93.42395,35.14982],[-93.42496,35.14985],[-93.42494,35.14938],[-93.42528,35.1492],[-93.42549,35.14933],[-93.42561,35.14966],[-93.42557,35.15016],[-93.42532,35.15045],[-93.42413,35.15044],[-93.42308,35.15118],[-93.42247,35.15138],[-93.42034,35.15107],[-93.41972,35.15113],[-93.41913,35.15144],[-93.41862,35.15192],[-93.41934,35.15234],[-93.42048,35.15266],[-93.42439,35.15252],[-93.42599,35.15324],[-93.42669,35.15401],[-93.42697,35.15468],[-93.42694,35.15496],[-93.42668,35.15533],[-93.42618,35.15553],[-93.42447,35.1557],[-93.42389,35.15604],[-93.42392,35.15642],[-93.42423,35.15673],[-93.42546,35.15689],[-93.42601,35.15736],[-93.42616,35.15782],[-93.42612,35.15826],[-93.42529,35.15981],[-93.42517,35.16038],[-93.42524,35.16061],[-93.4254,35.16094],[-93.42581,35.16133],[-93.42698,35.16162],[-93.42776,35.16205],[-93.4281,35.16246],[-93.42906,35.16466],[-93.42944,35.16493],[-93.43141,35.16384],[-93.43189,35.16341],[-93.43206,35.16301],[-93.43193,35.1607],[-93.43235,35.16009],[-93.43316,35.15973],[-93.43325,35.15908],[-93.43272,35.15835],[-93.42932,35.15645],[-93.42884,35.15587],[-93.42896,35.1552],[-93.42957,35.1543],[-93.4298,35.15362],[-93.43038,35.15308],[-93.43071,35.15154],[-93.43145,35.15101],[-93.43151,35.15085],[-93.43124,35.15068],[-93.42711,35.1503],[-93.4264,35.14993],[-93.42596,35.14937],[-93.426,35.14858],[-93.42623,35.14822],[-93.42783,35.14694],[-93.42843,35.146],[-93.42868,35.14588],[-93.4289,35.14598],[-93.429,35.1462],[-93.42865,35.14695],[-93.42827,35.14741],[-93.42673,35.14862],[-93.42656,35.14903],[-93.42665,35.1493],[-93.42726,35.14967],[-93.4314,35.15006],[-93.43185,35.15029],[-93.43215,35.15071],[-93.43211,35.15116],[-93.43195,35.15142],[-93.43127,35.15186],[-93.43096,35.15337],[-93.43038,35.15388],[-93.43014,35.15461],[-93.42946,35.15566],[-93.42958,35.15586],[-93.43009,35.15616],[-93.43087,35.15614],[-93.43169,35.15589],[-93.4384,35.15574],[-93.44467,35.15655],[-93.44579,35.1568],[-93.4462,35.1571],[-93.44645,35.15776],[-93.44646,35.15955],[-93.44678,35.16098],[-93.44796,35.16209],[-93.44996,35.16274],[-93.45575,35.16296],[-93.45947,35.16276],[-93.4611,35.16303],[-93.4625,35.16265],[-93.46836,35.16362],[-93.46863,35.1635],[-93.46987,35.16233],[-93.47061,35.1619],[-93.4717,35.16171],[-93.47549,35.16182],[-93.47676,35.16173],[-93.47801,35.16135],[-93.47879,35.16056],[-93.47948,35.16027],[-93.48191,35.16042],[-93.4832,35.16077],[-93.48863,35.15972],[-93.48992,35.16008],[-93.49129,35.16015],[-93.49396,35.16081],[-93.49518,35.16025],[-93.4959,35.15926],[-93.49719,35.15854],[-93.49662,35.15801],[-93.49616,35.15679],[-93.495,35.15622],[-93.49239,35.1561],[-93.48811,35.15557],[-93.48549,35.1555],[-93.48418,35.15559],[-93.4828,35.15542],[-93.4797,35.15424],[-93.47837,35.15295],[-93.47748,35.15172],[-93.47644,35.15108],[-93.47624,35.15077],[-93.47622,35.1505],[-93.47643,35.15005],[-93.4768,35.14984],[-93.47834,35.14977],[-93.47932,35.14939],[-93.48015,35.14949],[-93.48108,35.14999],[-93.48118,35.15022],[-93.48109,35.15044],[-93.48077,35.15053],[-93.47995,35.15011],[-93.47938,35.15003],[-93.47847,35.1504],[-93.4771,35.15043],[-93.47686,35.15058],[-93.47793,35.15125],[-93.47886,35.15253],[-93.47999,35.15367],[-93.48076,35.15387],[-93.4829,35.15479],[-93.48422,35.15495],[-93.48548,35.15486],[-93.48813,35.15493],[-93.49247,35.15547],[-93.49522,35.15561],[-93.49666,35.15638],[-93.49691,35.1568],[-93.49717,35.15766],[-93.49778,35.15826],[-93.49776,35.15884],[-93.49733,35.15929],[-93.49629,35.15976],[-93.49556,35.16076],[-93.4941,35.16144],[-93.49116,35.16078],[-93.48981,35.16071],[-93.48862,35.16037],[-93.48323,35.16141],[-93.48183,35.16105],[-93.47955,35.16091],[-93.4792,35.16106],[-93.4783,35.16192],[-93.47688,35.16236],[-93.47548,35.16246],[-93.47169,35.16235],[-93.4708,35.16252],[-93.47026,35.16284],[-93.46896,35.16405],[-93.46817,35.16426],[-93.4625,35.16329],[-93.46109,35.16367],[-93.45944,35.1634],[-93.45575,35.1636],[-93.44963,35.16333],[-93.44765,35.16265],[-93.44626,35.16135],[-93.44604,35.1609],[-93.44599,35.16013],[-93.44583,35.15967],[-93.44582,35.15788],[-93.44556,35.1574],[-93.43836,35.15638],[-93.43175,35.15653],[-93.43115,35.15673],[-93.43312,35.15785],[-93.43363,35.15838],[-93.43389,35.15902],[-93.43389,35.15961],[-93.43367,35.16014],[-93.43273,35.16061],[-93.43252,35.16107],[-93.43269,35.16291],[-93.4336,35.16688],[-93.43372,35.16783],[-93.43343,35.17003],[-93.43356,35.17105],[-93.43349,35.17145],[-93.43332,35.17186],[-93.43264,35.17276],[-93.43254,35.1739],[-93.43178,35.1753],[-93.43188,35.17582],[-93.43217,35.17638],[-93.43274,35.17708],[-93.43556,35.17929],[-93.43798,35.18168],[-93.43813,35.18335],[-93.43918,35.18521],[-93.4398,35.18576],[-93.44184,35.18612],[-93.44841,35.18634],[-93.44999,35.18594],[-93.45067,35.1859],[-93.45265,35.18653],[-93.45479,35.18657],[-93.45596,35.18687],[-93.45678,35.18668],[-93.45813,35.1866],[-93.46342,35.18678],[-93.46741,35.18664],[-93.4688,35.18594],[-93.47129,35.18558],[-93.47209,35.18591],[-93.47468,35.18771],[-93.47548,35.18774],[-93.47616,35.18797],[-93.47753,35.18803],[-93.47962,35.18912],[-93.48104,35.18925],[-93.4815,35.18941],[-93.48192,35.1897],[-93.48256,35.19047],[-93.48619,35.19276],[-93.48845,35.19333],[-93.49665,35.19438],[-93.49852,35.19526],[-93.50405,35.19698],[-93.5077,35.19741],[-93.50931,35.19797],[-93.50986,35.19709],[-93.51197,35.1955],[-93.5112,35.19429],[-93.51134,35.1917],[-93.5107,35.18906],[-93.51079,35.18798],[-93.5114,35.1867],[-93.51148,35.18614],[-93.5112,35.18554],[-93.51046,35.18474],[-93.50925,35.18273],[-93.50876,35.18154],[-93.50864,35.18058],[-93.50895,35.17914],[-93.50945,35.17833],[-93.5102,35.1775],[-93.51069,35.1771],[-93.51236,35.17616],[-93.51359,35.17478],[-93.51496,35.17421],[-93.5167,35.17394],[-93.51712,35.17375],[-93.5166,35.17369],[-93.51575,35.17278],[-93.51534,35.17262],[-93.51503,35.17266],[-93.51436,35.17308],[-93.51384,35.17299],[-93.51264,35.17199],[-93.51239,35.17155],[-93.51234,35.17036],[-93.5125,35.16974],[-93.51306,35.16903],[-93.51373,35.16875],[-93.51282,35.16834],[-93.51204,35.16738],[-93.51213,35.16609],[-93.5127,35.16537],[-93.51334,35.16497],[-93.51303,35.16421],[-93.51294,35.16311],[-93.51247,35.1619],[-93.51148,35.15785],[-93.51145,35.15697],[-93.51164,35.15654],[-93.51337,35.1552],[-93.51348,35.1539],[-93.51414,35.15284],[-93.5141,35.15266],[-93.51267,35.15208],[-93.51139,35.15205],[-93.5112,35.15178],[-93.51134,35.15148],[-93.51215,35.15138],[-93.51288,35.15147],[-93.51448,35.15215],[-93.51479,35.15278],[-93.51472,35.15315],[-93.5141,35.15408],[-93.51407,35.15513],[-93.51392,35.15552],[-93.51374,35.15578],[-93.51212,35.15697],[-93.51208,35.15718],[-93.51422,35.15607],[-93.51636,35.15538],[-93.51725,35.15523],[-93.52009,35.15521],[-93.52298,35.15488],[-93.52512,35.1552],[-93.52942,35.15556],[-93.53043,35.15549],[-93.53207,35.15572],[-93.53339,35.15566],[-93.53394,35.15555],[-93.53503,35.15484],[-93.53856,35.15342],[-93.53955,35.15354],[-93.5416,35.15454],[-93.54327,35.1548],[-93.54551,35.15428],[-93.54683,35.15417],[-93.54862,35.15503],[-93.55046,35.15631],[-93.55172,35.15653],[-93.55261,35.15652],[-93.55737,35.15482],[-93.55835,35.15463],[-93.56119,35.15568],[-93.56362,35.15608],[-93.56461,35.15691],[-93.56561,35.15723],[-93.56797,35.15708],[-93.5704,35.15656],[-93.5728,35.1566],[-93.57678,35.15696],[-93.57797,35.15691],[-93.57708,35.15676],[-93.57465,35.15489],[-93.57314,35.1544],[-93.57283,35.15401],[-93.57206,35.15209],[-93.57139,35.15171],[-93.56618,35.1514],[-93.56378,35.15199],[-93.56305,35.15188],[-93.56281,35.15163],[-93.56273,35.15125],[-93.56327,35.15036],[-93.56223,35.14941],[-93.56188,35.14879],[-93.56198,35.14806],[-93.56243,35.14745],[-93.56238,35.14705],[-93.56098,35.14599],[-93.5582,35.14468],[-93.55593,35.14385],[-93.55436,35.14378],[-93.55231,35.14333],[-93.5514,35.1434],[-93.55058,35.14407],[-93.54992,35.14435],[-93.54953,35.14429],[-93.5487,35.14383],[-93.54765,35.14416],[-93.54632,35.14395],[-93.54607,35.14361],[-93.54608,35.14308],[-93.54702,35.14222],[-93.54746,35.14143],[-93.54768,35.14073],[-93.54782,35.13475],[-93.54541,35.13494],[-93.54202,35.1359],[-93.53936,35.13591],[-93.53779,35.13615],[-93.53613,35.13613],[-93.53541,35.13626],[-93.53493,35.13653],[-93.53379,35.13769],[-93.5332,35.13856],[-93.53129,35.13987],[-93.53034,35.14035],[-93.52995,35.1418],[-93.52939,35.14218],[-93.52835,35.14233],[-93.52701,35.14215],[-93.52198,35.14205],[-93.51982,35.14174],[-93.51775,35.14201],[-93.51034,35.14186],[-93.50988,35.14177],[-93.50841,35.141],[-93.50757,35.14155],[-93.50732,35.14157],[-93.5071,35.14129],[-93.50721,35.14061],[-93.50744,35.14031],[-93.50805,35.13989],[-93.5081,35.13796],[-93.5085,35.13734],[-93.50881,35.13593],[-93.50952,35.13507],[-93.50956,35.13485],[-93.50923,35.13407],[-93.50932,35.13384],[-93.50951,35.13375],[-93.50983,35.13391],[-93.5102,35.13494],[-93.51001,35.13557],[-93.50941,35.13617],[-93.5091,35.13757],[-93.50875,35.138],[-93.50869,35.13995],[-93.50858,35.14026],[-93.50958,35.13995],[-93.51131,35.13762],[-93.51168,35.13733],[-93.51708,35.13431],[-93.51884,35.13397],[-93.51904,35.13403],[-93.51916,35.13425],[-93.51894,35.13459],[-93.51733,35.13489],[-93.512,35.13788],[-93.51025,35.14019],[-93.50972,35.14062],[-93.50928,35.14078],[-93.51011,35.14118],[-93.51775,35.14137],[-93.51985,35.1411],[-93.52142,35.14138],[-93.52704,35.14151],[-93.52834,35.14169],[-93.52935,35.14151],[-93.52959,35.14049],[-93.5299,35.13988],[-93.53095,35.13933],[-93.53275,35.1381],[-93.53332,35.13726],[-93.53485,35.13581],[-93.53608,35.1355],[-93.53775,35.13551],[-93.53932,35.13527],[-93.54195,35.13526],[-93.5453,35.13431],[-93.54784,35.1341],[-93.5478,35.13309],[-93.54754,35.1324],[-93.5477,35.13215],[-93.54797,35.13212],[-93.5484,35.13279],[-93.54847,35.1342],[-93.54944,35.1345],[-93.55028,35.13521],[-93.55461,35.1357],[-93.55683,35.13563],[-93.55704,35.13575],[-93.5571,35.13599],[-93.55683,35.13626],[-93.55461,35.13634],[-93.55086,35.13599],[-93.55,35.13579],[-93.54909,35.13504],[-93.54846,35.13485],[-93.54831,35.14085],[-93.54805,35.14167],[-93.54753,35.14261],[-93.5467,35.14328],[-93.54669,35.14342],[-93.54759,35.14352],[-93.54878,35.14319],[-93.54985,35.14371],[-93.55113,35.14282],[-93.55235,35.14269],[-93.55446,35.14314],[-93.55606,35.14322],[-93.55845,35.14409],[-93.56131,35.14544],[-93.56293,35.1467],[-93.56305,35.14761],[-93.56256,35.14834],[-93.56251,35.14866],[-93.56271,35.14898],[-93.56373,35.14989],[-93.56392,35.15029],[-93.56385,35.15076],[-93.5634,35.15134],[-93.56616,35.15076],[-93.57032,35.15096],[-93.57187,35.1512],[-93.57261,35.15177],[-93.57355,35.15391],[-93.57496,35.15433],[-93.57652,35.15543],[-93.57734,35.15617],[-93.57866,35.15633],[-93.5796,35.15631],[-93.58185,35.15561],[-93.58228,35.1556],[-93.58284,35.15578],[-93.58499,35.15877],[-93.5854,35.15909],[-93.58696,35.15917],[-93.58814,35.15974],[-93.58865,35.15982],[-93.58903,35.15976],[-93.58998,35.15923],[-93.59202,35.15843],[-93.59291,35.15853],[-93.59422,35.15827],[-93.59688,35.15844],[-93.60034,35.1581],[-93.60335,35.15809],[-93.60619,35.15826],[-93.60639,35.15844],[-93.60649,35.15882],[-93.60634,35.15913],[-93.60608,35.1593],[-93.60165,35.16002],[-93.59955,35.16061],[-93.59725,35.16107],[-93.59546,35.16185],[-93.59392,35.1623],[-93.59254,35.16279],[-93.59483,35.16214],[-93.60139,35.16129],[-93.60635,35.16163],[-93.60738,35.16186],[-93.60825,35.1622],[-93.61392,35.16515],[-93.61444,35.16557],[-93.61525,35.16668],[-93.6156,35.16693],[-93.61782,35.16745],[-93.62072,35.16673],[-93.62153,35.16679],[-93.62192,35.16707],[-93.62203,35.16735],[-93.62189,35.1694],[-93.6203,35.1729],[-93.61964,35.17375],[-93.62138,35.17348],[-93.62333,35.17365],[-93.62422,35.17356],[-93.627,35.17243],[-93.62882,35.17299],[-93.62983,35.173],[-93.63092,35.17272],[-93.63138,35.17222],[-93.63207,35.17053],[-93.63431,35.1693],[-93.63449,35.16846],[-93.63496,35.16787],[-93.63572,35.16739],[-93.63764,35.16732],[-93.6386,35.16675],[-93.63946,35.1665],[-93.64005,35.16507],[-93.64036,35.16462],[-93.641,35.16415],[-93.64163,35.16394],[-93.64503,35.16394],[-93.64808,35.16412],[-93.6491,35.16447],[-93.65007,35.16421],[-93.65195,35.16448],[-93.65225,35.16463],[-93.65248,35.16496],[-93.65247,35.16603],[-93.65231,35.16663],[-93.65175,35.16768],[-93.65171,35.16842],[-93.65339,35.16872],[-93.6551,35.16937],[-93.65849,35.16946],[-93.65932,35.16918],[-93.66172,35.16739],[-93.66407,35.16683],[-93.66619,35.16649],[-93.66912,35.16487],[-93.67171,35.1639],[-93.6777,35.16374],[-93.67903,35.16329],[-93.68007,35.1631],[-93.68124,35.16331],[-93.68148,35.16373],[-93.68326,35.16363]],[[-93.65113,35.16753],[-93.65177,35.16626],[-93.65186,35.16515],[-93.65022,35.16487],[-93.6491,35.16512],[-93.64789,35.16474],[-93.64499,35.16458],[-93.64173,35.16458],[-93.64129,35.16472],[-93.64076,35.16513],[-93.64019,35.16659],[-93.64018,35.16678],[-93.64066,35.16703],[-93.64103,35.16747],[-93.64148,35.16927],[-93.64261,35.16994],[-93.64317,35.17009],[-93.64502,35.17006],[-93.64958,35.16916],[-93.65102,35.16854],[-93.65113,35.16753]],[[-93.6349,35.213],[-93.64298,35.2133],[-93.64331,35.21366],[-93.64338,35.2158],[-93.64393,35.2165],[-93.64424,35.21668],[-93.64439,35.21701],[-93.64749,35.21702],[-93.64763,35.21657],[-93.64827,35.21619],[-93.65047,35.21566],[-93.65192,35.21586],[-93.65259,35.21515],[-93.65297,35.21494],[-93.65411,35.21516],[-93.6564,35.21505],[-93.65658,35.21449],[-93.65622,35.21327],[-93.65618,35.21259],[-93.65653,35.21117],[-93.65692,35.21056],[-93.65725,35.21044],[-93.65748,35.2105],[-93.65806,35.2111],[-93.65867,35.21131],[-93.65906,35.21071],[-93.66021,35.20996],[-93.66088,35.20933],[-93.66064,35.20862],[-93.66088,35.20807],[-93.66153,35.2079],[-93.6624,35.2082],[-93.66391,35.20837],[-93.66437,35.20784],[-93.66449,35.20715],[-93.66479,35.20689],[-93.66514,35.20691],[-93.66573,35.20741],[-93.66656,35.2088],[-93.66996,35.21053],[-93.67001,35.21013],[-93.66971,35.20875],[-93.66985,35.20838],[-93.67211,35.20745],[-93.67289,35.20739],[-93.67205,35.20689],[-93.67067,35.20663],[-93.67008,35.20633],[-93.66964,35.20587],[-93.66952,35.20556],[-93.66966,35.20429],[-93.67042,35.20281],[-93.67058,35.20091],[-93.67044,35.19914],[-93.67055,35.19705],[-93.67036,35.19622],[-93.67049,35.19463],[-93.66979,35.19365],[-93.66965,35.19191],[-93.66982,35.19141],[-93.67086,35.19063],[-93.67101,35.19016],[-93.67197,35.1892],[-93.67223,35.18871],[-93.67268,35.18835],[-93.67169,35.18815],[-93.67097,35.18765],[-93.66926,35.18497],[-93.66895,35.18499],[-93.66709,35.18613],[-93.66521,35.18632],[-93.6641,35.18608],[-93.66354,35.18569],[-93.66326,35.1853],[-93.66268,35.18502],[-93.66207,35.18543],[-93.6618,35.18622],[-93.66159,35.18646],[-93.6603,35.18686],[-93.65967,35.18751],[-93.65905,35.18746],[-93.65818,35.1864],[-93.65781,35.18643],[-93.65767,35.18745],[-93.6574,35.18793],[-93.6579,35.18883],[-93.658,35.19002],[-93.65753,35.1906],[-93.65697,35.19066],[-93.65446,35.19049],[-93.65225,35.19081],[-93.65149,35.19135],[-93.6495,35.19148],[-93.64752,35.19245],[-93.646,35.19295],[-93.64553,35.19297],[-93.64369,35.19216],[-93.6414,35.18982],[-93.64107,35.18968],[-93.63988,35.18969],[-93.63943,35.18956],[-93.63825,35.18872],[-93.63729,35.18762],[-93.63702,35.18747],[-93.63671,35.18754],[-93.63651,35.18786],[-93.63667,35.18889],[-93.63659,35.19048],[-93.63643,35.191],[-93.63612,35.19128],[-93.63576,35.19142],[-93.63481,35.19147],[-93.63402,35.19221],[-93.63345,35.1923],[-93.63306,35.1921],[-93.63162,35.19056],[-93.63143,35.19049],[-93.63085,35.19126],[-93.63093,35.19227],[-93.63085,35.1937],[-93.63434,35.19635],[-93.63496,35.19711],[-93.63516,35.1977],[-93.63489,35.21092],[-93.6349,35.213]],[[-93.63028,35.231],[-93.62962,35.23056],[-93.62897,35.23035],[-93.62784,35.23038],[-93.62749,35.23009],[-93.62753,35.22926],[-93.62734,35.22908],[-93.62696,35.22894],[-93.62626,35.22902],[-93.62568,35.22865],[-93.62544,35.22819],[-93.62487,35.22756],[-93.62486,35.22731],[-93.62503,35.22714],[-93.62538,35.22719],[-93.62637,35.22839],[-93.62722,35.22833],[-93.62771,35.22855],[-93.62813,35.22901],[-93.6282,35.22884],[-93.62676,35.22732],[-93.62621,35.227],[-93.6256,35.2263],[-93.62505,35.22602],[-93.62476,35.22565],[-93.62463,35.22592],[-93.62467,35.2264],[-93.62432,35.22666],[-93.62404,35.22662],[-93.6229,35.22594],[-93.62259,35.22552],[-93.62263,35.22508],[-93.62285,35.22488],[-93.62378,35.22459],[-93.62252,35.22415],[-93.62199,35.22461],[-93.62152,35.22473],[-93.62131,35.22467],[-93.62102,35.2243],[-93.62105,35.22368],[-93.62067,35.22322],[-93.62068,35.22275],[-93.62095,35.22245],[-93.62149,35.22236],[-93.62284,35.2236],[-93.62507,35.22439],[-93.62536,35.22481],[-93.62538,35.22544],[-93.62601,35.2258],[-93.62645,35.22636],[-93.62718,35.22684],[-93.6285,35.22813],[-93.62884,35.22874],[-93.62859,35.22958],[-93.62871,35.22971],[-93.6299,35.22998],[-93.63085,35.23067],[-93.63273,35.23062],[-93.63464,35.23107],[-93.63574,35.231],[-93.6364,35.23078],[-93.63675,35.23029],[-93.63679,35.23002],[-93.63574,35.22942],[-93.63488,35.22826],[-93.6339,35.22548],[-93.63299,35.22447],[-93.6324,35.22357],[-93.63088,35.22302],[-93.6305,35.22274],[-93.6302,35.22232],[-93.63008,35.22182],[-93.63014,35.22028],[-93.63119,35.21892],[-93.63096,35.21796],[-93.63112,35.21733],[-93.63403,35.21421],[-93.63426,35.21362],[-93.6178,35.21316],[-93.6161,35.2126],[-93.61564,35.21225],[-93.61499,35.21201],[-93.61482,35.2118],[-93.61461,35.2106],[-93.61476,35.21034],[-93.61508,35.21033],[-93.61532,35.21068],[-93.61544,35.21153],[-93.61595,35.21168],[-93.61663,35.21213],[-93.61807,35.21256],[-93.63426,35.21298],[-93.63452,35.1978],[-93.63427,35.1972],[-93.63391,35.19682],[-93.63097,35.19457],[-93.63029,35.19461],[-93.62313,35.19383],[-93.62182,35.19339],[-93.62057,35.19267],[-93.61948,35.19235],[-93.61747,35.19273],[-93.61199,35.19252],[-93.608,35.19329],[-93.6067,35.19422],[-93.60556,35.1956],[-93.6051,35.19684],[-93.60531,35.19779],[-93.60526,35.19811],[-93.6049,35.19853],[-93.60376,35.19907],[-93.60363,35.19924],[-93.6035,35.19968],[-93.60365,35.20119],[-93.60312,35.20202],[-93.6017,35.20322],[-93.59911,35.20469],[-93.59811,35.20508],[-93.59611,35.20494],[-93.5893,35.20571],[-93.58684,35.20508],[-93.58299,35.20376],[-93.58092,35.20342],[-93.5798,35.20354],[-93.57717,35.20424],[-93.57146,35.20457],[-93.56924,35.20433],[-93.56952,35.20498],[-93.56965,35.20658],[-93.57035,35.20868],[-93.57033,35.21083],[-93.57006,35.21252],[-93.57138,35.21335],[-93.57249,35.21368],[-93.57302,35.21412],[-93.57304,35.21541],[-93.57292,35.21598],[-93.57313,35.22362],[-93.57376,35.22442],[-93.57402,35.22454],[-93.57436,35.22455],[-93.57549,35.22399],[-93.57676,35.22391],[-93.57979,35.22473],[-93.5824,35.2258],[-93.58306,35.22623],[-93.58684,35.22957],[-93.58763,35.2308],[-93.5892,35.23462],[-93.58967,35.23649],[-93.59028,35.24206],[-93.59019,35.24554],[-93.59703,35.24585],[-93.59957,35.2471],[-93.60075,35.24737],[-93.61053,35.24774],[-93.61301,35.24799],[-93.61403,35.24848],[-93.61536,35.24952],[-93.61609,35.24976],[-93.6212,35.25013],[-93.62523,35.25007],[-93.62631,35.24866],[-93.62838,35.24681],[-93.62912,35.24645],[-93.63107,35.2462],[-93.63412,35.24602],[-93.64247,35.24627],[-93.63599,35.23745],[-93.63449,35.23643],[-93.63263,35.23597],[-93.63155,35.23552],[-93.62885,35.23362],[-93.62866,35.23326],[-93.62872,35.23288],[-93.63028,35.231]],[[-93.5647,35.15768],[-93.56423,35.15743],[-93.56336,35.15667],[-93.56104,35.1563],[-93.55831,35.15527],[-93.55758,35.15543],[-93.55277,35.15714],[-93.55226,35.15721],[-93.55077,35.15706],[-93.55152,35.15883],[-93.55052,35.16154],[-93.55025,35.1645],[-93.54971,35.1655],[-93.54871,35.16611],[-93.54814,35.16625],[-93.54768,35.16613],[-93.54576,35.16616],[-93.54276,35.16578],[-93.54091,35.16592],[-93.54034,35.16625],[-93.54027,35.1667],[-93.54005,35.16705],[-93.53909,35.16756],[-93.53864,35.16811],[-93.53806,35.16967],[-93.53803,35.17087],[-93.53779,35.17127],[-93.53644,35.17201],[-93.53337,35.17331],[-93.53272,35.17441],[-93.53183,35.17554],[-93.52935,35.17802],[-93.5292,35.17829],[-93.5291,35.17999],[-93.52869,35.1806],[-93.52698,35.18236],[-93.52674,35.18377],[-93.52652,35.18435],[-93.52509,35.18715],[-93.52502,35.18767],[-93.52517,35.18843],[-93.52505,35.18881],[-93.52481,35.18902],[-93.52418,35.18915],[-93.52342,35.18887],[-93.52273,35.18833],[-93.52257,35.18837],[-93.52193,35.18887],[-93.51999,35.18941],[-93.51864,35.19017],[-93.51828,35.1904],[-93.51757,35.19148],[-93.51699,35.19172],[-93.51578,35.1925],[-93.51185,35.19347],[-93.51183,35.19413],[-93.51258,35.19526],[-93.51257,35.19574],[-93.51225,35.19615],[-93.51031,35.19755],[-93.5099,35.19823],[-93.51094,35.19862],[-93.51219,35.19846],[-93.51277,35.19852],[-93.5169,35.19951],[-93.52191,35.19984],[-93.52422,35.19927],[-93.5248,35.199],[-93.52514,35.19876],[-93.52611,35.19753],[-93.52714,35.19668],[-93.52767,35.19648],[-93.53083,35.19605],[-93.53216,35.19619],[-93.53761,35.19625],[-93.5412,35.1967],[-93.54264,35.19601],[-93.54347,35.19583],[-93.54557,35.19426],[-93.54613,35.19409],[-93.54721,35.19411],[-93.54799,35.19433],[-93.55197,35.19681],[-93.55417,35.19724],[-93.55451,35.19754],[-93.55487,35.19857],[-93.55522,35.199],[-93.55877,35.2018],[-93.5612,35.20262],[-93.56315,35.20288],[-93.56474,35.20357],[-93.56728,35.20343],[-93.57147,35.20393],[-93.5771,35.20361],[-93.57966,35.20291],[-93.58096,35.20278],[-93.58315,35.20314],[-93.58828,35.20485],[-93.58969,35.20506],[-93.59606,35.20431],[-93.59804,35.20444],[-93.59882,35.20412],[-93.60178,35.20241],[-93.60302,35.20107],[-93.60285,35.19966],[-93.60308,35.19892],[-93.60336,35.19856],[-93.60466,35.19787],[-93.60446,35.19679],[-93.60501,35.19527],[-93.60625,35.19376],[-93.60779,35.19268],[-93.61193,35.19189],[-93.61744,35.19209],[-93.61952,35.19171],[-93.62081,35.19207],[-93.62211,35.19282],[-93.62326,35.19321],[-93.62992,35.19392],[-93.62285,35.19063],[-93.62211,35.18996],[-93.62182,35.18922],[-93.62174,35.18847],[-93.62136,35.18786],[-93.62067,35.18749],[-93.61905,35.18725],[-93.61829,35.18701],[-93.61712,35.18567],[-93.61681,35.18553],[-93.61635,35.18556],[-93.61544,35.18591],[-93.61255,35.18615],[-93.61195,35.18603],[-93.61073,35.18551],[-93.60938,35.18562],[-93.60806,35.18535],[-93.6065,35.18533],[-93.6032,35.18406],[-93.60269,35.18409],[-93.60107,35.1846],[-93.60041,35.18461],[-93.59833,35.18366],[-93.59036,35.18113],[-93.5879,35.18093],[-93.58495,35.18027],[-93.58248,35.18016],[-93.58178,35.17992],[-93.58143,35.17945],[-93.58143,35.17896],[-93.5817,35.17854],[-93.58343,35.17724],[-93.58393,35.17702],[-93.58659,35.1765],[-93.58936,35.1755],[-93.59007,35.17535],[-93.59333,35.17513],[-93.60369,35.17687],[-93.61137,35.17642],[-93.61504,35.17595],[-93.61645,35.17532],[-93.61904,35.17343],[-93.61951,35.17295],[-93.62126,35.16926],[-93.62136,35.16742],[-93.62081,35.16737],[-93.61867,35.16797],[-93.61782,35.16809],[-93.61538,35.16753],[-93.61478,35.16711],[-93.61399,35.16602],[-93.61359,35.1657],[-93.60797,35.16278],[-93.60626,35.16226],[-93.60143,35.16193],[-93.59493,35.16277],[-93.59247,35.16348],[-93.59201,35.16345],[-93.59168,35.16313],[-93.59171,35.16263],[-93.5921,35.16229],[-93.59524,35.16125],[-93.59707,35.16045],[-93.59939,35.15999],[-93.60153,35.15939],[-93.60478,35.15887],[-93.60333,35.15873],[-93.60036,35.15874],[-93.5969,35.15908],[-93.59421,35.15891],[-93.59294,35.15917],[-93.59209,35.15907],[-93.59025,35.15981],[-93.58926,35.16036],[-93.58862,35.16046],[-93.58795,35.16035],[-93.58681,35.15979],[-93.58556,35.15978],[-93.58494,35.15957],[-93.58449,35.15916],[-93.58255,35.15638],[-93.58226,35.15661],[-93.58159,35.15668],[-93.58006,35.15737],[-93.57725,35.15762],[-93.57275,35.15724],[-93.57041,35.1572],[-93.5673,35.15779],[-93.56559,35.15787],[-93.5647,35.15768]],[[-93.55001,35.15678],[-93.54829,35.15558],[-93.54671,35.1548],[-93.54563,35.15491],[-93.54322,35.15544],[-93.54143,35.15516],[-93.53934,35.15415],[-93.5386,35.15406],[-93.53529,35.15542],[-93.5342,35.15614],[-93.53348,35.1563],[-93.53204,35.15636],[-93.53042,35.15613],[-93.52938,35.1562],[-93.52505,35.15584],[-93.52299,35.15552],[-93.52013,35.15585],[-93.51694,35.15592],[-93.51445,35.15667],[-93.51214,35.15783],[-93.51309,35.16174],[-93.51356,35.16295],[-93.51365,35.16407],[-93.51403,35.16503],[-93.51388,35.16541],[-93.51335,35.16565],[-93.5127,35.16638],[-93.51266,35.16723],[-93.51321,35.16783],[-93.51436,35.16835],[-93.51462,35.16871],[-93.51449,35.16911],[-93.51352,35.1695],[-93.51312,35.16995],[-93.51297,35.17053],[-93.51304,35.17148],[-93.5142,35.17244],[-93.5148,35.17206],[-93.51543,35.17199],[-93.51615,35.17228],[-93.51691,35.17312],[-93.51758,35.1729],[-93.518,35.17298],[-93.51828,35.17328],[-93.51827,35.17358],[-93.5178,35.17404],[-93.51778,35.17436],[-93.51753,35.17467],[-93.51832,35.17502],[-93.51949,35.1759],[-93.51975,35.17651],[-93.52036,35.17637],[-93.52159,35.17643],[-93.52241,35.17702],[-93.52269,35.17655],[-93.52311,35.17501],[-93.52419,35.1738],[-93.52535,35.17369],[-93.52613,35.17347],[-93.52712,35.17253],[-93.52835,35.17192],[-93.52903,35.17136],[-93.53091,35.17111],[-93.53242,35.16978],[-93.53333,35.16977],[-93.53468,35.16942],[-93.53478,35.16899],[-93.53468,35.1683],[-93.53485,35.16783],[-93.53521,35.16741],[-93.53593,35.16697],[-93.53639,35.16643],[-93.53655,35.16591],[-93.53703,35.16553],[-93.53845,35.16532],[-93.53999,35.16572],[-93.54075,35.16529],[-93.54274,35.16514],[-93.54578,35.16552],[-93.54777,35.16549],[-93.54814,35.16561],[-93.54928,35.16503],[-93.5497,35.16401],[-93.5499,35.16139],[-93.55086,35.15873],[-93.55001,35.15678]],[[-93.51267,35.19268],[-93.51429,35.19214],[-93.51553,35.19191],[-93.51719,35.19096],[-93.51781,35.18996],[-93.51831,35.18963],[-93.51974,35.18882],[-93.52166,35.18829],[-93.52232,35.18777],[-93.52293,35.18771],[-93.52398,35.18844],[-93.52452,35.18844],[-93.52438,35.18771],[-93.52447,35.18699],[-93.52593,35.1841],[-93.52639,35.18212],[-93.52677,35.18155],[-93.52819,35.18019],[-93.52853,35.1797],[-93.52856,35.17822],[-93.52882,35.17766],[-93.52952,35.17683],[-93.53135,35.17511],[-93.53296,35.17282],[-93.53734,35.17081],[-93.53744,35.16952],[-93.53807,35.16782],[-93.53869,35.16706],[-93.5396,35.16659],[-93.53969,35.16629],[-93.53839,35.16596],[-93.53724,35.16614],[-93.53706,35.16631],[-93.53691,35.16681],[-93.53641,35.16739],[-93.5354,35.16816],[-93.53531,35.1684],[-93.53539,35.16926],[-93.53526,35.16971],[-93.53504,35.16995],[-93.53345,35.1704],[-93.53267,35.17037],[-93.53123,35.17167],[-93.53074,35.17183],[-93.52931,35.17194],[-93.52868,35.17247],[-93.52749,35.17305],[-93.52643,35.17403],[-93.52545,35.17432],[-93.52452,35.17435],[-93.52366,35.17533],[-93.52321,35.17699],[-93.52268,35.1776],[-93.52204,35.17758],[-93.52145,35.17705],[-93.51925,35.17714],[-93.51903,35.17687],[-93.51906,35.17638],[-93.51799,35.17556],[-93.51701,35.17511],[-93.51683,35.17485],[-93.51683,35.17457],[-93.51512,35.17483],[-93.51394,35.17532],[-93.51275,35.17667],[-93.51064,35.17797],[-93.50962,35.17919],[-93.50927,35.18096],[-93.50981,35.18241],[-93.51099,35.18437],[-93.5117,35.18514],[-93.51207,35.18584],[-93.51204,35.18679],[-93.51141,35.18814],[-93.51134,35.18899],[-93.51195,35.19142],[-93.5119,35.19282],[-93.51267,35.19268]],[[-93.42358,35.15547],[-93.42428,35.15508],[-93.42499,35.15499],[-93.42442,35.15416],[-93.42375,35.15425],[-93.42329,35.1546],[-93.42314,35.15514],[-93.42358,35.15547]],[[-93.3751,35.18759],[-93.37353,35.18711],[-93.37001,35.18631],[-93.36419,35.18613],[-93.36205,35.18644],[-93.35634,35.1864],[-93.35268,35.18622],[-93.35192,35.18606],[-93.35181,35.19369],[-93.35301,35.19338],[-93.3592,35.19261],[-93.36293,35.19156],[-93.3652,35.19119],[-93.36899,35.19083],[-93.3734,35.18917],[-93.37682,35.18842],[-93.3751,35.18759]],[[-93.41612,35.22068],[-93.41633,35.21498],[-93.41501,35.21312],[-93.41362,35.21161],[-93.41325,35.21096],[-93.41284,35.20976],[-93.41242,35.20737],[-93.41106,35.20507],[-93.41086,35.20415],[-93.4102,35.20306],[-93.40994,35.2018],[-93.40959,35.201],[-93.40911,35.20029],[-93.40825,35.19938],[-93.40699,35.19838],[-93.40059,35.19521],[-93.39688,35.19283],[-93.39464,35.19223],[-93.39309,35.19157],[-93.3909,35.19101],[-93.38881,35.19031],[-93.38253,35.18909],[-93.38085,35.18896],[-93.38099,35.18968],[-93.38228,35.19095],[-93.38444,35.19531],[-93.38442,35.19582],[-93.38392,35.19699],[-93.38398,35.1978],[-93.38379,35.19846],[-93.38361,35.20074],[-93.38349,35.20104],[-93.38319,35.20139],[-93.38271,35.20158],[-93.37967,35.2019],[-93.37904,35.20213],[-93.37864,35.20243],[-93.37804,35.20359],[-93.37726,35.20441],[-93.37538,35.20515],[-93.37467,35.20568],[-93.37422,35.20573],[-93.37344,35.20548],[-93.37207,35.20535],[-93.37132,35.20548],[-93.37103,35.20567],[-93.36981,35.20725],[-93.37025,35.20826],[-93.37025,35.20862],[-93.36991,35.20959],[-93.37167,35.21046],[-93.37194,35.21129],[-93.37274,35.21218],[-93.37339,35.21368],[-93.37337,35.2141],[-93.37288,35.21493],[-93.37277,35.2162],[-93.37292,35.21718],[-93.37323,35.21745],[-93.37369,35.21758],[-93.37497,35.21721],[-93.37566,35.21729],[-93.37618,35.2176],[-93.37656,35.21809],[-93.37763,35.22129],[-93.3771,35.22281],[-93.37635,35.22392],[-93.37641,35.22461],[-93.37659,35.22503],[-93.37775,35.22603],[-93.37828,35.22694],[-93.37883,35.22736],[-93.38072,35.22743],[-93.38176,35.22726],[-93.3836,35.22752],[-93.38438,35.22747],[-93.38533,35.22723],[-93.38781,35.22769],[-93.39155,35.2277],[-93.39243,35.22795],[-93.39334,35.22871],[-93.39413,35.22869],[-93.39539,35.22844],[-93.3972,35.22894],[-93.3983,35.22883],[-93.39999,35.22841],[-93.4012,35.22836],[-93.40226,35.22811],[-93.4034,35.22839],[-93.40375,35.22836],[-93.4056,35.22728],[-93.40636,35.22657],[-93.40692,35.22545],[-93.40704,35.22409],[-93.40738,35.22365],[-93.40793,35.22345],[-93.4089,35.22345],[-93.40947,35.22326],[-93.40971,35.22305],[-93.41027,35.2221],[-93.41114,35.22145],[-93.41291,35.22133],[-93.41372,35.2209],[-93.41487,35.22063],[-93.41612,35.22068]],[[-93.62202,35.22375],[-93.62164,35.2234],[-93.62166,35.22404],[-93.62202,35.22375]],[[-93.62162,35.22337],[-93.62156,35.22329],[-93.62162,35.22337],[-93.62162,35.22337]],[[-93.62327,35.22541],[-93.62398,35.22585],[-93.62414,35.22546],[-93.62407,35.22521],[-93.62327,35.22541]]],[[[-93.7826,35.21129],[-93.78292,35.21168],[-93.78284,35.21191],[-93.78262,35.21202],[-93.78191,35.21155],[-93.7818,35.21132],[-93.78188,35.21109],[-93.7821,35.21099],[-93.7826,35.21129]]],[[[-93.77139,35.22135],[-93.77172,35.22304],[-93.77147,35.2234],[-93.76978,35.22425],[-93.76944,35.22473],[-93.76905,35.22463],[-93.76906,35.22414],[-93.76929,35.22382],[-93.7711,35.22287],[-93.77075,35.22139],[-93.77078,35.22111],[-93.77107,35.2208],[-93.77131,35.22081],[-93.77148,35.22099],[-93.77139,35.22135]]],[[[-93.58163,35.13447],[-93.57958,35.13432],[-93.57868,35.13364],[-93.57858,35.13341],[-93.57866,35.13318],[-93.57889,35.13308],[-93.57914,35.13316],[-93.57986,35.13374],[-93.58129,35.13378],[-93.58172,35.13388],[-93.58188,35.1341],[-93.58183,35.13434],[-93.58163,35.13447]]]]}}]}