{"type":"FeatureCollection","features":[{"type":"Feature","geometry":{"type":"Point","coordinates":[-93.59534,35.17985]},"properties":{"layer":"saddles","name":"saddles-01","description":"DEM-derived saddles; elev 2023 ft; slope 12 deg; aspect 172 deg; ~268 m from nearest AGFC-mapped road. USGS 3DEP ~10 m (py3dep), analysis grid ~26 m, 2026-10-05. Scout on foot to confirm.","lat":35.17985,"lon":-93.59534,"elevation_ft":2023.0,"slope_deg":11.9,"aspect_deg":172.0,"cluster_pixels":6313,"dist_road_m":268.0}},{"type":"Feature","geometry":{"type":"Point","coordinates":[-93.68538,35.21304]},"properties":{"layer":"saddles","name":"saddles-02","description":"DEM-derived saddles; elev 705 ft; slope 11 deg; aspect 195 deg; ~1114 m from nearest AGFC-mapped road. USGS 3DEP ~10 m (py3dep), analysis grid ~26 m, 2026-10-05. Scout on foot to confirm.","lat":35.21304,"lon":-93.68538,"elevation_ft":705.0,"slope_deg":10.9,"aspect_deg":195.0,"cluster_pixels":4906,"dist_road_m":1114.0}},{"type":"Feature","geometry":{"type":"Point","coordinates":[-93.47786,35.22133]},"properties":{"layer":"saddles","name":"saddles-03","description":"DEM-derived saddles; elev 1654 ft; slope 9 deg; aspect 179 deg; ~3277 m from nearest AGFC-mapped road. USGS 3DEP ~10 m (py3dep), analysis grid ~26 m, 2026-10-05. Scout on foot to confirm.","lat":35.22133,"lon":-93.47786,"elevation_ft":1654.0,"slope_deg":8.9,"aspect_deg":179.0,"cluster_pixels":4536,"dist_road_m":3277.0}},{"type":"Feature","geometry":{"type":"Point","coordinates":[-93.4574,35.27343]},"properties":{"layer":"saddles","name":"saddles-04","description":"DEM-derived saddles; elev 463 ft; slope 10 deg; aspect 255 deg; ~4236 m from nearest AGFC-mapped road. USGS 3DEP ~10 m (py3dep), analysis grid ~26 m, 2026-10-05. Scout on foot to confirm.","lat":35.27343,"lon":-93.4574,"elevation_ft":463.0,"slope_deg":9.9,"aspect_deg":255.0,"cluster_pixels":4008,"dist_road_m":4236.0}},{"type":"Feature","geometry":{"type":"Point","coordinates":[-93.48458,35.25402]},"properties":{"layer":"saddles","name":"saddles-05","description":"DEM-derived saddles; elev 1047 ft; slope 10 deg; aspect 160 deg; ~6671 m from nearest AGFC-mapped road. USGS 3DEP ~10 m (py3dep), analysis grid ~26 m, 2026-10-05. Scout on foot to confirm.","lat":35.25402,"lon":-93.48458,"elevation_ft":1047.0,"slope_deg":9.7,"aspect_deg":160.0,"cluster_pixels":3572,"dist_road_m":6671.0}},{"type":"Feature","geometry":{"type":"Point","coordinates":[-93.70354,35.19363]},"properties":{"layer":"saddles","name":"saddles-06","description":"DEM-derived saddles; elev 1203 ft; slope 9 deg; aspect 204 deg; ~35 m from nearest AGFC-mapped road. USGS 3DEP ~10 m (py3dep), analysis grid ~26 m, 2026-10-05. Scout on foot to confirm.","lat":35.19363,"lon":-93.70354,"elevation_ft":1203.0,"slope_deg":9.1,"aspect_deg":204.0,"cluster_pixels":3326,"dist_road_m":35.0}},{"type":"Feature","geometry":{"type":"Point","coordinates":[-93.52143,35.18459]},"properties":{"layer":"saddles","name":"saddles-07","description":"DEM-derived saddles; elev 1346 ft; slope 10 deg; aspect 154 deg; ~403 m from nearest AGFC-mapped road. USGS 3DEP ~10 m (py3dep), analysis grid ~26 m, 2026-10-05. Scout on foot to confirm.","lat":35.18459,"lon":-93.52143,"elevation_ft":1346.0,"slope_deg":10.1,"aspect_deg":154.0,"cluster_pixels":2709,"dist_road_m":403.0}},{"type":"Feature","geometry":{"type":"Point","coordinates":[-93.54062,35.25986]},"properties":{"layer":"saddles","name":"saddles-08","description":"DEM-derived saddles; elev 869 ft; slope 10 deg; aspect 129 deg; ~5365 m from nearest AGFC-mapped road. USGS 3DEP ~10 m (py3dep), analysis grid ~26 m, 2026-10-05. Scout on foot to confirm.","lat":35.25986,"lon":-93.54062,"elevation_ft":869.0,"slope_deg":10.3,"aspect_deg":129.0,"cluster_pixels":2697,"dist_road_m":5365.0}},{"type":"Feature","geometry":{"type":"Point","coordinates":[-93.3998,35.21963]},"properties":{"layer":"saddles","name":"saddles-09","description":"DEM-derived saddles; elev 1194 ft; slope 10 deg; aspect 181 deg; ~980 m from nearest AGFC-mapped road. USGS 3DEP ~10 m (py3dep), analysis grid ~26 m, 2026-10-05. Scout on foot to confirm.","lat":35.21963,"lon":-93.3998,"elevation_ft":1194.0,"slope_deg":9.7,"aspect_deg":181.0,"cluster_pixels":2504,"dist_road_m":980.0}},{"type":"Feature","geometry":{"type":"Point","coordinates":[-93.60825,35.25544]},"properties":{"layer":"saddles","name":"saddles-10","description":"DEM-derived saddles; elev 1093 ft; slope 10 deg; aspect 197 deg; ~830 m from nearest AGFC-mapped road. USGS 3DEP ~10 m (py3dep), analysis grid ~26 m, 2026-10-05. Scout on foot to confirm.","lat":35.25544,"lon":-93.60825,"elevation_ft":1093.0,"slope_deg":9.7,"aspect_deg":197.0,"cluster_pixels":2393,"dist_road_m":830.0}},{"type":"Feature","geometry":{"type":"Point","coordinates":[-93.6881,35.15148]},"properties":{"layer":"saddles","name":"saddles-11","description":"DEM-derived saddles; elev 1434 ft; slope 12 deg; aspect 188 deg; ~1491 m from nearest AGFC-mapped road. USGS 3DEP ~10 m (py3dep), analysis grid ~26 m, 2026-10-05. Scout on foot to confirm.","lat":35.15148,"lon":-93.6881,"elevation_ft":1434.0,"slope_deg":12.0,"aspect_deg":188.0,"cluster_pixels":2248,"dist_road_m":1491.0}},{"type":"Feature","geometry":{"type":"Point","coordinates":[-93.4557,35.21156]},"properties":{"layer":"saddles","name":"saddles-12","description":"DEM-derived saddles; elev 890 ft; slope 9 deg; aspect 153 deg; ~1702 m from nearest AGFC-mapped road. USGS 3DEP ~10 m (py3dep), analysis grid ~26 m, 2026-10-05. Scout on foot to confirm.","lat":35.21156,"lon":-93.4557,"elevation_ft":890.0,"slope_deg":9.3,"aspect_deg":153.0,"cluster_pixels":2173,"dist_road_m":1702.0}},{"type":"Feature","geometry":{"type":"Point","coordinates":[-93.37864,35.18104]},"properties":{"layer":"saddles","name":"saddles-13","description":"DEM-derived saddles; elev 602 ft; slope 14 deg; aspect 55 deg; ~623 m from nearest AGFC-mapped road. USGS 3DEP ~10 m (py3dep), analysis grid ~26 m, 2026-10-05. Scout on foot to confirm.","lat":35.18104,"lon":-93.37864,"elevation_ft":602.0,"slope_deg":13.9,"aspect_deg":55.0,"cluster_pixels":2043,"dist_road_m":623.0}},{"type":"Feature","geometry":{"type":"Point","coordinates":[-93.40029,35.26475]},"properties":{"layer":"saddles","name":"saddles-14","description":"DEM-derived saddles; elev 619 ft; slope 7 deg; aspect 45 deg; ~1248 m from nearest AGFC-mapped road. USGS 3DEP ~10 m (py3dep), analysis grid ~26 m, 2026-10-05. Scout on foot to confirm.","lat":35.26475,"lon":-93.40029,"elevation_ft":619.0,"slope_deg":7.5,"aspect_deg":45.0,"cluster_pixels":1898,"dist_road_m":1248.0}},{"type":"Feature","geometry":{"type":"Point","coordinates":[-93.70701,35.15464]},"properties":{"layer":"saddles","name":"saddles-15","description":"DEM-derived saddles; elev 1394 ft; slope 11 deg; aspect 237 deg; ~1938 m from nearest AGFC-mapped road. USGS 3DEP ~10 m (py3dep), analysis grid ~26 m, 2026-10-05. Scout on foot to confirm.","lat":35.15464,"lon":-93.70701,"elevation_ft":1394.0,"slope_deg":11.2,"aspect_deg":237.0,"cluster_pixels":1886,"dist_road_m":1938.0}},{"type":"Feature","geometry":{"type":"Point","coordinates":[-93.71858,35.17254]},"properties":{"layer":"saddles","name":"saddles-16","description":"DEM-derived saddles; elev 1085 ft; slope 10 deg; aspect 234 deg; ~441 m from nearest AGFC-mapped road. USGS 3DEP ~10 m (py3dep), analysis grid ~26 m, 2026-10-05. Scout on foot to confirm.","lat":35.17254,"lon":-93.71858,"elevation_ft":1085.0,"slope_deg":9.8,"aspect_deg":234.0,"cluster_pixels":1881,"dist_road_m":441.0}},{"type":"Feature","geometry":{"type":"Point","coordinates":[-93.58101,35.1591]},"properties":{"layer":"saddles","name":"saddles-17","description":"DEM-derived saddles; elev 1512 ft; slope 11 deg; aspect 129 deg; ~252 m from nearest AGFC-mapped road. USGS 3DEP ~10 m (py3dep), analysis grid ~26 m, 2026-10-05. Scout on foot to confirm.","lat":35.1591,"lon":-93.58101,"elevation_ft":1512.0,"slope_deg":10.8,"aspect_deg":129.0,"cluster_pixels":1793,"dist_road_m":252.0}},{"type":"Feature","geometry":{"type":"Point","coordinates":[-93.65841,35.16159]},"properties":{"layer":"saddles","name":"saddles-18","description":"DEM-derived saddles; elev 2098 ft; slope 15 deg; aspect 181 deg; ~779 m from nearest AGFC-mapped road. USGS 3DEP ~10 m (py3dep), analysis grid ~26 m, 2026-10-05. Scout on foot to confirm.","lat":35.16159,"lon":-93.65841,"elevation_ft":2098.0,"slope_deg":14.9,"aspect_deg":181.0,"cluster_pixels":1598,"dist_road_m":779.0}},{"type":"Feature","geometry":{"type":"Point","coordinates":[-93.51699,35.23263]},"properties":{"layer":"saddles","name":"saddles-19","description":"DEM-derived saddles; elev 759 ft; slope 12 deg; aspect 258 deg; ~3642 m from nearest AGFC-mapped road. USGS 3DEP ~10 m (py3dep), analysis grid ~26 m, 2026-10-05. Scout on foot to confirm.","lat":35.23263,"lon":-93.51699,"elevation_ft":759.0,"slope_deg":11.6,"aspect_deg":258.0,"cluster_pixels":1583,"dist_road_m":3642.0}},{"type":"Feature","geometry":{"type":"Point","coordinates":[-93.56587,35.19133]},"properties":{"layer":"saddles","name":"saddles-20","description":"DEM-derived saddles; elev 1323 ft; slope 10 deg; aspect 128 deg; ~1357 m from nearest AGFC-mapped road. USGS 3DEP ~10 m (py3dep), analysis grid ~26 m, 2026-10-05. Scout on foot to confirm.","lat":35.19133,"lon":-93.56587,"elevation_ft":1323.0,"slope_deg":9.9,"aspect_deg":128.0,"cluster_pixels":1578,"dist_road_m":1357.0}},{"type":"Feature","geometry":{"type":"Point","coordinates":[-93.45205,35.24356]},"properties":{"layer":"saddles","name":"saddles-21","description":"DEM-derived saddles; elev 1389 ft; slope 10 deg; aspect 164 deg; ~3599 m from nearest AGFC-mapped road. USGS 3DEP ~10 m (py3dep), analysis grid ~26 m, 2026-10-05. Scout on foot to confirm.","lat":35.24356,"lon":-93.45205,"elevation_ft":1389.0,"slope_deg":9.6,"aspect_deg":164.0,"cluster_pixels":1548,"dist_road_m":3599.0}},{"type":"Feature","geometry":{"type":"Point","coordinates":[-93.64617,35.14763]},"properties":{"layer":"saddles","name":"saddles-22","description":"DEM-derived saddles; elev 999 ft; slope 11 deg; aspect 176 deg; ~468 m from nearest AGFC-mapped road. USGS 3DEP ~10 m (py3dep), analysis grid ~26 m, 2026-10-05. Scout on foot to confirm.","lat":35.14763,"lon":-93.64617,"elevation_ft":999.0,"slope_deg":11.3,"aspect_deg":176.0,"cluster_pixels":1390,"dist_road_m":468.0}},{"type":"Feature","geometry":{"type":"Point","coordinates":[-93.6439,35.18385]},"properties":{"layer":"saddles","name":"saddles-23","description":"DEM-derived saddles; elev 1844 ft; slope 12 deg; aspect 159 deg; ~683 m from nearest AGFC-mapped road. USGS 3DEP ~10 m (py3dep), analysis grid ~26 m, 2026-10-05. Scout on foot to confirm.","lat":35.18385,"lon":-93.6439,"elevation_ft":1844.0,"slope_deg":11.7,"aspect_deg":159.0,"cluster_pixels":1326,"dist_road_m":683.0}},{"type":"Feature","geometry":{"type":"Point","coordinates":[-93.65621,35.15829]},"properties":{"layer":"saddles","name":"saddles-24","description":"DEM-derived saddles; elev 1810 ft; slope 13 deg; aspect 173 deg; ~867 m from nearest AGFC-mapped road. USGS 3DEP ~10 m (py3dep), analysis grid ~26 m, 2026-10-05. Scout on foot to confirm.","lat":35.15829,"lon":-93.65621,"elevation_ft":1810.0,"slope_deg":12.7,"aspect_deg":173.0,"cluster_pixels":1300,"dist_road_m":867.0}},{"type":"Feature","geometry":{"type":"Point","coordinates":[-93.59065,35.19161]},"properties":{"layer":"saddles","name":"saddles-25","description":"DEM-derived saddles; elev 1436 ft; slope 12 deg; aspect 209 deg; ~1138 m from nearest AGFC-mapped road. USGS 3DEP ~10 m (py3dep), analysis grid ~26 m, 2026-10-05. Scout on foot to confirm.","lat":35.19161,"lon":-93.59065,"elevation_ft":1436.0,"slope_deg":11.7,"aspect_deg":209.0,"cluster_pixels":1234,"dist_road_m":1138.0}},{"type":"Feature","geometry":{"type":"Point","coordinates":[-93.48391,35.2654]},"properties":{"layer":"saddles","name":"saddles-27","description":"DEM-derived saddles; elev 667 ft; slope 11 deg; aspect 180 deg; ~7185 m from nearest AGFC-mapped road. USGS 3DEP ~10 m (py3dep), analysis grid ~26 m, 2026-10-05. Scout on foot to confirm.","lat":35.2654,"lon":-93.48391,"elevation_ft":667.0,"slope_deg":11.2,"aspect_deg":180.0,"cluster_pixels":1217,"dist_road_m":7185.0}},{"type":"Feature","geometry":{"type":"Point","coordinates":[-93.43669,35.22858]},"properties":{"layer":"saddles","name":"saddles-28","description":"DEM-derived saddles; elev 1010 ft; slope 10 deg; aspect 80 deg; ~1211 m from nearest AGFC-mapped road. USGS 3DEP ~10 m (py3dep), analysis grid ~26 m, 2026-10-05. Scout on foot to confirm.","lat":35.22858,"lon":-93.43669,"elevation_ft":1010.0,"slope_deg":10.3,"aspect_deg":80.0,"cluster_pixels":1204,"dist_road_m":1211.0}},{"type":"Feature","geometry":{"type":"Point","coordinates":[-93.6135,35.14232]},"properties":{"layer":"saddles","name":"saddles-29","description":"DEM-derived saddles; elev 861 ft; slope 12 deg; aspect 182 deg; ~344 m from nearest AGFC-mapped road. USGS 3DEP ~10 m (py3dep), analysis grid ~26 m, 2026-10-05. Scout on foot to confirm.","lat":35.14232,"lon":-93.6135,"elevation_ft":861.0,"slope_deg":11.8,"aspect_deg":182.0,"cluster_pixels":1132,"dist_road_m":344.0}},{"type":"Feature","geometry":{"type":"Point","coordinates":[-93.43724,35.19488]},"properties":{"layer":"saddles","name":"saddles-30","description":"DEM-derived saddles; elev 659 ft; slope 10 deg; aspect 144 deg; ~923 m from nearest AGFC-mapped road. USGS 3DEP ~10 m (py3dep), analysis grid ~26 m, 2026-10-05. Scout on foot to confirm.","lat":35.19488,"lon":-93.43724,"elevation_ft":659.0,"slope_deg":10.4,"aspect_deg":144.0,"cluster_pixels":1124,"dist_road_m":923.0}},{"type":"Feature","geometry":{"type":"Point","coordinates":[-93.40365,35.25901]},"properties":{"layer":"saddles","name":"saddles-31","description":"DEM-derived saddles; elev 604 ft; slope 12 deg; aspect 213 deg; ~599 m from nearest AGFC-mapped road. USGS 3DEP ~10 m (py3dep), analysis grid ~26 m, 2026-10-05. Scout on foot to confirm.","lat":35.25901,"lon":-93.40365,"elevation_ft":604.0,"slope_deg":11.5,"aspect_deg":213.0,"cluster_pixels":1101,"dist_road_m":599.0}},{"type":"Feature","geometry":{"type":"Point","coordinates":[-93.50723,35.24893]},"properties":{"layer":"saddles","name":"saddles-32","description":"DEM-derived saddles; elev 869 ft; slope 11 deg; aspect 236 deg; ~5569 m from nearest AGFC-mapped road. USGS 3DEP ~10 m (py3dep), analysis grid ~26 m, 2026-10-05. Scout on foot to confirm.","lat":35.24893,"lon":-93.50723,"elevation_ft":869.0,"slope_deg":10.9,"aspect_deg":236.0,"cluster_pixels":1055,"dist_road_m":5569.0}},{"type":"Feature","geometry":{"type":"Point","coordinates":[-93.5257,35.23978]},"properties":{"layer":"saddles","name":"saddles-33","description":"DEM-derived saddles; elev 809 ft; slope 11 deg; aspect 78 deg; ~4430 m from nearest AGFC-mapped road. USGS 3DEP ~10 m (py3dep), analysis grid ~26 m, 2026-10-05. Scout on foot to confirm.","lat":35.23978,"lon":-93.5257,"elevation_ft":809.0,"slope_deg":11.4,"aspect_deg":78.0,"cluster_pixels":1034,"dist_road_m":4430.0}},{"type":"Feature","geometry":{"type":"Point","coordinates":[-93.65983,35.20951]},"properties":{"layer":"saddles","name":"saddles-34","description":"DEM-derived saddles; elev 1101 ft; slope 10 deg; aspect 267 deg; ~99 m from nearest AGFC-mapped road. USGS 3DEP ~10 m (py3dep), analysis grid ~26 m, 2026-10-05. Scout on foot to confirm.","lat":35.20951,"lon":-93.65983,"elevation_ft":1101.0,"slope_deg":10.3,"aspect_deg":267.0,"cluster_pixels":1023,"dist_road_m":99.0}},{"type":"Feature","geometry":{"type":"Point","coordinates":[-93.62678,35.23442]},"properties":{"layer":"saddles","name":"saddles-35","description":"DEM-derived saddles; elev 1085 ft; slope 11 deg; aspect 168 deg; ~278 m from nearest AGFC-mapped road. USGS 3DEP ~10 m (py3dep), analysis grid ~26 m, 2026-10-05. Scout on foot to confirm.","lat":35.23442,"lon":-93.62678,"elevation_ft":1085.0,"slope_deg":11.1,"aspect_deg":168.0,"cluster_pixels":1015,"dist_road_m":278.0}},{"type":"Feature","geometry":{"type":"Point","coordinates":[-93.49287,35.15911]},"properties":{"layer":"saddles","name":"saddles-36","description":"DEM-derived saddles; elev 905 ft; slope 8 deg; aspect 203 deg; ~191 m from nearest AGFC-mapped road. USGS 3DEP ~10 m (py3dep), analysis grid ~26 m, 2026-10-05. Scout on foot to confirm.","lat":35.15911,"lon":-93.49287,"elevation_ft":905.0,"slope_deg":8.4,"aspect_deg":203.0,"cluster_pixels":978,"dist_road_m":191.0}},{"type":"Feature","geometry":{"type":"Point","coordinates":[-93.53424,35.17161]},"properties":{"layer":"saddles","name":"saddles-37","description":"DEM-derived saddles; elev 1221 ft; slope 10 deg; aspect 154 deg; ~95 m from nearest AGFC-mapped road. USGS 3DEP ~10 m (py3dep), analysis grid ~26 m, 2026-10-05. Scout on foot to confirm.","lat":35.17161,"lon":-93.53424,"elevation_ft":1221.0,"slope_deg":10.0,"aspect_deg":154.0,"cluster_pixels":976,"dist_road_m":95.0}},{"type":"Feature","geometry":{"type":"Point","coordinates":[-93.3642,35.22373]},"properties":{"layer":"saddles","name":"saddles-38","description":"DEM-derived saddles; elev 1205 ft; slope 9 deg; aspect 164 deg; ~1178 m from nearest AGFC-mapped road. USGS 3DEP ~10 m (py3dep), analysis grid ~26 m, 2026-10-05. Scout on foot to confirm.","lat":35.22373,"lon":-93.3642,"elevation_ft":1205.0,"slope_deg":9.4,"aspect_deg":164.0,"cluster_pixels":916,"dist_road_m":1178.0}},{"type":"Feature","geometry":{"type":"Point","coordinates":[-93.51951,35.27057]},"properties":{"layer":"saddles","name":"saddles-39","description":"DEM-derived saddles; elev 647 ft; slope 10 deg; aspect 18 deg; ~7841 m from nearest AGFC-mapped road. USGS 3DEP ~10 m (py3dep), analysis grid ~26 m, 2026-10-05. Scout on foot to confirm.","lat":35.27057,"lon":-93.51951,"elevation_ft":647.0,"slope_deg":9.6,"aspect_deg":18.0,"cluster_pixels":901,"dist_road_m":7841.0}},{"type":"Feature","geometry":{"type":"Point","coordinates":[-93.67241,35.17489]},"properties":{"layer":"saddles","name":"saddles-40","description":"DEM-derived saddles; elev 2024 ft; slope 11 deg; aspect 176 deg; ~1120 m from nearest AGFC-mapped road. USGS 3DEP ~10 m (py3dep), analysis grid ~26 m, 2026-10-05. Scout on foot to confirm.","lat":35.17489,"lon":-93.67241,"elevation_ft":2024.0,"slope_deg":11.0,"aspect_deg":176.0,"cluster_pixels":881,"dist_road_m":1120.0}},{"type":"Feature","geometry":{"type":"Point","coordinates":[-93.63303,35.22804]},"properties":{"layer":"saddles","name":"saddles-41","description":"DEM-derived saddles; elev 1283 ft; slope 10 deg; aspect 149 deg; ~220 m from nearest AGFC-mapped road. USGS 3DEP ~10 m (py3dep), analysis grid ~26 m, 2026-10-05. Scout on foot to confirm.","lat":35.22804,"lon":-93.63303,"elevation_ft":1283.0,"slope_deg":10.3,"aspect_deg":149.0,"cluster_pixels":878,"dist_road_m":220.0}},{"type":"Feature","geometry":{"type":"Point","coordinates":[-93.43992,35.21819]},"properties":{"layer":"saddles","name":"saddles-42","description":"DEM-derived saddles; elev 888 ft; slope 9 deg; aspect 144 deg; ~840 m from nearest AGFC-mapped road. USGS 3DEP ~10 m (py3dep), analysis grid ~26 m, 2026-10-05. Scout on foot to confirm.","lat":35.21819,"lon":-93.43992,"elevation_ft":888.0,"slope_deg":9.0,"aspect_deg":144.0,"cluster_pixels":864,"dist_road_m":840.0}},{"type":"Feature","geometry":{"type":"Point","coordinates":[-93.7118,35.16775]},"properties":{"layer":"saddles","name":"saddles-43","description":"DEM-derived saddles; elev 1339 ft; slope 10 deg; aspect 218 deg; ~1161 m from nearest AGFC-mapped road. USGS 3DEP ~10 m (py3dep), analysis grid ~26 m, 2026-10-05. Scout on foot to confirm.","lat":35.16775,"lon":-93.7118,"elevation_ft":1339.0,"slope_deg":9.5,"aspect_deg":218.0,"cluster_pixels":861,"dist_road_m":1161.0}},{"type":"Feature","geometry":{"type":"Point","coordinates":[-93.387,35.22307]},"properties":{"layer":"saddles","name":"saddles-44","description":"DEM-derived saddles; elev 982 ft; slope 10 deg; aspect 203 deg; ~529 m from nearest AGFC-mapped road. USGS 3DEP ~10 m (py3dep), analysis grid ~26 m, 2026-10-05. Scout on foot to confirm.","lat":35.22307,"lon":-93.387,"elevation_ft":982.0,"slope_deg":9.7,"aspect_deg":203.0,"cluster_pixels":840,"dist_road_m":529.0}},{"type":"Feature","geometry":{"type":"Point","coordinates":[-93.49132,35.18024]},"properties":{"layer":"saddles","name":"saddles-45","description":"DEM-derived saddles; elev 1308 ft; slope 9 deg; aspect 206 deg; ~1520 m from nearest AGFC-mapped road. USGS 3DEP ~10 m (py3dep), analysis grid ~26 m, 2026-10-05. Scout on foot to confirm.","lat":35.18024,"lon":-93.49132,"elevation_ft":1308.0,"slope_deg":8.7,"aspect_deg":206.0,"cluster_pixels":808,"dist_road_m":1520.0}},{"type":"Feature","geometry":{"type":"Point","coordinates":[-93.4563,35.15879]},"properties":{"layer":"saddles","name":"saddles-46","description":"DEM-derived saddles; elev 820 ft; slope 9 deg; aspect 150 deg; ~496 m from nearest AGFC-mapped road. USGS 3DEP ~10 m (py3dep), analysis grid ~26 m, 2026-10-05. Scout on foot to confirm.","lat":35.15879,"lon":-93.4563,"elevation_ft":820.0,"slope_deg":9.1,"aspect_deg":150.0,"cluster_pixels":797,"dist_road_m":496.0}},{"type":"Feature","geometry":{"type":"Point","coordinates":[-93.6155,35.21699]},"properties":{"layer":"saddles","name":"saddles-47","description":"DEM-derived saddles; elev 1154 ft; slope 10 deg; aspect 48 deg; ~518 m from nearest AGFC-mapped road. USGS 3DEP ~10 m (py3dep), analysis grid ~26 m, 2026-10-05. Scout on foot to confirm.","lat":35.21699,"lon":-93.6155,"elevation_ft":1154.0,"slope_deg":10.4,"aspect_deg":48.0,"cluster_pixels":791,"dist_road_m":518.0}},{"type":"Feature","geometry":{"type":"Point","coordinates":[-93.35805,35.2015]},"properties":{"layer":"saddles","name":"saddles-48","description":"DEM-derived saddles; elev 793 ft; slope 9 deg; aspect 190 deg; ~926 m from nearest AGFC-mapped road. USGS 3DEP ~10 m (py3dep), analysis grid ~26 m, 2026-10-05. Scout on foot to confirm.","lat":35.2015,"lon":-93.35805,"elevation_ft":793.0,"slope_deg":8.5,"aspect_deg":190.0,"cluster_pixels":790,"dist_road_m":926.0}},{"type":"Feature","geometry":{"type":"Point","coordinates":[-93.69375,35.16461]},"properties":{"layer":"saddles","name":"saddles-49","description":"DEM-derived saddles; elev 1945 ft; slope 9 deg; aspect 237 deg; ~1163 m from nearest AGFC-mapped road. USGS 3DEP ~10 m (py3dep), analysis grid ~26 m, 2026-10-05. Scout on foot to confirm.","lat":35.16461,"lon":-93.69375,"elevation_ft":1945.0,"slope_deg":8.7,"aspect_deg":237.0,"cluster_pixels":744,"dist_road_m":1163.0}},{"type":"Feature","geometry":{"type":"Point","coordinates":[-93.70944,35.22746]},"properties":{"layer":"saddles","name":"saddles-50","description":"DEM-derived saddles; elev 971 ft; slope 7 deg; aspect 25 deg; ~1585 m from nearest AGFC-mapped road. USGS 3DEP ~10 m (py3dep), analysis grid ~26 m, 2026-10-05. Scout on foot to confirm.","lat":35.22746,"lon":-93.70944,"elevation_ft":971.0,"slope_deg":7.2,"aspect_deg":25.0,"cluster_pixels":740,"dist_road_m":1585.0}}]}