{"type":"FeatureCollection","features":[{"type":"Feature","properties":{"layer":"state_park_exclusion","name":"Mount Magazine State Park (no hunting)","description":"No hunting inside Mount Magazine State Park (~2,226 ac per AR Public Land Boundaries; AGFC confirms closed). Source: AR Public Land Boundaries FeatureServer/5, BOUNDARY_N='Mount Magazine State Park', fetched 2026-10-05.","acres_reported":2226,"source":"AR Public Land Boundaries / AR State Park","verified_field":" "},"geometry":{"type":"Polygon","coordinates":[[[-93.63706,35.16882],[-93.63611,35.169],[-93.63582,35.16928],[-93.63579,35.16978],[-93.63529,35.17006],[-93.63488,35.17049],[-93.6345,35.17068],[-93.63389,35.17076],[-93.63356,35.17104],[-93.63354,35.17133],[-93.63337,35.17149],[-93.63295,35.17161],[-93.63296,35.17179],[-93.63327,35.1721],[-93.63304,35.17264],[-93.63218,35.17349],[-93.63201,35.1738],[-93.6317,35.17389],[-93.63144,35.17406],[-93.63004,35.17584],[-93.62813,35.17691],[-93.62791,35.17692],[-93.6274,35.17678],[-93.62664,35.17625],[-93.62529,35.17618],[-93.62425,35.17643],[-93.6231,35.17649],[-93.62168,35.17617],[-93.62015,35.17662],[-93.61591,35.17751],[-93.61209,35.17826],[-93.61113,35.17828],[-93.60656,35.17805],[-93.60086,35.17837],[-93.5964,35.17828],[-93.59399,35.17785],[-93.58868,35.17756],[-93.58846,35.17743],[-93.58837,35.17728],[-93.58848,35.17699],[-93.58906,35.17656],[-93.59009,35.17622],[-93.59339,35.17559],[-93.59412,35.1757],[-93.59463,35.17495],[-93.59501,35.17464],[-93.59581,35.17439],[-93.59652,35.17449],[-93.59686,35.17389],[-93.59792,35.1736],[-93.59985,35.17365],[-93.60046,35.17381],[-93.60026,35.17327],[-93.60031,35.17303],[-93.60055,35.17284],[-93.60173,35.17275],[-93.60253,35.17241],[-93.60456,35.17244],[-93.60509,35.17227],[-93.60605,35.17247],[-93.60678,35.1722],[-93.60819,35.17229],[-93.60863,35.17215],[-93.61,35.17208],[-93.61044,35.17223],[-93.61053,35.17189],[-93.61132,35.17142],[-93.61184,35.17134],[-93.61237,35.17096],[-93.61446,35.17059],[-93.61437,35.17045],[-93.61414,35.17036],[-93.61214,35.17012],[-93.60995,35.16869],[-93.60991,35.16847],[-93.61019,35.1683],[-93.61017,35.1679],[-93.61013,35.16778],[-93.60983,35.16765],[-93.60929,35.16757],[-93.6083,35.16716],[-93.60781,35.16724],[-93.60775,35.16745],[-93.60743,35.16749],[-93.6059,35.16641],[-93.60529,35.16617],[-93.60479,35.16584],[-93.60442,35.16574],[-93.60377,35.1658],[-93.60263,35.16529],[-93.60008,35.16472],[-93.59886,35.16459],[-93.59692,35.16414],[-93.59589,35.16404],[-93.59221,35.16327],[-93.59204,35.16314],[-93.592,35.16282],[-93.5926,35.16245],[-93.59841,35.1619],[-93.60086,35.1614],[-93.60765,35.16198],[-93.60969,35.16234],[-93.61029,35.16229],[-93.6145,35.16066],[-93.61476,35.16064],[-93.61694,35.16105],[-93.6191,35.16174],[-93.62062,35.16196],[-93.6236,35.16122],[-93.62495,35.1613],[-93.62548,35.16159],[-93.62651,35.1619],[-93.62767,35.16189],[-93.62831,35.16206],[-93.62897,35.16202],[-93.62986,35.1623],[-93.63374,35.16101],[-93.6343,35.16098],[-93.63528,35.16117],[-93.64015,35.16286],[-93.64433,35.16315],[-93.6453,35.16281],[-93.64624,35.16276],[-93.64962,35.1635],[-93.65069,35.1633],[-93.65312,35.16391],[-93.65939,35.16509],[-93.66208,35.16505],[-93.66733,35.164],[-93.66878,35.16352],[-93.67189,35.16317],[-93.67324,35.16274],[-93.67496,35.16186],[-93.67569,35.16182],[-93.68272,35.16321],[-93.68359,35.16345],[-93.684,35.16408],[-93.68386,35.1645],[-93.68352,35.16486],[-93.68235,35.16541],[-93.68037,35.16533],[-93.67993,35.16541],[-93.67927,35.16585],[-93.67873,35.16575],[-93.67764,35.1661],[-93.67773,35.16676],[-93.67724,35.16673],[-93.67687,35.16652],[-93.67618,35.16671],[-93.67618,35.16704],[-93.67601,35.16719],[-93.67583,35.16757],[-93.67582,35.16787],[-93.6756,35.16805],[-93.67531,35.16812],[-93.67469,35.16903],[-93.67432,35.16935],[-93.67396,35.16995],[-93.67352,35.17029],[-93.67301,35.17051],[-93.67262,35.17035],[-93.67254,35.17023],[-93.67208,35.17027],[-93.67158,35.17043],[-93.67144,35.17028],[-93.67076,35.17021],[-93.6706,35.17008],[-93.67062,35.16988],[-93.67048,35.1698],[-93.66997,35.16977],[-93.66973,35.16962],[-93.66963,35.16918],[-93.66968,35.16842],[-93.66867,35.16768],[-93.66831,35.16765],[-93.66776,35.16734],[-93.66696,35.1674],[-93.66617,35.16775],[-93.66467,35.16806],[-93.66268,35.16804],[-93.66203,35.16826],[-93.66164,35.1687],[-93.6614,35.16912],[-93.66118,35.16922],[-93.66119,35.16946],[-93.66082,35.16991],[-93.66047,35.17011],[-93.65978,35.17008],[-93.65959,35.17016],[-93.65959,35.17055],[-93.65936,35.17079],[-93.65912,35.17133],[-93.65825,35.17198],[-93.65758,35.17268],[-93.65726,35.17288],[-93.65699,35.17287],[-93.65674,35.17256],[-93.65614,35.17248],[-93.65578,35.17191],[-93.65553,35.1718],[-93.6549,35.17202],[-93.65463,35.17225],[-93.65409,35.17247],[-93.6538,35.17242],[-93.653,35.17216],[-93.65287,35.17171],[-93.65261,35.17144],[-93.65208,35.1716],[-93.65168,35.17158],[-93.65092,35.17097],[-93.64941,35.17091],[-93.6491,35.17062],[-93.64899,35.17062],[-93.64881,35.17097],[-93.6484,35.17133],[-93.64826,35.17197],[-93.64827,35.17248],[-93.64774,35.17344],[-93.64783,35.17393],[-93.64733,35.17414],[-93.64701,35.17488],[-93.6465,35.17566],[-93.64555,35.17674],[-93.64545,35.17757],[-93.64526,35.17774],[-93.64486,35.17773],[-93.6434,35.17664],[-93.64295,35.17629],[-93.64232,35.17561],[-93.64073,35.17442],[-93.64009,35.17374],[-93.64002,35.17307],[-93.63974,35.17276],[-93.63953,35.17233],[-93.63832,35.17098],[-93.63762,35.16971],[-93.63764,35.16942],[-93.63799,35.16904],[-93.63842,35.16876],[-93.63706,35.16882]],[[-93.60599,35.16295],[-93.60582,35.16295],[-93.60582,35.16308],[-93.60598,35.16309],[-93.60599,35.16295]],[[-93.65039,35.16943],[-93.65022,35.16942],[-93.65022,35.16956],[-93.65038,35.16956],[-93.65039,35.16943]],[[-93.64426,35.17235],[-93.64409,35.17235],[-93.64409,35.17248],[-93.64426,35.17249],[-93.64426,35.17235]],[[-93.61795,35.17412],[-93.61778,35.17412],[-93.61778,35.17426],[-93.61794,35.17426],[-93.61795,35.17412]],[[-93.67098,35.16739],[-93.67081,35.16739],[-93.67081,35.16753],[-93.67098,35.16753],[-93.67098,35.16739]]]}}]}