{"type":"FeatureCollection","features":[{"type":"Feature","geometry":{"type":"Polygon","coordinates":[[[-93.52451,35.22413],[-93.52423,35.22444],[-93.52447,35.2253],[-93.52446,35.22664],[-93.52463,35.22711],[-93.5254,35.22799],[-93.52462,35.22746],[-93.52429,35.22678],[-93.52413,35.22445],[-93.52451,35.22413]]]},"properties":{"layer":"water","name":"NHD waterbody 6","description":"USGS NHD waterbody/area (FTYPE=460, FCODE=46006, 0.008 km\u00b2). Source: hydro.nationalmap.gov nhd/MapServer/9, fetched 2026-10-05. Springs not separately extracted.","ftype":460,"fcode":46006,"areasqkm":0.008,"source":"public"}},{"type":"Feature","geometry":{"type":"Polygon","coordinates":[[[-93.50791,35.27236],[-93.50722,35.27057],[-93.50674,35.27007],[-93.50595,35.26866],[-93.50595,35.26753],[-93.50696,35.26659],[-93.51001,35.26552],[-93.51044,35.26467],[-93.51131,35.26399],[-93.5114,35.26345],[-93.5119,35.2626],[-93.51325,35.26139],[-93.51425,35.261],[-93.51455,35.26074],[-93.51528,35.2594],[-93.51555,35.25766],[-93.51611,35.25641],[-93.51685,35.25373],[-93.51696,35.25319],[-93.51688,35.25294],[-93.51661,35.25278],[-93.5167,35.25206],[-93.51695,35.25185],[-93.51782,35.25179],[-93.51924,35.25065],[-93.51964,35.25024],[-93.52008,35.24918],[-93.52023,35.24598],[-93.52016,35.24574],[-93.51934,35.24505],[-93.51854,35.24375],[-93.51849,35.2436],[-93.51868,35.24348],[-93.51838,35.2427],[-93.51811,35.24069],[-93.51783,35.24054],[-93.51795,35.23873],[-93.51871,35.23738],[-93.51891,35.2348],[-93.51935,35.23444],[-93.52175,35.23375],[-93.52366,35.233],[-93.52466,35.23111],[-93.52544,35.23041],[-93.52582,35.22968],[-93.52578,35.23018],[-93.52479,35.23126],[-93.52354,35.23328],[-93.51997,35.23441],[-93.51908,35.23495],[-93.51883,35.23736],[-93.51861,35.23814],[-93.518,35.23897],[-93.51789,35.23991],[-93.51825,35.24056],[-93.51844,35.24264],[-93.51905,35.24442],[-93.51927,35.24485],[-93.52036,35.24586],[-93.52022,35.24695],[-93.52036,35.24835],[-93.52014,35.24948],[-93.51974,35.25045],[-93.51923,35.25101],[-93.51815,35.25173],[-93.517,35.25201],[-93.51685,35.25218],[-93.51678,35.25248],[-93.51702,35.25306],[-93.517,35.25364],[-93.51656,35.25536],[-93.51565,35.25767],[-93.51533,35.25955],[-93.51464,35.26091],[-93.51428,35.26136],[-93.51375,35.26126],[-93.51253,35.2621],[-93.5116,35.26345],[-93.51165,35.2636],[-93.51184,35.2634],[-93.5119,35.26356],[-93.51043,35.26492],[-93.51004,35.26564],[-93.50833,35.26638],[-93.5075,35.26648],[-93.50667,35.26707],[-93.5063,35.26754],[-93.506,35.26829],[-93.50609,35.26869],[-93.50639,35.26894],[-93.50683,35.26991],[-93.50778,35.27128],[-93.50808,35.27238],[-93.50791,35.27236]]]},"properties":{"layer":"water","name":"NHD waterbody 9","description":"USGS NHD waterbody/area (FTYPE=460, FCODE=46006, 0.224 km\u00b2). Source: hydro.nationalmap.gov nhd/MapServer/9, fetched 2026-10-05. Springs not separately extracted.","ftype":460,"fcode":46006,"areasqkm":0.224,"source":"public"}},{"type":"Feature","geometry":{"type":"Point","coordinates":[-93.425,35.151]},"properties":{"layer":"water","name":"Spring Lake","description":"Spring Lake (reference point near AGFC facilities). Confirm shoreline on NHD/basemap. 10 mph boat limit noted on AGFC WMA page.","source":"public"}},{"type":"Feature","geometry":{"type":"Point","coordinates":[-93.625,35.227]},"properties":{"layer":"water","name":"Cove Lake","description":"Cove Lake (reference point near AGFC facilities). Confirm shoreline on NHD/basemap. 10 mph boat limit noted on AGFC WMA page.","source":"public"}}]}