{"type":"FeatureCollection","features":[{"type":"Feature","geometry":{"type":"Polygon","coordinates":[[[-93.52208,35.22614],[-93.52226,35.22687],[-93.52278,35.2275],[-93.52354,35.22792],[-93.52445,35.22807],[-93.52535,35.22792],[-93.52612,35.2275],[-93.52663,35.22687],[-93.52681,35.22614],[-93.52663,35.2254],[-93.52612,35.22477],[-93.52535,35.22435],[-93.52445,35.22421],[-93.52354,35.22435],[-93.52278,35.22477],[-93.52226,35.2254],[-93.52208,35.22614]]]},"properties":{"layer":"water_influence","name":"NHD waterbody 6","description":"high water influence around NHD waterbody 6 (weight 0.95)","weight":0.95,"ring":"high","source":"public"}},{"type":"Feature","geometry":{"type":"Polygon","coordinates":[[[-93.5198,35.22576],[-93.51998,35.22503],[-93.52033,35.22434],[-93.52083,35.22371],[-93.52148,35.22319],[-93.52224,35.22277],[-93.52309,35.22248],[-93.52399,35.22234],[-93.5249,35.22234],[-93.5258,35.22248],[-93.52665,35.22277],[-93.52741,35.22319],[-93.52806,35.22371],[-93.52857,35.22434],[-93.52892,35.22503],[-93.5291,35.22576],[-93.5291,35.22651],[-93.52892,35.22724],[-93.52857,35.22793],[-93.52806,35.22856],[-93.52741,35.22909],[-93.52665,35.2295],[-93.5258,35.22979],[-93.5249,35.22993],[-93.52399,35.22993],[-93.52309,35.22979],[-93.52224,35.2295],[-93.52148,35.22909],[-93.52083,35.22856],[-93.52033,35.22793],[-93.51998,35.22724],[-93.5198,35.22651],[-93.5198,35.22576]],[[-93.52209,35.22632],[-93.52236,35.22705],[-93.52295,35.22763],[-93.52376,35.22798],[-93.52468,35.22806],[-93.52556,35.22784],[-93.52627,35.22736],[-93.52671,35.2267],[-93.5268,35.22595],[-93.52653,35.22523],[-93.52595,35.22464],[-93.52513,35.22429],[-93.52421,35.22421],[-93.52333,35.22443],[-93.52262,35.22491],[-93.52218,35.22558],[-93.52209,35.22632]]]},"properties":{"layer":"water_influence","name":"NHD waterbody 6","description":"medium water influence around NHD waterbody 6 (weight 0.95)","weight":0.522,"ring":"medium","source":"public"}},{"type":"Feature","geometry":{"type":"Polygon","coordinates":[[[-93.51297,35.25186],[-93.51302,35.25229],[-93.51317,35.25271],[-93.51377,35.25344],[-93.51465,35.25392],[-93.5157,35.25409],[-93.51674,35.25392],[-93.51762,35.25344],[-93.51822,35.25271],[-93.51837,35.25229],[-93.51842,35.25186],[-93.51837,35.25142],[-93.51822,35.25101],[-93.51762,35.25028],[-93.51674,35.2498],[-93.5157,35.24963],[-93.51465,35.2498],[-93.51377,35.25028],[-93.51317,35.25101],[-93.51302,35.25142],[-93.51297,35.25186]]]},"properties":{"layer":"water_influence","name":"NHD waterbody 9","description":"high water influence around NHD waterbody 9 (weight 0.95)","weight":0.95,"ring":"high","source":"public"}},{"type":"Feature","geometry":{"type":"Polygon","coordinates":[[[-93.51044,35.25144],[-93.51064,35.25061],[-93.51104,35.24983],[-93.51161,35.24912],[-93.51235,35.24853],[-93.51321,35.24806],[-93.51416,35.24773],[-93.51518,35.24757],[-93.51621,35.24757],[-93.51723,35.24773],[-93.51819,35.24806],[-93.51905,35.24853],[-93.51978,35.24912],[-93.52035,35.24983],[-93.52075,35.25061],[-93.52095,35.25144],[-93.52095,35.25228],[-93.52075,35.25311],[-93.52035,35.25389],[-93.51978,35.2546],[-93.51905,35.25519],[-93.51819,35.25566],[-93.51723,35.25599],[-93.51621,35.25615],[-93.51518,35.25615],[-93.51416,35.25599],[-93.51321,35.25566],[-93.51235,35.25519],[-93.51161,35.2546],[-93.51104,35.25389],[-93.51064,35.25311],[-93.51044,35.25228],[-93.51044,35.25144]],[[-93.51298,35.25208],[-93.51308,35.25251],[-93.51329,35.25291],[-93.51396,35.25358],[-93.5149,35.25399],[-93.51596,35.25408],[-93.51698,35.25382],[-93.5178,35.25327],[-93.51831,35.25251],[-93.51841,35.25208],[-93.51841,35.25164],[-93.51831,35.25121],[-93.5181,35.25081],[-93.51743,35.25014],[-93.51649,35.24973],[-93.51543,35.24964],[-93.51441,35.24989],[-93.51359,35.25045],[-93.51308,35.25121],[-93.51298,35.25164],[-93.51298,35.25208]]]},"properties":{"layer":"water_influence","name":"NHD waterbody 9","description":"medium water influence around NHD waterbody 9 (weight 0.95)","weight":0.522,"ring":"medium","source":"public"}},{"type":"Feature","geometry":{"type":"Polygon","coordinates":[[[-93.4228,35.151],[-93.42297,35.15169],[-93.42345,35.15227],[-93.42416,35.15266],[-93.425,35.1528],[-93.42584,35.15266],[-93.42655,35.15227],[-93.42703,35.15169],[-93.4272,35.151],[-93.42703,35.15031],[-93.42655,35.14973],[-93.42584,35.14934],[-93.425,35.1492],[-93.42416,35.14934],[-93.42345,35.14973],[-93.42297,35.15031],[-93.4228,35.151]]]},"properties":{"layer":"water_influence","name":"Spring Lake","description":"high water influence around Spring Lake (weight 1.15)","weight":1.15,"ring":"high","source":"public"}},{"type":"Feature","geometry":{"type":"Polygon","coordinates":[[[-93.42063,35.15065],[-93.42079,35.14996],[-93.42112,35.14931],[-93.4216,35.14872],[-93.42221,35.14822],[-93.42293,35.14783],[-93.42372,35.14756],[-93.42457,35.14742],[-93.42543,35.14742],[-93.42628,35.14756],[-93.42707,35.14783],[-93.42779,35.14822],[-93.4284,35.14872],[-93.42888,35.14931],[-93.42921,35.14996],[-93.42937,35.15065],[-93.42937,35.15135],[-93.42921,35.15204],[-93.42888,35.15269],[-93.4284,35.15328],[-93.42779,35.15378],[-93.42707,35.15417],[-93.42628,35.15444],[-93.42543,35.15458],[-93.42457,35.15458],[-93.42372,35.15444],[-93.42293,35.15417],[-93.42221,35.15378],[-93.4216,35.15328],[-93.42112,35.15269],[-93.42079,35.15204],[-93.42063,35.15135],[-93.42063,35.15065]],[[-93.42281,35.15118],[-93.42306,35.15185],[-93.42361,35.15239],[-93.42436,35.15272],[-93.42522,35.15279],[-93.42604,35.15258],[-93.4267,35.15214],[-93.4271,35.15152],[-93.42719,35.15082],[-93.42694,35.15015],[-93.42639,35.14961],[-93.42564,35.14928],[-93.42478,35.14921],[-93.42396,35.14942],[-93.4233,35.14986],[-93.4229,35.15048],[-93.42281,35.15118]]]},"properties":{"layer":"water_influence","name":"Spring Lake","description":"medium water influence around Spring Lake (weight 1.15)","weight":0.632,"ring":"medium","source":"public"}},{"type":"Feature","geometry":{"type":"Polygon","coordinates":[[[-93.6228,35.227],[-93.62297,35.22769],[-93.62344,35.22827],[-93.62416,35.22866],[-93.625,35.2288],[-93.62584,35.22866],[-93.62656,35.22827],[-93.62703,35.22769],[-93.6272,35.227],[-93.62703,35.22631],[-93.62656,35.22573],[-93.62584,35.22534],[-93.625,35.2252],[-93.62416,35.22534],[-93.62344,35.22573],[-93.62297,35.22631],[-93.6228,35.227]]]},"properties":{"layer":"water_influence","name":"Cove Lake","description":"high water influence around Cove Lake (weight 0.95)","weight":0.95,"ring":"high","source":"public"}},{"type":"Feature","geometry":{"type":"Polygon","coordinates":[[[-93.62062,35.22665],[-93.62079,35.22596],[-93.62112,35.22531],[-93.6216,35.22472],[-93.62221,35.22422],[-93.62293,35.22383],[-93.62372,35.22356],[-93.62457,35.22342],[-93.62543,35.22342],[-93.62628,35.22356],[-93.62707,35.22383],[-93.62779,35.22422],[-93.6284,35.22472],[-93.62888,35.22531],[-93.62921,35.22596],[-93.62938,35.22665],[-93.62938,35.22735],[-93.62921,35.22804],[-93.62888,35.22869],[-93.6284,35.22928],[-93.62779,35.22978],[-93.62707,35.23017],[-93.62628,35.23044],[-93.62543,35.23058],[-93.62457,35.23058],[-93.62372,35.23044],[-93.62293,35.23017],[-93.62221,35.22978],[-93.6216,35.22928],[-93.62112,35.22869],[-93.62079,35.22804],[-93.62062,35.22735],[-93.62062,35.22665]],[[-93.62281,35.22718],[-93.62306,35.22785],[-93.6236,35.22839],[-93.62436,35.22872],[-93.62522,35.22879],[-93.62604,35.22858],[-93.6267,35.22814],[-93.6271,35.22752],[-93.62719,35.22682],[-93.62694,35.22615],[-93.6264,35.22561],[-93.62564,35.22528],[-93.62478,35.22521],[-93.62396,35.22542],[-93.6233,35.22586],[-93.6229,35.22648],[-93.62281,35.22718]]]},"properties":{"layer":"water_influence","name":"Cove Lake","description":"medium water influence around Cove Lake (weight 0.95)","weight":0.522,"ring":"medium","source":"public"}}]}