{"type":"FeatureCollection","features":[{"type":"Feature","geometry":{"type":"MultiPolygon","coordinates":[[[[-93.65428685177439,35.14092364227359],[-93.6517002865013,35.1408523740495],[-93.6497403884363,35.14079833570942],[-93.6488399920422,35.14077350582691],[-93.6466602705069,35.14071336821441],[-93.64519395302003,35.14067289077832],[-93.64519310689482,35.140587781646076],[-93.64500065317839,35.14058248703502],[-93.64496556131243,35.137044153853864],[-93.64073199615028,35.13692673572393],[-93.63732963185755,35.13683223901584],[-93.63728768378225,35.13683107279829],[-93.63727523699349,35.13674568637822],[-93.6370946300443,35.13674066852003],[-93.63698585193995,35.135994423874536],[-93.63659669013516,35.133324556316886],[-93.63629246755309,35.133317943052006],[-93.63270227700983,35.13323984152821],[-93.63187355142006,35.133219745263986],[-93.63187705106145,35.136711203075095],[-93.63188065469785,35.14033452546113],[-93.6318786378532,35.14033448367893],[-93.62744122147117,35.140241384191185],[-93.62744138384659,35.1401551127199],[-93.62744179527003,35.13993692952211],[-93.62744806443433,35.13661845192222],[-93.62745468306004,35.13311210746867],[-93.62726182132633,35.13310729885684],[-93.625201056081,35.13305590202733],[-93.62303582065346,35.13301080703498],[-93.62224449101299,35.13299431644631],[-93.62220901202433,35.13299325785755],[-93.62220132131156,35.13399663230167],[-93.61860925042866,35.133921552165305],[-93.61859003171519,35.13643278149404],[-93.61593794575549,35.13641852468527],[-93.61415720797964,35.13640891780519],[-93.60972438653225,35.136384887416035],[-93.60529175997995,35.136361496392944],[-93.6052932284235,35.13627233459239],[-93.60509987988716,35.13627128935949],[-93.6051588215984,35.13268411390179],[-93.60093031238962,35.132645034391594],[-93.60090701537372,35.13385379696782],[-93.6008591345899,35.13633793688762],[-93.60078798159736,35.14003086587609],[-93.59941870819206,35.14000566048618],[-93.59722574675668,35.139965259459615],[-93.5970923625811,35.143490828367646],[-93.60052600635238,35.14355295984909],[-93.60052432327775,35.14363946615053],[-93.60071763699663,35.1436429632925],[-93.60071742784686,35.14365364233268],[-93.60071611625304,35.14372090709049],[-93.60067757039427,35.14570106132661],[-93.60064731823563,35.14725506384806],[-93.59695246498545,35.14718798037362],[-93.59252847702065,35.147110425050585],[-93.59018655497303,35.14707787385866],[-93.58809434812844,35.1470487554357],[-93.58748440827785,35.14704027788258],[-93.58366024537489,35.14698705593035],[-93.58366260970963,35.146900285945975],[-93.5834692084763,35.14689722282239],[-93.5835658742797,35.143347883684285],[-93.58074504035615,35.14327862373218],[-93.57980187852736,35.14325545152032],[-93.5792732165119,35.143242459723204],[-93.57927544979955,35.14315730533314],[-93.57908226297123,35.14315255876342],[-93.57927272907024,35.135885866758414],[-93.58069277884398,35.135919933320814],[-93.58151949257936,35.13593975889158],[-93.58161430772385,35.13239201318459],[-93.5806675699057,35.132369427782095],[-93.58010863855877,35.13235609015037],[-93.5795590145645,35.13234297143502],[-93.57930598105374,35.13233694950926],[-93.5792182542111,35.1323348611646],[-93.57911777854929,35.13233247028874],[-93.57902251147539,35.13596531910718],[-93.57721694780122,35.13592194452122],[-93.57719797164556,35.13666025099187],[-93.5771702594806,35.13773832568491],[-93.57492440299909,35.1376840062009],[-93.57487866028191,35.13950011121282],[-93.57038780814919,35.139390801968],[-93.56589693056154,35.13928132724093],[-93.56181889720395,35.13915865914326],[-93.56140180134707,35.13914610438844],[-93.55690667243269,35.139010687650746],[-93.55690852724024,35.13892666688659],[-93.55671651123554,35.138920879223456],[-93.5567966021319,35.13528734367483],[-93.56129302094367,35.135424490857645],[-93.56137258371376,35.131878315799604],[-93.55736155716988,35.13175289952261],[-93.55706709753464,35.13174368893162],[-93.55702612942171,35.13174277714875],[-93.55665183542251,35.13173446175867],[-93.55256977371823,35.13160679647174],[-93.54940718821598,35.13150791351658],[-93.54893014576844,35.13149299134053],[-93.54866540757517,35.13148471046042],[-93.5481028234915,35.13147379623285],[-93.54807229862679,35.13147195412179],[-93.54801733160468,35.1340424464456],[-93.54799465719042,35.13510277898136],[-93.54354769785046,35.13497764126541],[-93.54062530135339,35.13489533042556],[-93.53910073690261,35.134852361938165],[-93.53706533355506,35.13479495934328],[-93.53465363720537,35.134726946114064],[-93.53020651272124,35.1346013590152],[-93.52686870197148,35.13453372505595],[-93.52686869903505,35.13464759768088],[-93.52686869078504,35.13525901655644],[-93.52569761076923,35.13632326747033],[-93.52125331707796,35.13623409813901],[-93.5212566763295,35.136148392257645],[-93.52106432123752,35.1361445323766],[-93.52113195795725,35.134417315268],[-93.51688432714026,35.13433107713399],[-93.51479841847319,35.13428868349076],[-93.51244425517685,35.13424079520623],[-93.5123616217668,35.13621047169047],[-93.51229198149338,35.137870312290445],[-93.51007823782473,35.13780018432225],[-93.51008170242419,35.13771681190754],[-93.51015244040131,35.13601460439427],[-93.5102290968673,35.134169921677014],[-93.51003696635091,35.134163771007415],[-93.50801390994917,35.13409899062498],[-93.50786812444852,35.13764114600251],[-93.50786446664146,35.137730005188736],[-93.50459154133779,35.13762619858634],[-93.50343698265925,35.13758955865974],[-93.50329376432066,35.141139590299396],[-93.50752655287047,35.14127203800293],[-93.50752312334677,35.14135548500298],[-93.50771505343819,35.14136148893133],[-93.50761613188536,35.14376574960928],[-93.50756907162057,35.14490950268419],[-93.51179885566965,35.14503999222171],[-93.52071088164239,35.145161625726175],[-93.52070774348688,35.14524839093077],[-93.52089974650826,35.14525100843123],[-93.52076772367214,35.1489004941164],[-93.51630178901517,35.14883026903779],[-93.5118358817221,35.1487598521418],[-93.51168788277558,35.15230454885223],[-93.51168430056309,35.15239033638344],[-93.51615998823803,35.152470253675695],[-93.5206356737658,35.1525500064963],[-93.52511391647009,35.15262961982113],[-93.52929868592038,35.15270389283477],[-93.52959215494526,35.15270909644615],[-93.53406042300674,35.152852873992195],[-93.53520757490705,35.15288975958606],[-93.5385287188755,35.152996486542534],[-93.5429969590533,35.153139930860405],[-93.54746525552845,35.153283212756754],[-93.5519625801025,35.15341288022367],[-93.5521081827826,35.14977886662976],[-93.55215673438734,35.148567095359866],[-93.5521809842158,35.14796181885209],[-93.55667464320567,35.14809329167018],[-93.55782083379049,35.148126842537366],[-93.56097478521097,35.14821910613445],[-93.56116829902322,35.148224764580185],[-93.56109794515655,35.150040453745866],[-93.56096048536905,35.153587744712084],[-93.56095723113619,35.15367171589169],[-93.56526103756141,35.153795329974],[-93.56545455423489,35.15380088500794],[-93.56537292620497,35.15594341182611],[-93.56531625738391,35.1574307040945],[-93.5652253158136,35.159818142019226],[-93.56517798985442,35.161060495539495],[-93.56247208150113,35.16098438527205],[-93.56067577499174,35.160933825950536],[-93.55887543382819,35.16088320539298],[-93.55617358740122,35.16080718721289],[-93.55366781320471,35.16073670782352],[-93.55167137286637,35.16068051735992],[-93.5504485694644,35.16064613198216],[-93.55039807038354,35.16064471129305],[-93.55034757021224,35.16064329148953],[-93.54775587339533,35.16057036591451],[-93.54716915687244,35.16055384873616],[-93.54273548419862,35.16040385011331],[-93.54271822303933,35.160403266488366],[-93.5382672596454,35.16025270831047],[-93.53381632566789,35.160102125248486],[-93.52936536215684,35.159951568060116],[-93.52925956411367,35.16357047025632],[-93.52514773768205,35.163499609087076],[-93.52477893199317,35.16349324606258],[-93.52341349212375,35.16346967995509],[-93.52029830070335,35.163415855192895],[-93.51977195206683,35.163406775636645],[-93.51581766930887,35.163338491519134],[-93.5158073815846,35.16396229151695],[-93.5158047483669,35.16412192839835],[-93.51580406752339,35.164163137525335],[-93.51580338886413,35.164204344839334],[-93.51575809469942,35.16695047795628],[-93.51572418154304,35.16900645908741],[-93.5157235009457,35.169047715069006],[-93.51572282034226,35.1690889701486],[-93.51570626241194,35.17009276820854],[-93.51569851691754,35.17056229724773],[-93.51375967720408,35.170526492794856],[-93.51273372183816,35.17050753330758],[-93.51268354206051,35.17050660593677],[-93.51263336228371,35.170505678545155],[-93.51124866324626,35.170480074483045],[-93.51124970803146,35.170394710904795],[-93.5112710568883,35.16865092525564],[-93.51129285241184,35.16687050265896],[-93.51110353457607,35.16686514920313],[-93.50695841764437,35.16674786253911],[-93.5069596461941,35.16666431509814],[-93.50701157884924,35.16313337617869],[-93.50701450817758,35.16293428842112],[-93.50706474124678,35.15951880651236],[-93.51138119660278,35.159651362662125],[-93.51138308728088,35.15960608982396],[-93.51138480697497,35.15956490064264],[-93.51138652556965,35.159523711465674],[-93.51153275098996,35.15602084885613],[-93.51134085390635,35.15601495920541],[-93.50770552303479,35.15590332828118],[-93.50718995819655,35.15588748771536],[-93.50411596387295,35.15579298749993],[-93.50284716548322,35.15575395911209],[-93.50098923530727,35.155696842838424],[-93.49850425955474,35.15562040327843],[-93.49811243027862,35.15560834219877],[-93.49416419885755,35.15548673600002],[-93.49416518658747,35.1554035095689],[-93.49397646882166,35.155397695754395],[-93.49397938088045,35.155146910266744],[-93.48900948789401,35.15504073886565],[-93.48457276456551,35.15494576427977],[-93.48457374757353,35.15486083456715],[-93.48438530900033,35.15485680089407],[-93.48442734118377,35.15122319005785],[-93.48886387854597,35.15131501923047],[-93.48890570551403,35.14776884802018],[-93.48823794184587,35.14775537013071],[-93.48823892608901,35.14766999755896],[-93.4880502989069,35.1476661893897],[-93.48806730309843,35.14618523318229],[-93.48467494035269,35.146116739826645],[-93.48467285393184,35.146296068849225],[-93.48174742511593,35.146239256144604],[-93.48020437843415,35.1462092611601],[-93.48020557675905,35.14612376962495],[-93.48001704649528,35.14612010364262],[-93.48004526971019,35.144105567333064],[-93.47591308317396,35.14399056574552],[-93.47577112653877,35.14398661553034],[-93.47136492111356,35.143863939225255],[-93.46695868751036,35.143741099137124],[-93.4625518702079,35.143618081153384],[-93.46095549464108,35.143573477175806],[-93.4596596636835,35.143554578117666],[-93.45956333223323,35.14355317433182],[-93.45816002924626,35.143532708252266],[-93.45814459650403,35.143532483463275],[-93.45814290577077,35.143651369010556],[-93.45814049877984,35.143820708111946],[-93.4581352580768,35.14418941946702],[-93.4581206101369,35.14521986136022],[-93.4581192643678,35.145314507528006],[-93.45809349335677,35.14712745245484],[-93.45741761305534,35.14710439171025],[-93.45369257859855,35.146977228646406],[-93.44929132801101,35.14682684256035],[-93.44487713343327,35.14667614568189],[-93.44046246797157,35.146525258074966],[-93.43998666909623,35.1465150128157],[-93.4360268536428,35.1464296745026],[-93.43159115803182,35.146333949540754],[-93.42937729723359,35.14630082447779],[-93.42870033179169,35.14629069119807],[-93.42862307229123,35.146289534392594],[-93.42716340601591,35.146267668984095],[-93.42273560003645,35.146201196128075],[-93.42269160439254,35.14619979956027],[-93.41834479458704,35.146061779868674],[-93.41744908345406,35.14603331886137],[-93.41395395962905,35.145922198229094],[-93.41387309721301,35.149216019479894],[-93.41386491392623,35.14954931825124],[-93.40956808463142,35.14942326268602],[-93.40527128455552,35.14929704197],[-93.4052716737801,35.14921390169586],[-93.40508684329755,35.14920846834808],[-93.40512006369748,35.142090455541286],[-93.40511416793055,35.14209029761352],[-93.40083924609935,35.14193410470194],[-93.39637443049014,35.141770809586085],[-93.39617021777713,35.14176333759377],[-93.39617035276808,35.14175721359989],[-93.39617219627577,35.14167346341474],[-93.39598772008321,35.141668646163325],[-93.39606889244975,35.138122098927404],[-93.3932859473492,35.13804272656182],[-93.3920206594825,35.13800661505776],[-93.38834938335349,35.137901789460464],[-93.38790968223232,35.13788922741685],[-93.3875683776116,35.137879474483654],[-93.38752217547189,35.139248505696195],[-93.38744699879496,35.14147598921566],[-93.38532675395622,35.14143054477969],[-93.38288015553455,35.14140031939054],[-93.3784674968001,35.141345677753534],[-93.37578678299562,35.141312403457256],[-93.37519094003724,35.14130498458103],[-93.37405658401934,35.14126819274419],[-93.3696470759475,35.14112507190036],[-93.36949511392011,35.141120136764286],[-93.36523393892425,35.141038918047855],[-93.36082073861323,35.14095464151224],[-93.35640821344866,35.14087021485917],[-93.35199595616818,35.14078563123064],[-93.35199333708735,35.14135864967123],[-93.35197972103656,35.1443376591967],[-93.35197252826727,35.14591450887817],[-93.35196309788476,35.147980615306615],[-93.35186907817334,35.15039880463651],[-93.35186858201929,35.15041157618142],[-93.3518650107953,35.15050342724288],[-93.35183056036871,35.15138946061423],[-93.35183055939116,35.15138948857029],[-93.35182898080389,35.15149155117399],[-93.3518276822876,35.15157553085224],[-93.35620416257603,35.15167487677599],[-93.36040044763247,35.151769975797],[-93.36058499466976,35.15177415442687],[-93.36050631402223,35.15538519331564],[-93.36048857913232,35.15891948050867],[-93.36048816098497,35.15900289756632],[-93.36490668977375,35.15911456551576],[-93.36789931518743,35.1591901210888],[-93.36914214532838,35.15922147691675],[-93.3693252446529,35.15922609563939],[-93.36932148171293,35.16285204961917],[-93.36931983884782,35.16443473962515],[-93.36931771774388,35.16647800774942],[-93.36488477414926,35.16635808921809],[-93.36488502494714,35.16627509386422],[-93.36489573319611,35.16273641275285],[-93.36471264523658,35.16273162592078],[-93.3604699815616,35.16262063220335],[-93.35604423321368,35.16250465835805],[-93.3535363868927,35.16243889256788],[-93.35353636676236,35.16425537508619],[-93.35353636581172,35.164293216420134],[-93.35393129169202,35.16440166121401],[-93.35584418304045,35.164926911886674],[-93.35602689785401,35.164977081132484],[-93.35601888733696,35.16611794931941],[-93.35163305852889,35.16599897624152],[-93.351633566852,35.166041302115296],[-93.35167336954845,35.16961020765167],[-93.35167388995832,35.16965685718011],[-93.35168378665513,35.173228128728624],[-93.351693586249,35.176763841235235],[-93.35571680978383,35.17688170336422],[-93.35571586227329,35.17696395040409],[-93.35589909402978,35.17696931658039],[-93.35585797176154,35.18059499332177],[-93.35581684690564,35.18422058674741],[-93.35579457485451,35.186033189292694],[-93.35192998794649,35.18591866030497],[-93.35161899655243,35.18590943826057],[-93.35156832301679,35.18772059656246],[-93.35146697023949,35.191342909713654],[-93.35136587241468,35.194955785317084],[-93.35126802763715,35.1984520943667],[-93.35126504566861,35.19856856955713],[-93.3511725862853,35.202180187562604],[-93.35114390788425,35.203300329616326],[-93.35114390241064,35.20330058932419],[-93.35111921497298,35.204604843886116],[-93.35109673578408,35.20579234402873],[-93.3510577337642,35.207318336121766],[-93.35100424877703,35.20941099465536],[-93.34700788230548,35.209331583998285],[-93.34646541355247,35.20932079489583],[-93.34635762448383,35.21290122754425],[-93.34635747723144,35.21290613685861],[-93.34635198200732,35.21308942092488],[-93.34889190321752,35.213197921124845],[-93.35041657169572,35.21321694341664],[-93.35041282606244,35.21334195427152],[-93.35044212793584,35.2133422157176],[-93.35038890941392,35.216386109287804],[-93.3503788367419,35.216962115091626],[-93.35034171568833,35.21908525267595],[-93.35031554462013,35.22058201319279],[-93.3503118340301,35.22079428726796],[-93.35029550648044,35.221728162545524],[-93.35027429369732,35.22294141819305],[-93.350266418277,35.22339177789783],[-93.35025225378288,35.22420191362136],[-93.3501962613809,35.22740424376037],[-93.35018895970211,35.22782178573243],[-93.35017910479449,35.22855459804521],[-93.35014022484944,35.2314459913264],[-93.35014001104311,35.23146196383065],[-93.35009355996505,35.23492776106448],[-93.35769386770353,35.23506275355541],[-93.3674306173954,35.23523499378015],[-93.36742896051044,35.23530064910135],[-93.3676109384663,35.23530363213385],[-93.36761076206038,35.23532153327767],[-93.36762327299638,35.235321711689025],[-93.36760491672285,35.23591257223502],[-93.3675936981669,35.23704707560802],[-93.36759288626092,35.237129230407106],[-93.37179812717,35.237228886059576],[-93.37198291298819,35.23723326143657],[-93.37197346725698,35.23753669533854],[-93.3719269721812,35.239030337847275],[-93.3718177050864,35.24254056951892],[-93.376049479584,35.24260058789733],[-93.38511411425976,35.242786869165016],[-93.385114014596,35.24280414788214],[-93.3853050895224,35.24280547478503],[-93.38530366127812,35.2428734540821],[-93.38530365850967,35.24287356590187],[-93.38535128218447,35.24287447558238],[-93.3853297731957,35.24390230397781],[-93.38527603371814,35.24647029115488],[-93.38527054540275,35.2467325926243],[-93.38525802188519,35.247331265239296],[-93.38520096001305,35.25005905362068],[-93.38520080827543,35.25006624786783],[-93.38517370741559,35.25136076880787],[-93.3851649922356,35.25177712945939],[-93.38516332006618,35.25185702629784],[-93.3878624860701,35.251951704175376],[-93.38937041785633,35.252004569663534],[-93.38955465109666,35.25201102714039],[-93.38952061316988,35.25381169469111],[-93.38512567346625,35.25365502550789],[-93.38512503799092,35.253685449975315],[-93.38512447436815,35.25371247300279],[-93.38512440603368,35.25371568868127],[-93.38509564216497,35.25508990452045],[-93.3850520714119,35.25717150059021],[-93.3850504070586,35.257250994272376],[-93.38584342013957,35.25728018555592],[-93.38587833935759,35.257281470940214],[-93.38715165398096,35.25732832907109],[-93.38926840214098,35.25740619967459],[-93.38945251058695,35.2574129705525],[-93.38938899115499,35.26101516276668],[-93.38935837378199,35.26275063375745],[-93.38932544073417,35.26461724562451],[-93.38706739248413,35.26452744489679],[-93.38492453380783,35.264442185939195],[-93.38492179924705,35.26452789833452],[-93.38492089156325,35.26455635069747],[-93.38489042019089,35.26605190645754],[-93.38486951378351,35.267077966146765],[-93.38486867321738,35.267119224194424],[-93.38486783265058,35.26716048224177],[-93.38484948531715,35.26806098845154],[-93.38484706501094,35.26817970913793],[-93.38483005989892,35.269014210283366],[-93.38477734387276,35.27160111278232],[-93.39024147135804,35.271819469440494],[-93.39204988523977,35.271891681877314],[-93.39341507346317,35.27194617803623],[-93.39347937215209,35.26832610666159],[-93.39788786840988,35.26850167694817],[-93.40229649249858,35.26867717627308],[-93.40668538261815,35.26879433161238],[-93.41546330678597,35.269028344359256],[-93.41546163858439,35.269109689401716],[-93.41564682381008,35.269114624042274],[-93.41564001566583,35.26944694773404],[-93.41563247371872,35.26981514069558],[-93.41562623410265,35.27011973073227],[-93.4156257139832,35.27014511977244],[-93.41561814812975,35.270514463337435],[-93.4156164662434,35.27059654599603],[-93.41561478435914,35.270678629555164],[-93.41557444404388,35.27264784827403],[-93.4197378966023,35.27274958682539],[-93.42844071780685,35.272916191304994],[-93.43710815909333,35.2730813957289],[-93.44146871606468,35.273153117273395],[-93.44582949890491,35.27322468078167],[-93.44722577974814,35.27330196478999],[-93.45045805220884,35.27335285922063],[-93.45490131670611,35.27342267943242],[-93.4549936478766,35.2734241284037],[-93.45797583641396,35.27345860746341],[-93.45927090484794,35.27347355792774],[-93.46065856004817,35.27348956129218],[-93.46364048678821,35.27352389718089],[-93.46372796064999,35.27006428183862],[-93.468100953154,35.270101786050375],[-93.46807839358286,35.27096375924065],[-93.4680783656508,35.27096482875756],[-93.4680062306246,35.27372089543461],[-93.4638075516338,35.2736834201568],[-93.46373013272976,35.277197861177626],[-93.46801120186565,35.27724313044059],[-93.47012468733794,35.27726542293449],[-93.47079653168896,35.27727125730726],[-93.47079598355361,35.27671748840454],[-93.47219328698603,35.27673061750042],[-93.47219049639966,35.273673257867145],[-93.47225940761827,35.273673493838444],[-93.47225998112371,35.27363420392327],[-93.4723793117413,35.27363565054559],[-93.47375011141439,35.273652256622384],[-93.47666115512179,35.273687471494696],[-93.4918269299559,35.27343957239321],[-93.4918692848232,35.271351711414944],[-93.50492325746603,35.272176815423414],[-93.50926398179448,35.27245320446353],[-93.51377415356241,35.2726399015386],[-93.513772185171,35.27271908923187],[-93.5139613228607,35.272726916878696],[-93.51395251897588,35.273080960149876],[-93.51387503832662,35.276196811831895],[-93.51419154428511,35.27620706275629],[-93.51837431456114,35.27634201937193],[-93.52268399222646,35.27648091774943],[-93.52277411846825,35.27301540375058],[-93.52727282054691,35.273204622418184],[-93.53167064424414,35.273298718194695],[-93.53606847600936,35.27339265401014],[-93.53606856403582,35.27347577143295],[-93.5362564135803,35.273479780107316],[-93.53618609747802,35.275855210271835],[-93.53615401777584,35.27693884463284],[-93.53662594233123,35.276955389234494],[-93.54054456684581,35.27708557911635],[-93.5431007353218,35.2771704338685],[-93.54474463074477,35.27720708938445],[-93.54486405546757,35.27358031674568],[-93.54491928608388,35.27190134758861],[-93.54498336116707,35.269953452245495],[-93.54609301788038,35.26998089427127],[-93.54940553635605,35.270062754266576],[-93.54959663454598,35.27006748132168],[-93.5497085531495,35.26652340448439],[-93.5498230528459,35.26289660437211],[-93.5516689965089,35.2629424497222],[-93.55183821659878,35.26294665089902],[-93.55202935987315,35.262951395628015],[-93.55191730391738,35.26657808610959],[-93.55180776942964,35.270122151840255],[-93.55222937591986,35.27013255611348],[-93.55224617987622,35.27013297083393],[-93.55382772184082,35.27017198470398],[-93.55382522784011,35.270254639606016],[-93.55401508061338,35.270259313081134],[-93.554015347828,35.27025931907103],[-93.55401588117006,35.27025933285921],[-93.554016414506,35.27025934574569],[-93.55412603948733,35.266633208066],[-93.55412605278586,35.26663273912608],[-93.55507769040999,35.266656312295105],[-93.55835227575287,35.26673737069423],[-93.55854355349071,35.266742102661546],[-93.55843877614288,35.27036840223209],[-93.55534232673187,35.2702920477105],[-93.55533808931267,35.27043236648594],[-93.55533808399592,35.27043255406182],[-93.55532409907968,35.27089564946534],[-93.55490744563227,35.270885365829955],[-93.55399816033719,35.27086291951847],[-93.55399704419604,35.27089987768013],[-93.5539067761073,35.27388559037961],[-93.5538296253947,35.27643669238127],[-93.55379960450686,35.277429340425904],[-93.56247234335389,35.277642090951545],[-93.57139548051798,35.277867985197965],[-93.573626271581,35.277924423466615],[-93.57374550275567,35.274296818129166],[-93.57598015315122,35.27435292467229],[-93.57610334049538,35.27072475556646],[-93.5805803597504,35.27083599268019],[-93.58064580604768,35.26902157144438],[-93.58953583325783,35.2691880420459],[-93.58960690975135,35.26737413003149],[-93.5979784647983,35.26753664557952],[-93.59818816915546,35.26410189018627],[-93.60252387763931,35.264179653077534],[-93.60808701086185,35.26427934073963],[-93.6156860772097,35.26441509745323],[-93.62009217375537,35.26455030169255],[-93.62028617967415,35.26455136671575],[-93.62039622604887,35.26111739518866],[-93.62039691873213,35.261095770971075],[-93.62043146433196,35.261095566790836],[-93.62495189734818,35.26106866615637],[-93.62497058090696,35.258635595727185],[-93.62477843749741,35.25863673856173],[-93.62462472232554,35.25863765297264],[-93.624620736373,35.25863767625337],[-93.62462142070352,35.25854848858808],[-93.62462746498993,35.25776008016506],[-93.62498114962585,35.25725762146878],[-93.62503575966595,35.25360326780421],[-93.62543912416378,35.25360667678383],[-93.62930517481266,35.25363928482191],[-93.62930652732402,35.25355272563737],[-93.63305933720495,35.253584264296265],[-93.63376867473148,35.25359021203886],[-93.63396181933176,35.25359511810423],[-93.634019989497,35.250028645482935],[-93.63402900271984,35.249417873806784],[-93.63407396945767,35.24637057301641],[-93.63771041111167,35.24646426337244],[-93.63771986365045,35.245782861413154],[-93.63857742731194,35.2457828677567],[-93.63861881618692,35.242826616005324],[-93.63867007523326,35.2391667150174],[-93.63872133272352,35.235506729796626],[-93.64301321300677,35.23561230932084],[-93.64320664060793,35.23561706411234],[-93.64315926733616,35.23919515874202],[-93.64315816040563,35.23927880173784],[-93.64745280695092,35.23938603386889],[-93.64764624538422,35.23939085990072],[-93.64764255785987,35.23968613055214],[-93.64760153154066,35.242970716919885],[-93.6476004877436,35.243054260356786],[-93.65189778644839,35.24316295413268],[-93.65209132361254,35.243167845510854],[-93.65204831570207,35.24683291745589],[-93.65200533845926,35.250497987947824],[-93.64750957168637,35.250380665574305],[-93.64750899888104,35.25038065060544],[-93.64636427175503,35.2503507793701],[-93.64451144034692,35.25030240797984],[-93.64446704200917,35.253131184356164],[-93.64445427610956,35.253944567110054],[-93.64294519039714,35.25390633438686],[-93.64287774489023,35.25754935265413],[-93.6410823709841,35.25750514636282],[-93.64106427123804,35.25850667824824],[-93.64101807494836,35.26106273838861],[-93.64713729056163,35.261207508540764],[-93.65174137173204,35.261316697294475],[-93.65178640355302,35.25859300247051],[-93.65398196610201,35.258648692328485],[-93.65403165360419,35.25410545745171],[-93.65759509193218,35.25419840524248],[-93.65778780904617,35.25420341624423],[-93.6577878117278,35.25403938233214],[-93.65808604521611,35.254047160894],[-93.65808604415464,35.254211184875246],[-93.66458642073775,35.254380492426215],[-93.66458643033816,35.25306186662872],[-93.66522533040445,35.253077922711704],[-93.66528912810134,35.25076898450748],[-93.67183086016973,35.25092460528564],[-93.67421877634092,35.25098132261671],[-93.67441275487195,35.250985373216956],[-93.67443913709896,35.247409345397124],[-93.67818015636445,35.247497664582596],[-93.67888141408818,35.24751420733593],[-93.68311147766883,35.247618307126295],[-93.68330636044357,35.247623099432595],[-93.68329478108481,35.2484847571181],[-93.68325744068842,35.25126322597216],[-93.67884982927919,35.25116241792831],[-93.67881483990517,35.252246643965115],[-93.67880851339875,35.25244266077823],[-93.67880716012726,35.25248457690323],[-93.67880580794643,35.25252649212011],[-93.6787370761876,35.25465612257165],[-93.67882913862452,35.254657752166366],[-93.6831585808449,35.25475518253093],[-93.68761438100245,35.25485529349965],[-93.68778786446795,35.25485918748751],[-93.69206718195564,35.25495487785018],[-93.69635652422285,35.25505063953125],[-93.69642056392756,35.25351717643884],[-93.69650288687319,35.251545836341684],[-93.69218283504595,35.251456979150156],[-93.68766508033737,35.25136403373139],[-93.6876666229839,35.25127948207742],[-93.68768575899696,35.25023037454397],[-93.68773133232173,35.247731822282894],[-93.69225056087849,35.24781393688894],[-93.696769788853,35.247895858310265],[-93.7012403739579,35.24797788825252],[-93.70425954828194,35.2480331948392],[-93.70445647048314,35.24803679966683],[-93.7044522861497,35.248181428052646],[-93.70444841872944,35.24831504322073],[-93.7044269697266,35.24905653832767],[-93.7043980048234,35.25005784688051],[-93.70439547653366,35.25014525732921],[-93.70866071079804,35.25017465102034],[-93.70866399843476,35.25008723876824],[-93.70869782987872,35.24889004983625],[-93.70871551398137,35.248264273121166],[-93.71359989100522,35.24832391157031],[-93.72654326973692,35.2484809964092],[-93.72656456475701,35.24756852411436],[-93.72662512188911,35.24497362573153],[-93.7250354902792,35.24493219644707],[-93.72239025682542,35.24486320987194],[-93.7223828245062,35.245143894261226],[-93.72237925324278,35.24527870195368],[-93.71854770562518,35.24524625134031],[-93.71791961394992,35.24524092060577],[-93.7179219681479,35.24515361912655],[-93.71793119845469,35.24481131669446],[-93.71773386428555,35.24480901568435],[-93.71693536219793,35.244799699516584],[-93.71347214260194,35.244759229391406],[-93.71347453297163,35.244672627457255],[-93.71357239396342,35.241127661013955],[-93.71367267548858,35.237496088475886],[-93.71366940540163,35.236812266844],[-93.71365547774735,35.233898879946416],[-93.7179190082714,35.233984714556335],[-93.71811378412603,35.23398863199801],[-93.718127731104,35.23757648132695],[-93.71803178947118,35.241108297051035],[-93.71802945196256,35.241194356869904],[-93.7222891687359,35.24125794571125],[-93.72229147313668,35.24117188242892],[-93.7223131598795,35.24033383761864],[-93.7223820888546,35.237670190894406],[-93.72237538692195,35.233989011641285],[-93.72236908144698,35.231535566719536],[-93.72236619000168,35.23041027657545],[-93.72235689232329,35.226916099261594],[-93.72143579432215,35.226893815965184],[-93.72143555194229,35.226809204059684],[-93.72124051232927,35.22680447379561],[-93.7212304935699,35.22330768255072],[-93.72106768311802,35.22330340734237],[-93.7190911482655,35.22325149288108],[-93.71870622748564,35.223241379697775],[-93.71854383709024,35.223237112124224],[-93.71807341719719,35.22322474884133],[-93.71796889500989,35.223222006414325],[-93.71480107125386,35.22313881300421],[-93.71360396737347,35.22312391244665],[-93.70913487556922,35.22306817898026],[-93.70496472924783,35.223016023978346],[-93.7049590495675,35.22292405601795],[-93.70477215878519,35.222921967581065],[-93.70476893822699,35.222875338399625],[-93.7046649179631,35.22287260319659],[-93.70466396816087,35.22278840818902],[-93.70447021056313,35.22278333228872],[-93.70439649324317,35.2144227505439],[-93.70435045306549,35.20919937285239],[-93.70434484667601,35.208563183703234],[-93.70372204734517,35.2085460879244],[-93.70372204818507,35.20846189529594],[-93.7037220499414,35.208306760374015],[-93.70352730931002,35.20830675866695],[-93.70334974801257,35.20830675603659],[-93.70301952158523,35.208306753317004],[-93.70301952307481,35.208217198324675],[-93.70301952571151,35.208040852019096],[-93.70301952823044,35.2077301529354],[-93.70435293720293,35.207749546009296],[-93.70455025006727,35.207752414132244],[-93.70453910223411,35.208141959615624],[-93.70497102540443,35.20811467968113],[-93.70912837892234,35.20785202857016],[-93.70919636211951,35.204210605070884],[-93.71397662310353,35.2039238171291],[-93.71403793534377,35.20029802847922],[-93.7141622267679,35.20029098365293],[-93.71495482414787,35.199540157295644],[-93.7162613325838,35.19898213425569],[-93.71770430216914,35.198167027909534],[-93.71848690567992,35.19769693409962],[-93.71885163743015,35.197401449409476],[-93.71902998650086,35.1891935552757],[-93.72377869399945,35.18896960073279],[-93.72387530824507,35.185373255674776],[-93.7240685205109,35.17818064943258],[-93.72850024146216,35.17821043108375],[-93.72852127342315,35.17459785059757],[-93.73295828268833,35.17462671715008],[-93.73298460161774,35.171013201318814],[-93.73743359756847,35.17104120140384],[-93.74188270256467,35.171068947199345],[-93.74190372987941,35.167448068322905],[-93.74194325837983,35.16380885978791],[-93.74194577563571,35.16018078628915],[-93.74650896687677,35.1602859342197],[-93.75104328384307,35.160390277648204],[-93.75104274821541,35.16047653792983],[-93.75124013330631,35.160481077722366],[-93.7512307818404,35.16198867969191],[-93.7521680926419,35.16189582049857],[-93.75250135606775,35.16186280292927],[-93.75256711476524,35.16196653466909],[-93.75269825185131,35.16195353987791],[-93.75300453764436,35.16243674859652],[-93.75310145222964,35.16258964327486],[-93.75351857393503,35.163971643174605],[-93.75352459170047,35.16399158185924],[-93.75425330010397,35.164086540709846],[-93.75574192130357,35.16410801263237],[-93.75679161929168,35.16412312992993],[-93.75679166761077,35.16412313052978],[-93.75694661392494,35.16412589546393],[-93.75694661476376,35.16409979685179],[-93.75694661666675,35.16381132805734],[-93.75937538339593,35.16381135462506],[-93.75937539061248,35.16263630056419],[-93.75937539171606,35.16251108512525],[-93.75937539181847,35.16247613008488],[-93.76028004928794,35.16305347271495],[-93.7602825555794,35.163055071918016],[-93.76089232402964,35.163334741226684],[-93.76095655189958,35.163333330605546],[-93.76131830319243,35.163325384273925],[-93.76159900983642,35.16326744348018],[-93.76209194051435,35.16324325653248],[-93.76219044007998,35.16320151063103],[-93.762259196455,35.16317236991965],[-93.76229328176322,35.163175366370496],[-93.7624975068166,35.163193316923014],[-93.7627905174156,35.1630729041924],[-93.76283178141551,35.16308752680303],[-93.7629161062719,35.16311740808135],[-93.76356465738571,35.163136024815245],[-93.76384632824427,35.163144109123806],[-93.76429693019253,35.16320176706668],[-93.76431700850897,35.16320433645107],[-93.76458207102087,35.163205034371245],[-93.76458681370721,35.16320600802214],[-93.7645839252179,35.163155016591645],[-93.76461387411268,35.16073531490984],[-93.76472292482438,35.16076095602726],[-93.76481096013966,35.16076232359346],[-93.7648116216344,35.16070724941298],[-93.76485406216227,35.15711926170017],[-93.76913744657638,35.157200339249464],[-93.76933555811407,35.157204085763546],[-93.76931968389202,35.1590758373657],[-93.76931509726919,35.15961640257968],[-93.7691335640029,35.15968325707477],[-93.76858051932793,35.15981802818592],[-93.76858043485664,35.15981803593537],[-93.7685182373085,35.15982393805131],[-93.76842587542541,35.1598323325885],[-93.76835748462322,35.15986572053747],[-93.7677846599373,35.160010351761336],[-93.76766558896254,35.160006076684226],[-93.76754470955956,35.1600546233036],[-93.76753903019042,35.1606592849921],[-93.76753820496376,35.160747108797985],[-93.76857565822645,35.16076366075858],[-93.76946935597623,35.16066065985265],[-93.77017964806127,35.16054890888831],[-93.77030489290338,35.16052920319106],[-93.77120924690132,35.16045338800203],[-93.7733002202863,35.160601191455505],[-93.77497784320408,35.16069479706788],[-93.77624713376103,35.16076730995342],[-93.77714084607985,35.16081835882655],[-93.77722388501094,35.16082161321804],[-93.7780910254698,35.16081622723019],[-93.77810655697448,35.15917279334574],[-93.77812423976985,35.15728255193508],[-93.77834672879814,35.15440892085741],[-93.77835187770368,35.15379380143998],[-93.7783518786284,35.153793667983464],[-93.77815415936946,35.15370263892417],[-93.7781729249719,35.151465572332604],[-93.77817621781168,35.1510729907929],[-93.77817857875482,35.15079158411601],[-93.77818346525021,35.15020904511746],[-93.77389093631652,35.15010279482551],[-93.77131096882636,35.15003893411004],[-93.77112872386118,35.149948112304564],[-93.77111351078452,35.14994773573653],[-93.76919944573147,35.14899382687329],[-93.76919615885505,35.148035461822474],[-93.7649338706372,35.14796456351643],[-93.76493486262912,35.149911034138185],[-93.76315520216656,35.149878940064575],[-93.76046969842878,35.14983045953652],[-93.76047086662552,35.14974291655427],[-93.76027255871251,35.149739335185934],[-93.76027455014557,35.14880218916669],[-93.75770491333049,35.14830777824321],[-93.75723247446251,35.148297148572475],[-93.75723361519515,35.14821053179035],[-93.75726034824098,35.146181272751],[-93.75706207721784,35.14617954603658],[-93.7559359482454,35.14616973049243],[-93.7513937294704,35.1461300158344],[-93.74696957931172,35.146106310755144],[-93.74252747663388,35.146082336801605],[-93.73870803280916,35.14602008961917],[-93.73807957088324,35.14600983580752],[-93.73723769078921,35.14599609844361],[-93.73363169220228,35.14593719383906],[-93.73352219043034,35.14955090423122],[-93.73347154636693,35.15206167522725],[-93.73345008188785,35.15312575381975],[-93.72902623158915,35.15305564100667],[-93.72731256374223,35.15302844678327],[-93.72723709848985,35.15302724876902],[-93.72715825345229,35.15302599615142],[-93.72460237956963,35.15298538734091],[-93.7246046023746,35.152897794017306],[-93.724694076211,35.14937262423152],[-93.72449571055152,35.14937742181107],[-93.72012407963574,35.14948306225452],[-93.71555408318004,35.14959347222547],[-93.71189030191665,35.149682023031936],[-93.71098411477386,35.149703908082216],[-93.71098693904605,35.1496084377134],[-93.71102293122937,35.14839186855741],[-93.7110957024534,35.14593195164619],[-93.7156575304786,35.14588220641464],[-93.71576092227576,35.14217097292271],[-93.72009990632165,35.142181074768054],[-93.72010205943128,35.14209063870276],[-93.72014129961003,35.14091216261292],[-93.72022061599824,35.13853002120508],[-93.71586337030138,35.138494099296516],[-93.71204186159848,35.13846252395765],[-93.71129887541989,35.13845637083754],[-93.70668929942568,35.13841808858729],[-93.70665368691446,35.142149241814174],[-93.70338171091073,35.14204552756198],[-93.70338583287585,35.14196105040786],[-93.70351880208436,35.139235808299084],[-93.70356279957761,35.13833401194137],[-93.70336329268945,35.13832864628573],[-93.7003570125223,35.13824775381174],[-93.69891302813336,35.1382088712195],[-93.69891561022982,35.13812337688386],[-93.69871788489534,35.138118051909444],[-93.69882228752546,35.134660459206366],[-93.69460140943148,35.134527015917385],[-93.690282629857,35.13439032409061],[-93.690182774913,35.13438846544111],[-93.69007310766071,35.13800106112875],[-93.68996329556992,35.14161930012004],[-93.68528982896984,35.14151171279026],[-93.68061638797255,35.141403931448025],[-93.68061345387618,35.14131770647933],[-93.68042191831252,35.14131328715316],[-93.6801803086749,35.13421015732475],[-93.68014721646271,35.13420942872755],[-93.67988433855304,35.13420364419471],[-93.67985966622287,35.134202901644684],[-93.6795893706907,35.134194762259895],[-93.67689483364182,35.13411522506994],[-93.67650202253833,35.13410365037577],[-93.67597231363138,35.13408803831959],[-93.67423517542005,35.13403661331185],[-93.67390411632282,35.134026821848764],[-93.67390407898996,35.13402682025297],[-93.67297666198199,35.13400483082359],[-93.67221800596113,35.13398683784202],[-93.67192676400293,35.13396835671916],[-93.67171901326117,35.13396222445337],[-93.67157283234761,35.1339601085856],[-93.67159149779444,35.134644626935966],[-93.67161231422976,35.135408036812244],[-93.67165310875272,35.13690356550813],[-93.6716634028605,35.13728098289453],[-93.6716715216259,35.13757863596675],[-93.67177027277671,35.14119942942222],[-93.67062480754363,35.14118144077808],[-93.6673446172022,35.141129869772946],[-93.66291898822058,35.14106012032539],[-93.66295217882679,35.142593000997806],[-93.66299726552678,35.144675190021644],[-93.6630755436376,35.14829026200034],[-93.66203891365491,35.1482726989912],[-93.65862944287288,35.14821487146159],[-93.65500258344883,35.148153406498295],[-93.65418333710336,35.14813950799513],[-93.65418458604098,35.1480524896868],[-93.65421961067294,35.145611170183464],[-93.65423509925967,35.14453157436561],[-93.65426232527949,35.14263348243158],[-93.65426437348907,35.1424906551282],[-93.65428417471547,35.14111024439262],[-93.65428502549042,35.14105098707102],[-93.65428587517438,35.14099173065645],[-93.6542860335857,35.14098066139283],[-93.65428685177439,35.14092364227359]]],[[[-93.78150344074132,35.21500008343824],[-93.78132148336967,35.21499689463107],[-93.77791514879291,35.214937139502524],[-93.77749714779709,35.21493788876809],[-93.77747512374734,35.21792617231867],[-93.77747634645698,35.218584389106425],[-93.77563927733532,35.21854957877792],[-93.77496842441738,35.21853685944652],[-93.77104729591058,35.21846244320291],[-93.7685866969054,35.21842827381459],[-93.76858609476076,35.219753657951166],[-93.76867082475144,35.22279093740534],[-93.76868087540514,35.22315119450858],[-93.76870024163445,35.223845342677635],[-93.76871046711422,35.224211866207],[-93.77172576750516,35.22429927946825],[-93.77620249679894,35.22442892096313],[-93.77723408903884,35.224459051690296],[-93.77742622519884,35.22446466256068],[-93.77741291962958,35.22283238172163],[-93.7774070436754,35.22211141918156],[-93.78055244966681,35.222209222470866],[-93.78160760684702,35.22224201347429],[-93.7820009815841,35.22224852944519],[-93.78200698832663,35.22192181364081],[-93.78202970537906,35.22068608708069],[-93.7820438466529,35.21862914447165],[-93.78206359362814,35.21575727189281],[-93.78206701548396,35.215259599658836],[-93.78206781195487,35.21509646998059],[-93.78206823126058,35.21501062966949],[-93.78206902833735,35.2150099951451],[-93.78213402294121,35.215011134279685],[-93.7821344241791,35.21498927847641],[-93.7821749203165,35.21499003845419],[-93.78261284147771,35.214998253975025],[-93.7827883537025,35.21500154653369],[-93.78288392751641,35.21500334053396],[-93.79047704855346,35.21514553505742],[-93.79086081061749,35.21515270919128],[-93.79109398572324,35.21515706741764],[-93.79110131907481,35.21482350760164],[-93.79112970251036,35.21160053123652],[-93.79097257827286,35.21159713690571],[-93.78718384879924,35.21151523031991],[-93.78209841274057,35.211405104643056],[-93.78208765233887,35.21271206912279],[-93.78208057641793,35.21357141264329],[-93.78208366266776,35.2138366005419],[-93.78208623322318,35.214057411773325],[-93.78209331755592,35.214665995496006],[-93.78209431928762,35.214752104350424],[-93.78209638518102,35.214929569452686],[-93.7820693934725,35.214929618485584],[-93.78206873163268,35.215009989848305],[-93.78184535549042,35.21500607572768],[-93.78150344074132,35.21500008343824]]],[[[-93.65860292087757,35.140991950074316],[-93.65859995262028,35.1409044595311],[-93.65840921729813,35.140901443769444],[-93.65828914546316,35.13736384732465],[-93.65411940831383,35.13729693311208],[-93.65428685177439,35.14092364227359],[-93.65860292087757,35.140991950074316]]],[[[-93.62495189734818,35.26106866615637],[-93.6248724633253,35.264574626729576],[-93.62913467648586,35.264557542081086],[-93.62918981546675,35.26102549845853],[-93.62495189734818,35.26106866615637]]],[[[-93.72025426075868,35.144015609438036],[-93.72021041023733,35.145849945586946],[-93.72476507338507,35.14581696740563],[-93.72476677349078,35.14572876395092],[-93.72456904744564,35.14572607818757],[-93.72460226475552,35.14400493439037],[-93.72025426075868,35.144015609438036]]]]},"properties":{"layer":"wma_boundary","name":"Mount Magazine WMA","description":"AGFC WMA boundary (fname). Confirm on the AGFC map before hanging a stand. Private inholdings are not cut out. Fetched 2026-10-06.","source":"AGFC GIS/WMAs","fname":"Mount Magazine WMA"}}]}